id,adcode,country,province,city,district,city_sname,lat,lng,UnrealX,UnrealY,
1,310114,中国,上海市,上海市,嘉定区,,31.37482,121.26621,,,
2,310120,中国,上海市,上海市,奉贤区,,30.91803,121.4741,,,
3,310113,中国,上海市,上海市,宝山区,,31.40527,121.48941,,,
4,310230,中国,上海市,上海市,崇明县,,31.6229,121.3973,,,
5,310104,中国,上海市,上海市,徐汇区,,31.18826,121.43687,,,
6,310107,中国,上海市,上海市,普陀区,,31.2494,121.397,,,
7,310110,中国,上海市,上海市,杨浦区,,31.25956,121.52609,,,
8,310117,中国,上海市,上海市,松江区,,31.03241,121.22654,,,
9,310115,中国,上海市,上海市,浦东新区,,31.22114,121.54409,,,
10,310109,中国,上海市,上海市,虹口区,,31.26451,121.50515,,,
11,310116,中国,上海市,上海市,金山区,,30.74185,121.34242,,,
12,310105,中国,上海市,上海市,长宁区,,31.22024,121.42394,,,
13,310112,中国,上海市,上海市,闵行区,,31.11325,121.38206,,,
14,310118,中国,上海市,上海市,青浦区,,31.14979,121.12426,,,
15,310106,中国,上海市,上海市,静安区,,31.22352,121.45591,,,
16,310101,中国,上海市,上海市,黄浦区,,31.23162,121.48461,,,
17,530000,中国,云南省,,,,25.051562267344867,102.71641607523223,,,
18,530900,中国,云南省,临沧市,,临沧,23.89516,100.08233,-46130,125890,
19,530902,中国,云南省,临沧市,临翔区,,23.89516,100.08233,,,
20,530922,中国,云南省,临沧市,云县,,24.4446,100.13111,,,
21,530921,中国,云南省,临沧市,凤庆县,,24.58038,99.92841,,,
22,530925,中国,云南省,临沧市,双江拉祜族佤族布朗族傣族自治县,,23.4736,99.82768,,,
23,530923,中国,云南省,临沧市,永德县,,24.01828,99.25929,,,
24,530927,中国,云南省,临沧市,沧源佤族自治县,,23.14681,99.24583,,,
25,530926,中国,云南省,临沧市,耿马傣族佤族自治县,,23.53786,99.39767,,,
26,530924,中国,云南省,临沧市,镇康县,,23.7631,98.82543,,,
27,530700,中国,云南省,丽江市,,丽江,26.8,100.2666,-42320,94290,
28,530723,中国,云南省,丽江市,华坪县,,26.62921,101.2663,,,
29,530702,中国,云南省,丽江市,古城区,,26.87721,100.22549,,,
30,530724,中国,云南省,丽江市,宁蒗彝族自治县,,27.28196,100.85198,,,
31,530722,中国,云南省,丽江市,永胜县,,26.68431,100.75086,,,
32,530721,中国,云南省,丽江市,玉龙纳西族自治县,,26.82152,100.23695,,,
33,530500,中国,云南省,保山市,,保山,25.12107,99.16579,-53740,111890,
34,530521,中国,云南省,保山市,施甸县,,24.72308,99.18902,,,
35,530524,中国,云南省,保山市,昌宁县,,24.82745,99.60567,,,
36,530522,中国,云南省,保山市,腾冲县,,25.02053,98.49097,,,
37,530502,中国,云南省,保山市,隆阳区,,25.12107,99.16579,,,
38,530523,中国,云南省,保山市,龙陵县,,24.58682,98.68927,,,
39,532900,中国,云南省,大理白族自治州,,大理,25.7,100.18,-42310,107370,
40,532929,中国,云南省,大理白族自治州,云龙县,,25.88573,99.37096,,,
41,532931,中国,云南省,大理白族自治州,剑川县,,26.53692,99.9055,,,
42,532926,中国,云南省,大理白族自治州,南涧彝族自治县,,25.04282,100.50974,,,
43,532901,中国,云南省,大理白族自治州,大理市,,25.59158,100.22976,,,
44,532924,中国,云南省,大理白族自治州,宾川县,,25.827,100.57265,,,
45,532927,中国,云南省,大理白族自治州,巍山彝族回族自治县,,25.22714,100.30711,,,
46,532925,中国,云南省,大理白族自治州,弥渡县,,25.34365,100.49131,,,
47,532928,中国,云南省,大理白族自治州,永平县,,25.46454,99.54098,,,
48,532930,中国,云南省,大理白族自治州,洱源县,,26.11113,99.95088,,,
49,532922,中国,云南省,大理白族自治州,漾濞彝族自治县,,25.66992,99.95814,,,
50,532923,中国,云南省,大理白族自治州,祥云县,,25.48381,100.55059,,,
51,532932,中国,云南省,大理白族自治州,鹤庆县,,26.56013,100.17644,,,
52,533100,中国,云南省,德宏傣族景颇族自治州,,德宏,24.43232,98.58486,-59780,118780,
53,533122,中国,云南省,德宏傣族景颇族自治州,梁河县,,24.80435,98.2967,,,
54,533102,中国,云南省,德宏傣族景颇族自治州,瑞丽市,,24.01278,97.85189,,,
55,533123,中国,云南省,德宏傣族景颇族自治州,盈江县,,24.70519,97.93184,,,
56,533103,中国,云南省,德宏傣族景颇族自治州,芒市,,24.43379,98.58815,,,
57,533124,中国,云南省,德宏傣族景颇族自治州,陇川县,,24.18305,97.79203,,,
58,533300,中国,云南省,怒江傈僳族自治州,,怒江,25.81763,98.8567,-55980,104490,
59,533325,中国,云南省,怒江傈僳族自治州,兰坪白族普米族自治县,,26.45353,99.41671,,,
60,533321,中国,云南省,怒江傈僳族自治州,泸水县,,25.82306,98.85804,,,
61,533323,中国,云南省,怒江傈僳族自治州,福贡县,,26.90185,98.86905,,,
62,533324,中国,云南省,怒江傈僳族自治州,贡山独龙族怒族自治县,,27.74104,98.66579,,,
63,532600,中国,云南省,文山壮族苗族自治州,,文山,23.3724,104.2497,-6850,134100,
64,532626,中国,云南省,文山壮族苗族自治州,丘北县,,24.04186,104.19581,,,
65,532628,中国,云南省,文山壮族苗族自治州,富宁县,,23.62539,105.63053,,,
66,532627,中国,云南省,文山壮族苗族自治州,广南县,,24.04645,105.05516,,,
67,532621,中国,云南省,文山壮族苗族自治州,文山市,,23.38678,104.233,,,
68,532622,中国,云南省,文山壮族苗族自治州,砚山县,,23.60586,104.33709,,,
69,532623,中国,云南省,文山壮族苗族自治州,西畴县,,23.43712,104.6722,,,
70,532625,中国,云南省,文山壮族苗族自治州,马关县,,23.01298,104.39387,,,
71,532624,中国,云南省,文山壮族苗族自治州,麻栗坡县,,23.12525,104.70252,,,
72,530100,中国,云南省,昆明市,,昆明,25.07,102.68,-19510,117390,
73,530113,中国,云南省,昆明市,东川区,,26.08294,103.18773,,,
74,530102,中国,云南省,昆明市,五华区,,25.04347,102.70737,,,
75,530121,中国,云南省,昆明市,呈贡县,,24.88554,102.82147,,,
76,530181,中国,云南省,昆明市,安宁市,,24.91954,102.478,,,
77,530111,中国,云南省,昆明市,官渡区,,25.01503,102.7437,,,
78,530125,中国,云南省,昆明市,宜良县,,24.92005,103.14119,,,
79,530124,中国,云南省,昆明市,富民县,,25.22199,102.49767,,,
80,530129,中国,云南省,昆明市,寻甸回族彝族自治县,,25.55818,103.25668,,,
81,530127,中国,云南省,昆明市,嵩明县,,25.33872,103.03687,,,
82,530122,中国,云南省,昆明市,晋宁县,,24.66982,102.59559,,,
83,530103,中国,云南省,昆明市,盘龙区,,25.11624,102.75205,,,
84,530126,中国,云南省,昆明市,石林彝族自治县,,24.77082,103.2889,,,
85,530128,中国,云南省,昆明市,禄劝彝族苗族自治县,,25.55128,102.47145,,,
86,530112,中国,云南省,昆明市,西山区,,25.03845,102.66481,,,
87,530600,中国,云南省,昭通市,,昭通,27.32027,103.70594,-9340,92500,
88,530624,中国,云南省,昭通市,大关县,,27.74806,103.89111,,,
89,530629,中国,云南省,昭通市,威信县,,27.84685,105.04906,,,
90,530622,中国,云南省,昭通市,巧家县,,26.90861,102.93006,,,
91,530628,中国,云南省,昭通市,彝良县,,27.62551,104.04805,,,
92,530602,中国,云南省,昭通市,昭阳区,,27.32027,103.70594,,,
93,530630,中国,云南省,昭通市,水富县,,28.63002,104.41562,,,
94,530625,中国,云南省,昭通市,永善县,,28.22909,103.63817,,,
95,530623,中国,云南省,昭通市,盐津县,,28.10859,104.23467,,,
96,530626,中国,云南省,昭通市,绥江县,,28.5984,103.95841,,,
97,530627,中国,云南省,昭通市,镇雄县,,27.4415,104.8736,,,
98,530621,中国,云南省,昭通市,鲁甸县,,27.18664,103.55792,,,
99,530800,中国,云南省,普洱市,,普洱,22.78684,100.97692,-39010,137890,
100,530822,中国,云南省,普洱市,墨江哈尼族自治县,,23.43185,101.69223,,,
101,530827,中国,云南省,普洱市,孟连傣族拉祜族佤族自治县,,22.32911,99.58441,,,
102,530821,中国,云南省,普洱市,宁洱哈尼族彝族自治县,,23.06167,101.04539,,,
103,530802,中国,云南省,普洱市,思茅区,,22.78684,100.97692,,,
104,530823,中国,云南省,普洱市,景东彝族自治县,,24.44697,100.8339,,,
105,530824,中国,云南省,普洱市,景谷傣族彝族自治县,,23.49704,100.7029,,,
106,530826,中国,云南省,普洱市,江城哈尼族彝族自治县,,22.58518,101.86237,,,
107,530828,中国,云南省,普洱市,澜沧拉祜族自治县,,22.55577,99.93208,,,
108,530829,中国,云南省,普洱市,西盟佤族自治县,,22.64435,99.59018,,,
109,530825,中国,云南省,普洱市,镇沅彝族哈尼族拉祜族自治县,,24.00461,101.10843,,,
110,530300,中国,云南省,曲靖市,,曲靖,25.60167,103.82183,-9850,111690,
111,530326,中国,云南省,曲靖市,会泽县,,26.41791,103.29737,,,
112,530381,中国,云南省,曲靖市,宣威市,,26.21989,104.10448,,,
113,530325,中国,云南省,曲靖市,富源县,,25.67422,104.25485,,,
114,530323,中国,云南省,曲靖市,师宗县,,24.82851,103.9899,,,
115,530328,中国,云南省,曲靖市,沾益县,,25.60167,103.82183,,,
116,530324,中国,云南省,曲靖市,罗平县,,24.88468,104.3087,,,
117,530322,中国,云南省,曲靖市,陆良县,,25.02941,103.66683,,,
118,530321,中国,云南省,曲靖市,马龙县,,25.42807,103.57834,,,
119,530302,中国,云南省,曲靖市,麒麟区,,25.49513,103.80481,,,
120,532300,中国,云南省,楚雄彝族自治州,,楚雄,25.0364,101.5456,-31250,115020,
121,532328,中国,云南省,楚雄彝族自治州,元谋县,,25.70436,101.87449,,,
122,532324,中国,云南省,楚雄彝族自治州,南华县,,25.19229,101.27354,,,
123,532322,中国,云南省,楚雄彝族自治州,双柏县,,24.68884,101.64206,,,
124,532326,中国,云南省,楚雄彝族自治州,大姚县,,25.72179,101.3244,,,
125,532325,中国,云南省,楚雄彝族自治州,姚安县,,25.50423,101.24158,,,
126,532301,中国,云南省,楚雄彝族自治州,楚雄市,,25.03288,101.54582,,,
127,532329,中国,云南省,楚雄彝族自治州,武定县,,25.53038,102.40442,,,
128,532327,中国,云南省,楚雄彝族自治州,永仁县,,26.05615,101.66982,,,
129,532323,中国,云南省,楚雄彝族自治州,牟定县,,25.31241,101.54697,,,
130,532331,中国,云南省,楚雄彝族自治州,禄丰县,,25.14998,102.079,,,
131,530400,中国,云南省,玉溪市,,玉溪,24.38,102.57,-22650,122680,
132,530428,中国,云南省,玉溪市,元江哈尼族彝族傣族自治县,,23.59667,101.99809,,,
133,530424,中国,云南省,玉溪市,华宁县,,24.1934,102.92849,,,
134,530426,中国,云南省,玉溪市,峨山彝族自治县,,24.16908,102.40579,,,
135,530427,中国,云南省,玉溪市,新平彝族傣族自治县,,24.07,101.99014,,,
136,530425,中国,云南省,玉溪市,易门县,,24.67108,102.16273,,,
137,530421,中国,云南省,玉溪市,江川县,,24.28744,102.75376,,,
138,530422,中国,云南省,玉溪市,澄江县,,24.67379,102.90819,,,
139,530402,中国,云南省,玉溪市,红塔区,,24.35423,102.54522,,,
140,530423,中国,云南省,玉溪市,通海县,,24.11367,102.76647,,,
141,532500,中国,云南省,红河哈尼族彝族自治州,,红河,23.37448873836479,102.42755057757,-14890,133560,
142,532501,中国,云南省,红河哈尼族彝族自治州,个旧市,,23.35899,103.16004,,,
143,532528,中国,云南省,红河哈尼族彝族自治州,元阳县,,23.21999,102.83528,,,
144,532523,中国,云南省,红河哈尼族彝族自治州,屏边苗族自治县,,22.98372,103.68721,,,
145,532524,中国,云南省,红河哈尼族彝族自治州,建水县,,23.63499,102.82699,,,
146,532502,中国,云南省,红河哈尼族彝族自治州,开远市,,23.71434,103.26676,,,
147,532504,中国,云南省,红河哈尼族彝族自治州,弥勒市,,24.41059,103.41499,,,
148,532532,中国,云南省,红河哈尼族彝族自治州,河口瑶族自治县,,22.52931,103.93936,,,
149,532527,中国,云南省,红河哈尼族彝族自治州,泸西县,,24.5321,103.76623,,,
150,532525,中国,云南省,红河哈尼族彝族自治州,石屏县,,23.70556,102.49621,,,
151,532529,中国,云南省,红河哈尼族彝族自治州,红河县,,23.36907,102.42079,,,
152,532531,中国,云南省,红河哈尼族彝族自治州,绿春县,,22.99346,102.39293,,,
153,532503,中国,云南省,红河哈尼族彝族自治州,蒙自市,,23.39622,103.36481,,,
154,532530,中国,云南省,红河哈尼族彝族自治州,金平苗族瑶族傣族自治县,,22.77966,103.22648,,,
155,532800,中国,云南省,西双版纳傣族自治州,,西双版纳,22.00749,100.79739,-41190,145690,
156,532822,中国,云南省,西双版纳傣族自治州,勐海县,,21.95753,100.45223,,,
157,532823,中国,云南省,西双版纳傣族自治州,勐腊县,,21.45941,101.56461,,,
158,532801,中国,云南省,西双版纳傣族自治州,景洪市,,22.00008,100.77163,,,
159,533400,中国,云南省,迪庆藏族自治州,,迪庆,27.81908,99.70305,-46190,84900,
160,533422,中国,云南省,迪庆藏族自治州,德钦县,,28.46357,98.91699,,,
161,533423,中国,云南省,迪庆藏族自治州,维西傈僳族自治县,,27.17739,99.28705,,,
162,533421,中国,云南省,迪庆藏族自治州,香格里拉县,,27.83031,99.7009,,,
163,150000,中国,内蒙古自治区,,,,40.82403376116102,111.67741976203259,,,
164,150900,中国,内蒙古自治区,乌兰察布市,,乌兰察布,40.9906,113.12401,71950,-53300,
165,150981,中国,内蒙古自治区,乌兰察布市,丰镇市,,40.43574,113.11056,,,
166,150924,中国,内蒙古自治区,乌兰察布市,兴和县,,40.8719,113.83396,,,
167,150925,中国,内蒙古自治区,乌兰察布市,凉城县,,40.53165,112.50387,,,
168,150922,中国,内蒙古自治区,乌兰察布市,化德县,,41.90479,114.01089,,,
169,150921,中国,内蒙古自治区,乌兰察布市,卓资县,,40.89417,112.57785,,,
170,150923,中国,内蒙古自治区,乌兰察布市,商都县,,41.5621,113.57718,,,
171,150929,中国,内蒙古自治区,乌兰察布市,四子王旗,,41.53316,111.70658,,,
172,150927,中国,内蒙古自治区,乌兰察布市,察哈尔右翼中旗,,41.27747,112.63544,,,
173,150926,中国,内蒙古自治区,乌兰察布市,察哈尔右翼前旗,,40.78585,113.21095,,,
174,150928,中国,内蒙古自治区,乌兰察布市,察哈尔右翼后旗,,41.43589,113.19222,,,
175,150902,中国,内蒙古自治区,乌兰察布市,集宁区,,40.9906,113.12401,,,
176,150300,中国,内蒙古自治区,乌海市,,乌海,39.6647,106.8122,21790,-38350,
177,150304,中国,内蒙古自治区,乌海市,乌达区,,39.5058,106.72609,,,
178,150302,中国,内蒙古自治区,乌海市,海勃湾区,,39.69184,106.8226,,,
179,150303,中国,内蒙古自治区,乌海市,海南区,,39.44096,106.89157,,,
180,152200,中国,内蒙古自治区,兴安盟,,兴安盟,46.08208,122.03818,126810,-115420,
181,152201,中国,内蒙古自治区,兴安盟,乌兰浩特市,,46.07282,122.09316,,,
182,152223,中国,内蒙古自治区,兴安盟,扎赉特旗,,46.72279,122.8998,,,
183,152222,中国,内蒙古自治区,兴安盟,科尔沁右翼中旗,,45.06056,121.47694,,,
184,152221,中国,内蒙古自治区,兴安盟,科尔沁右翼前旗,,46.07955,121.95275,,,
185,152224,中国,内蒙古自治区,兴安盟,突泉县,,45.38282,121.59408,,,
186,152202,中国,内蒙古自治区,兴安盟,阿尔山市,,47.1771,119.94381,,,
187,150200,中国,内蒙古自治区,包头市,,包头,40.6522,109.822,46260,-48840,
188,150202,中国,内蒙古自治区,包头市,东河区,,40.57643,110.04317,,,
189,150207,中国,内蒙古自治区,包头市,九原区,,40.61009,109.96718,,,
190,150222,中国,内蒙古自治区,包头市,固阳县,,41.03412,110.0607,,,
191,150221,中国,内蒙古自治区,包头市,土默特右旗,,40.56883,110.52421,,,
192,150203,中国,内蒙古自治区,包头市,昆都仑区,,40.64178,109.83859,,,
193,150206,中国,内蒙古自治区,包头市,白云鄂博矿区,,41.76943,109.97372,,,
194,150205,中国,内蒙古自治区,包头市,石拐区,,40.67204,110.27227,,,
195,150223,中国,内蒙古自治区,包头市,达尔罕茂明安联合旗,,41.69854,110.43261,,,
196,150204,中国,内蒙古自治区,包头市,青山区,,40.64559,109.90241,,,
197,150700,中国,内蒙古自治区,呼伦贝尔市,,呼伦贝尔,49.21336,119.73572,115840,-143490,
198,150783,中国,内蒙古自治区,呼伦贝尔市,扎兰屯市,,48.01365,122.73761,,,
199,150703,中国,内蒙古自治区,呼伦贝尔市,扎赉诺尔区,,49.51054,117.66992,,,
200,150727,中国,内蒙古自治区,呼伦贝尔市,新巴尔虎右旗,,48.67191,116.82355,,,
201,150726,中国,内蒙古自治区,呼伦贝尔市,新巴尔虎左旗,,48.21819,118.26995,,,
202,150785,中国,内蒙古自治区,呼伦贝尔市,根河市,,50.78046,121.5204,,,
203,150702,中国,内蒙古自治区,呼伦贝尔市,海拉尔区,,49.21336,119.73572,,,
204,150781,中国,内蒙古自治区,呼伦贝尔市,满洲里市,,49.59655,117.37836,,,
205,150782,中国,内蒙古自治区,呼伦贝尔市,牙克石市,,49.28563,120.71174,,,
206,150722,中国,内蒙古自治区,呼伦贝尔市,莫力达瓦达斡尔族自治旗,,48.47711,124.51936,,,
207,150723,中国,内蒙古自治区,呼伦贝尔市,鄂伦春自治旗,,50.59158,123.72577,,,
208,150724,中国,内蒙古自治区,呼伦贝尔市,鄂温克族自治旗,,49.14678,119.75542,,,
209,150721,中国,内蒙古自治区,呼伦贝尔市,阿荣旗,,48.12582,123.45944,,,
210,150725,中国,内蒙古自治区,呼伦贝尔市,陈巴尔虎旗,,49.32837,119.42429,,,
211,150784,中国,内蒙古自治区,呼伦贝尔市,额尔古纳市,,50.24315,120.17962,,,
212,150100,中国,内蒙古自治区,呼和浩特市,,呼和浩特,40.80772,111.62299,61330,-51270,
213,150123,中国,内蒙古自治区,呼和浩特市,和林格尔县,,40.37859,111.82083,,,
214,150103,中国,内蒙古自治区,呼和浩特市,回民区,,40.80772,111.62299,,,
215,150121,中国,内蒙古自治区,呼和浩特市,土默特左旗,,40.72957,111.16358,,,
216,150122,中国,内蒙古自治区,呼和浩特市,托克托县,,40.27744,111.19421,,,
217,150102,中国,内蒙古自治区,呼和浩特市,新城区,,40.85844,111.66345,,,
218,150125,中国,内蒙古自治区,呼和浩特市,武川县,,41.0965,111.45118,,,
219,150124,中国,内蒙古自治区,呼和浩特市,清水河县,,39.90892,111.68639,,,
220,150104,中国,内蒙古自治区,呼和浩特市,玉泉区,,40.75319,111.67543,,,
221,150105,中国,内蒙古自治区,呼和浩特市,赛罕区,,40.79195,111.70171,,,
222,150800,中国,内蒙古自治区,巴彦淖尔市,,巴彦淖尔,40.7493594895728,107.39439808372491,26830,-50030,
223,150802,中国,内蒙古自治区,巴彦淖尔市,临河区,,40.76645,107.38683,,,
224,150824,中国,内蒙古自治区,巴彦淖尔市,乌拉特中旗,,41.56746,108.52647,,,
225,150823,中国,内蒙古自治区,巴彦淖尔市,乌拉特前旗,,40.73662,108.65224,,,
226,150825,中国,内蒙古自治区,巴彦淖尔市,乌拉特后旗,,41.08414,107.07466,,,
227,150821,中国,内蒙古自治区,巴彦淖尔市,五原县,,41.08879,108.2673,,,
228,150826,中国,内蒙古自治区,巴彦淖尔市,杭锦后旗,,40.88594,107.15114,,,
229,150822,中国,内蒙古自治区,巴彦淖尔市,磴口县,,40.33056,107.00864,,,
230,150400,中国,内蒙古自治区,赤峰市,,赤峰,42.27,118.95,115410,-69490,
231,150403,中国,内蒙古自治区,赤峰市,元宝山区,,42.03888,119.28862,,,
232,150425,中国,内蒙古自治区,赤峰市,克什克腾旗,,43.26624,117.54421,,,
233,150428,中国,内蒙古自治区,赤峰市,喀喇沁旗,,41.92718,118.70273,,,
234,150429,中国,内蒙古自治区,赤峰市,宁城县,,41.59426,119.34308,,,
235,150423,中国,内蒙古自治区,赤峰市,巴林右旗,,43.53391,118.66466,,,
236,150422,中国,内蒙古自治区,赤峰市,巴林左旗,,43.97094,119.37961,,,
237,150430,中国,内蒙古自治区,赤峰市,敖汉旗,,42.29073,119.92168,,,
238,150404,中国,内蒙古自治区,赤峰市,松山区,,42.28727,118.93301,,,
239,150424,中国,内蒙古自治区,赤峰市,林西县,,43.61702,118.0558,,,
240,150402,中国,内蒙古自治区,赤峰市,红山区,,42.26581,118.95927,,,
241,150426,中国,内蒙古自治区,赤峰市,翁牛特旗,,42.93483,119.00669,,,
242,150421,中国,内蒙古自治区,赤峰市,阿鲁科尔沁旗,,43.87244,120.06556,,,
243,150500,中国,内蒙古自治区,通辽市,,通辽,43.62,122.27,139060,-86750,
244,150525,中国,内蒙古自治区,通辽市,奈曼旗,,42.86729,120.65779,,,
245,150524,中国,内蒙古自治区,通辽市,库伦旗,,42.73504,121.81073,,,
246,150523,中国,内蒙古自治区,通辽市,开鲁县,,43.60005,121.3189,,,
247,150526,中国,内蒙古自治区,通辽市,扎鲁特旗,,44.55631,120.91159,,,
248,150502,中国,内蒙古自治区,通辽市,科尔沁区,,43.62244,122.25615,,,
249,150521,中国,内蒙古自治区,通辽市,科尔沁左翼中旗,,44.12659,123.31216,,,
250,150522,中国,内蒙古自治区,通辽市,科尔沁左翼后旗,,42.93511,122.35674,,,
251,150581,中国,内蒙古自治区,通辽市,霍林郭勒市,,45.53141,119.66359,,,
252,150600,中国,内蒙古自治区,鄂尔多斯市,,鄂尔多斯,39.82127,109.96144,45710,-37750,
253,150602,中国,内蒙古自治区,鄂尔多斯市,东胜区,,39.82127,109.96144,,,
254,150626,中国,内蒙古自治区,鄂尔多斯市,乌审旗,,38.60388,108.81769,,,
255,150627,中国,内蒙古自治区,鄂尔多斯市,伊金霍洛旗,,39.56442,109.74811,,,
256,150622,中国,内蒙古自治区,鄂尔多斯市,准格尔旗,,39.86426,111.23987,,,
257,150625,中国,内蒙古自治区,鄂尔多斯市,杭锦旗,,39.83352,108.73497,,,
258,150621,中国,内蒙古自治区,鄂尔多斯市,达拉特旗,,40.40016,110.03293,,,
259,150623,中国,内蒙古自治区,鄂尔多斯市,鄂托克前旗,,38.18239,107.47743,,,
260,150624,中国,内蒙古自治区,鄂尔多斯市,鄂托克旗,,39.08989,107.9776,,,
261,152500,中国,内蒙古自治区,锡林郭勒盟,,锡盟,43.9332,116.04775,87230,-89790,
262,152525,中国,内蒙古自治区,锡林郭勒盟,东乌珠穆沁旗,,45.5096,116.97215,,,
263,152501,中国,内蒙古自治区,锡林郭勒盟,二连浩特市,,43.64305,111.95238,,,
264,152531,中国,内蒙古自治区,锡林郭勒盟,多伦县,,42.20303,116.48571,,,
265,152527,中国,内蒙古自治区,锡林郭勒盟,太仆寺旗,,41.87732,115.28305,,,
266,152530,中国,内蒙古自治区,锡林郭勒盟,正蓝旗,,42.24162,115.99239,,,
267,152529,中国,内蒙古自治区,锡林郭勒盟,正镶白旗,,42.28722,115.03077,,,
268,152524,中国,内蒙古自治区,锡林郭勒盟,苏尼特右旗,,42.74694,112.65746,,,
269,152523,中国,内蒙古自治区,锡林郭勒盟,苏尼特左旗,,43.85921,113.66737,,,
270,152526,中国,内蒙古自治区,锡林郭勒盟,西乌珠穆沁旗,,44.58716,117.60899,,,
271,152502,中国,内蒙古自治区,锡林郭勒盟,锡林浩特市,,43.93339,116.08608,,,
272,152528,中国,内蒙古自治区,锡林郭勒盟,镶黄旗,,42.23232,113.84751,,,
273,152522,中国,内蒙古自治区,锡林郭勒盟,阿巴嘎旗,,44.02272,114.95034,,,
274,152900,中国,内蒙古自治区,阿拉善盟,,阿拉善盟,38.85153,105.72898,3310,-42840,
275,152922,中国,内蒙古自治区,阿拉善盟,阿拉善右旗,,39.21536,101.66711,,,
276,152921,中国,内蒙古自治区,阿拉善盟,阿拉善左旗,,38.83343,105.66626,,,
277,152923,中国,内蒙古自治区,阿拉善盟,额济纳旗,,41.95449,101.05552,,,
278,110000,中国,北京市,,,北京,39.9289,116.3883,97840,-42830,
279,110101,中国,北京市,北京市,东城区,,39.92855,116.41637,,,
280,110106,中国,北京市,北京市,丰台区,,39.85856,116.28616,,,
281,110115,中国,北京市,北京市,大兴区,,39.72684,116.34159,,,
282,110228,中国,北京市,北京市,密云县,,40.37625,116.84317,,,
283,110117,中国,北京市,北京市,平谷区,,40.14062,117.12141,,,
284,110229,中国,北京市,北京市,延庆县,,40.45678,115.97503,,,
285,110116,中国,北京市,北京市,怀柔区,,40.316,116.63177,,,
286,110111,中国,北京市,北京市,房山区,,39.74788,116.14294,,,
287,110114,中国,北京市,北京市,昌平区,,40.22077,116.23128,,,
288,110105,中国,北京市,北京市,朝阳区,,39.9219,116.44355,,,
289,110108,中国,北京市,北京市,海淀区,,39.95933,116.29845,,,
290,110107,中国,北京市,北京市,石景山区,,39.90569,116.22299,,,
291,110102,中国,北京市,北京市,西城区,,39.91231,116.36611,,,
292,110112,中国,北京市,北京市,通州区,,39.90998,116.65714,,,
293,110109,中国,北京市,北京市,门头沟区,,39.94048,116.10146,,,
294,110113,中国,北京市,北京市,顺义区,,40.13012,116.65477,,,
295,710000,中国,台湾省,,,台湾,24.1666011470968,120.657423840032,158880,111710,
296,220000,中国,吉林省,,,,43.89257578056888,125.33107197951917,,,
297,220200,中国,吉林省,吉林市,,吉林,43.85,126.55,171980,-93190,
298,220211,中国,吉林省,吉林市,丰满区,,43.82142,126.56206,,,
299,220202,中国,吉林省,吉林市,昌邑区,,43.88187,126.57436,,,
300,220282,中国,吉林省,吉林市,桦甸市,,42.97208,126.74627,,,
301,220221,中国,吉林省,吉林市,永吉县,,43.67253,126.49754,,,
302,220284,中国,吉林省,吉林市,磐石市,,42.94662,126.06046,,,
303,220283,中国,吉林省,吉林市,舒兰市,,44.40586,126.96532,,,
304,220204,中国,吉林省,吉林市,船营区,,43.83395,126.54113,,,
305,220281,中国,吉林省,吉林市,蛟河市,,43.72393,127.34477,,,
306,220203,中国,吉林省,吉林市,龙潭区,,43.9106,126.56223,,,
307,220300,中国,吉林省,四平市,,四平,43.17,124.33,156510,-83850,
308,220323,中国,吉林省,四平市,伊通满族自治县,,43.34494,125.30536,,,
309,220381,中国,吉林省,四平市,公主岭市,,43.50468,124.8228,,,
310,220382,中国,吉林省,四平市,双辽市,,43.51845,123.50296,,,
311,220322,中国,吉林省,四平市,梨树县,,43.30717,124.33564,,,
312,220303,中国,吉林省,四平市,铁东区,,43.16208,124.40946,,,
313,220302,中国,吉林省,四平市,铁西区,,43.14635,124.34515,,,
314,222400,中国,吉林省,延边朝鲜族自治州,,延边,42.89119,129.5091,196300,-87340,
315,222406,中国,吉林省,延边朝鲜族自治州,和龙市,,42.54641,129.01079,,,
316,222402,中国,吉林省,延边朝鲜族自治州,图们市,,42.96805,129.8439,,,
317,222426,中国,吉林省,延边朝鲜族自治州,安图县,,43.11166,128.8992,,,
318,222401,中国,吉林省,延边朝鲜族自治州,延吉市,,42.89107,129.5091,,,
319,222403,中国,吉林省,延边朝鲜族自治州,敦化市,,43.37278,128.23109,,,
320,222424,中国,吉林省,延边朝鲜族自治州,汪清县,,43.31281,129.77125,,,
321,222404,中国,吉林省,延边朝鲜族自治州,珲春市,,42.86249,130.36577,,,
322,222405,中国,吉林省,延边朝鲜族自治州,龙井市,,42.76587,129.42641,,,
323,220700,中国,吉林省,松原市,,松原,45.17185,124.81698,156760,-106190,
324,220723,中国,吉林省,松原市,乾安县,,45.00457,124.02797,,,
325,220721,中国,吉林省,松原市,前郭尔罗斯蒙古族自治县,,45.1173,124.82357,,,
326,220702,中国,吉林省,松原市,宁江区,,45.17185,124.81698,,,
327,220724,中国,吉林省,松原市,扶余县,,44.99014,126.04972,,,
328,220722,中国,吉林省,松原市,长岭县,,44.27591,123.9673,,,
329,220800,中国,吉林省,白城市,,白城,45.62,122.82,141680,-107930,
330,220882,中国,吉林省,白城市,大安市,,45.50711,124.29252,,,
331,220802,中国,吉林省,白城市,洮北区,,45.6216,122.85111,,,
332,220881,中国,吉林省,白城市,洮南市,,45.33559,122.78635,,,
333,220822,中国,吉林省,白城市,通榆县,,44.81296,123.08831,,,
334,220821,中国,吉林省,白城市,镇赉县,,45.84825,123.19987,,,
335,220600,中国,吉林省,白山市,,白山,41.9,126.43,174690,-72690,
336,220681,中国,吉林省,白山市,临江市,,41.81193,126.91798,,,
337,220621,中国,吉林省,白山市,抚松县,,42.34202,127.28036,,,
338,220605,中国,吉林省,白山市,江源区,,42.05665,126.59088,,,
339,220602,中国,吉林省,白山市,浑江区,,41.94507,126.417,,,
340,220623,中国,吉林省,白山市,长白朝鲜族自治县,,41.41997,128.2005,,,
341,220622,中国,吉林省,白山市,靖宇县,,42.38872,126.81329,,,
342,220400,中国,吉林省,辽源市,,辽源,42.9,125.13,162530,-81750,
343,220421,中国,吉林省,辽源市,东丰县,,42.67704,125.53056,,,
344,220422,中国,吉林省,辽源市,东辽县,,42.92636,124.99162,,,
345,220403,中国,吉林省,辽源市,西安区,,42.92689,125.14922,,,
346,220402,中国,吉林省,辽源市,龙山区,,42.9015,125.13682,,,
347,220500,中国,吉林省,通化市,,通化,41.68,125.75,170640,-69930,
348,220502,中国,吉林省,通化市,东昌区,,41.7285,125.95513,,,
349,220503,中国,吉林省,通化市,二道江区,,41.7742,126.04262,,,
350,220524,中国,吉林省,通化市,柳河县,,42.2847,125.74478,,,
351,220581,中国,吉林省,通化市,梅河口市,,42.53873,125.7121,,,
352,220523,中国,吉林省,通化市,辉南县,,42.68499,126.04687,,,
353,220521,中国,吉林省,通化市,通化县,,41.67929,125.7594,,,
354,220582,中国,吉林省,通化市,集安市,,41.12622,126.19269,,,
355,220100,中国,吉林省,长春市,,长春,43.865,125.34,162450,-92350,
356,220181,中国,吉林省,长春市,九台市,,44.15174,125.83949,,,
357,220105,中国,吉林省,长春市,二道区,,43.86497,125.37427,,,
358,220122,中国,吉林省,长春市,农安县,,44.43195,125.18512,,,
359,220102,中国,吉林省,长春市,南关区,,43.86414,125.35043,,,
360,220112,中国,吉林省,长春市,双阳区,,43.52503,125.66464,,,
361,220103,中国,吉林省,长春市,宽城区,,43.94288,125.32615,,,
362,220183,中国,吉林省,长春市,德惠市,,44.53709,125.70558,,,
363,220104,中国,吉林省,长春市,朝阳区,,43.83327,125.28845,,,
364,220182,中国,吉林省,长春市,榆树市,,44.83989,126.533,,,
365,220106,中国,吉林省,长春市,绿园区,,43.88041,125.25606,,,
366,510000,中国,四川省,,,,30.577543147015334,104.07346654728391,,,
367,511100,中国,四川省,乐山市,,乐山,29.5671,103.7333,-8707,68659,
368,511112,中国,四川省,乐山市,五通桥区,,29.40726,103.81846,,,
369,511124,中国,四川省,乐山市,井研县,,29.65305,104.06482,,,
370,511126,中国,四川省,乐山市,夹江县,,29.73753,103.57156,,,
371,511181,中国,四川省,乐山市,峨眉山市,,29.60125,103.48447,,,
372,511132,中国,四川省,乐山市,峨边彝族自治县,,29.23047,103.26202,,,
373,511102,中国,四川省,乐山市,市中区,,29.55544,103.7612,,,
374,511129,中国,四川省,乐山市,沐川县,,28.95673,103.90241,,,
375,511111,中国,四川省,乐山市,沙湾区,,29.41306,103.55027,,,
376,511123,中国,四川省,乐山市,犍为县,,29.20828,103.94931,,,
377,511113,中国,四川省,乐山市,金口河区,,29.24447,103.07879,,,
378,511133,中国,四川省,乐山市,马边彝族自治县,,28.83557,103.54635,,,
379,511000,中国,四川省,内江市,,内江,29.5804,105.05,3673,69519,
380,511011,中国,四川省,内江市,东兴区,,29.59346,105.07459,,,
381,511024,中国,四川省,内江市,威远县,,29.52742,104.66885,,,
382,511002,中国,四川省,内江市,市中区,,29.58698,105.06776,,,
383,511025,中国,四川省,内江市,资中县,,29.76416,104.85212,,,
384,511028,中国,四川省,内江市,隆昌县,,29.33948,105.28773,,,
385,513400,中国,四川省,凉山彝族自治州,,凉山,27.88164,102.26746,-22587,86449,
386,513426,中国,四川省,凉山彝族自治州,会东县,,26.6346,102.57817,,,
387,513425,中国,四川省,凉山彝族自治州,会理县,,26.65527,102.24457,,,
388,513433,中国,四川省,凉山彝族自治州,冕宁县,,28.55018,102.17678,,,
389,513432,中国,四川省,凉山彝族自治州,喜德县,,28.30666,102.41231,,,
390,513427,中国,四川省,凉山彝族自治州,宁南县,,27.06667,102.76052,,,
391,513429,中国,四川省,凉山彝族自治州,布拖县,,27.70622,102.81149,,,
392,513424,中国,四川省,凉山彝族自治州,德昌县,,27.40289,102.17559,,,
393,513431,中国,四川省,凉山彝族自治州,昭觉县,,28.01425,102.84265,,,
394,513428,中国,四川省,凉山彝族自治州,普格县,,27.3765,102.54092,,,
395,513422,中国,四川省,凉山彝族自治州,木里藏族自治县,,27.92859,101.28048,,,
396,513435,中国,四川省,凉山彝族自治州,甘洛县,,28.95873,102.77033,,,
397,513423,中国,四川省,凉山彝族自治州,盐源县,,27.42241,101.50919,,,
398,513436,中国,四川省,凉山彝族自治州,美姑县,,28.32885,103.13229,,,
399,513401,中国,四川省,凉山彝族自治州,西昌市,,27.89449,102.26305,,,
400,513434,中国,四川省,凉山彝族自治州,越西县,,28.63999,102.5075,,,
401,513430,中国,四川省,凉山彝族自治州,金阳县,,27.69654,103.24903,,,
402,513437,中国,四川省,凉山彝族自治州,雷波县,,28.26272,103.5715,,,
403,511300,中国,四川省,南充市,,南充,30.7804,106.13,12933,55829,
404,511324,中国,四川省,南充市,仪陇县,,31.26998,106.3033,,,
405,511321,中国,四川省,南充市,南部县,,31.35316,106.06734,,,
406,511304,中国,四川省,南充市,嘉陵区,,30.75874,106.07176,,,
407,511322,中国,四川省,南充市,营山县,,31.0767,106.56553,,,
408,511323,中国,四川省,南充市,蓬安县,,31.0286,106.4123,,,
409,511325,中国,四川省,南充市,西充县,,30.99526,105.90086,,,
410,511381,中国,四川省,南充市,阆中市,,31.55837,106.00499,,,
411,511302,中国,四川省,南充市,顺庆区,,30.79653,106.09224,,,
412,511303,中国,四川省,南充市,高坪区,,30.78154,106.11877,,,
413,511500,中国,四川省,宜宾市,,宜宾,28.77,104.57,-870,78034,
414,511528,中国,四川省,宜宾市,兴文县,,28.30361,105.23646,,,
415,511522,中国,四川省,宜宾市,南溪区,,28.84548,104.96953,,,
416,511521,中国,四川省,宜宾市,宜宾县,,28.68998,104.53316,,,
417,511529,中国,四川省,宜宾市,屏山县,,28.65312,104.15125,,,
418,511523,中国,四川省,宜宾市,江安县,,28.72389,105.06688,,,
419,511526,中国,四川省,宜宾市,珙县,,28.43885,104.70878,,,
420,511527,中国,四川省,宜宾市,筠连县,,28.16418,104.51185,,,
421,511502,中国,四川省,宜宾市,翠屏区,,28.76593,104.61947,,,
422,511524,中国,四川省,宜宾市,长宁县,,28.58227,104.9211,,,
423,511525,中国,四川省,宜宾市,高县,,28.43622,104.5176,,,
424,511900,中国,四川省,巴中市,,巴中,31.85131,106.76897,18593,45269,
425,511922,中国,四川省,巴中市,南江县,,32.34645,106.82907,,,
426,511902,中国,四川省,巴中市,巴州区,,31.85131,106.76897,,,
427,511923,中国,四川省,巴中市,平昌县,,31.56054,107.10358,,,
428,511903,中国,四川省,巴中市,恩阳区,,31.78956,106.63602,,,
429,511921,中国,四川省,巴中市,通江县,,31.9118,107.24493,,,
430,510800,中国,四川省,广元市,,广元,32.43,105.87,10913,38989,
431,510811,中国,四川省,广元市,元坝区,,32.64409,105.89034,,,
432,510802,中国,四川省,广元市,利州区,,32.43396,105.84559,,,
433,510823,中国,四川省,广元市,剑阁县,,32.28849,105.52526,,,
434,510821,中国,四川省,广元市,旺苍县,,32.2291,106.28974,,,
435,510812,中国,四川省,广元市,朝天区,,32.64409,105.89034,,,
436,510824,中国,四川省,广元市,苍溪县,,31.73244,105.93442,,,
437,510822,中国,四川省,广元市,青川县,,32.5841,105.23822,,,
438,511600,中国,四川省,广安市,,广安,30.47392,106.64188,17563,59409,
439,511603,中国,四川省,广安市,前锋区,,30.49592,106.89125,,,
440,511681,中国,四川省,广安市,华蓥市,,30.39001,106.78298,,,
441,511621,中国,四川省,广安市,岳池县,,30.53795,106.43988,,,
442,511602,中国,四川省,广安市,广安区,,30.47392,106.64188,,,
443,511622,中国,四川省,广安市,武胜县,,30.34935,106.29597,,,
444,511623,中国,四川省,广安市,邻水县,,30.33458,106.93048,,,
445,510600,中国,四川省,德阳市,,德阳,31.1333,104.4,-2747,52399,
446,510623,中国,四川省,德阳市,中江县,,31.03304,104.67872,,,
447,510682,中国,四川省,德阳市,什邡市,,31.12736,104.16694,,,
448,510681,中国,四川省,德阳市,广汉市,,30.97706,104.28249,,,
449,510603,中国,四川省,德阳市,旌阳区,,31.14263,104.41702,,,
450,510683,中国,四川省,德阳市,绵竹市,,31.33776,104.22083,,,
451,510626,中国,四川省,德阳市,罗江县,,31.31681,104.51021,,,
452,510100,中国,四川省,成都市,,成都,30.65984,104.10194,-5197,57169,
453,510122,中国,四川省,成都市,双流县,,30.57447,103.92377,,,
454,510129,中国,四川省,成都市,大邑县,,30.58759,103.52071,,,
455,510184,中国,四川省,成都市,崇州市,,30.63021,103.67289,,,
456,510182,中国,四川省,成都市,彭州市,,30.99018,103.95811,,,
457,510108,中国,四川省,成都市,成华区,,30.65984,104.10194,,,
458,510132,中国,四川省,成都市,新津县,,30.41026,103.81165,,,
459,510114,中国,四川省,成都市,新都区,,30.82404,104.15801,,,
460,510107,中国,四川省,成都市,武侯区,,30.64242,104.04311,,,
461,510115,中国,四川省,成都市,温江区,,30.68144,103.8559,,,
462,510131,中国,四川省,成都市,蒲江县,,30.19676,103.50628,,,
463,510183,中国,四川省,成都市,邛崃市,,30.41032,103.46436,,,
464,510124,中国,四川省,成都市,郫县,,30.79589,103.90256,,,
465,510181,中国,四川省,成都市,都江堰市,,30.98837,103.64662,,,
466,510121,中国,四川省,成都市,金堂县,,30.86203,104.41205,,,
467,510106,中国,四川省,成都市,金牛区,,30.69015,104.05293,,,
468,510104,中国,四川省,成都市,锦江区,,30.65618,104.08329,,,
469,510113,中国,四川省,成都市,青白江区,,30.87849,104.25122,,,
470,510105,中国,四川省,成都市,青羊区,,30.67485,104.06291,,,
471,510112,中国,四川省,成都市,龙泉驿区,,30.55663,104.27471,,,
472,510400,中国,四川省,攀枝花市,,攀枝花,26.55,101.73,-28667,100749,
473,510402,中国,四川省,攀枝花市,东区,,26.54639,101.70413,,,
474,510411,中国,四川省,攀枝花市,仁和区,,26.49778,101.73866,,,
475,510422,中国,四川省,攀枝花市,盐边县,,26.68265,101.85393,,,
476,510421,中国,四川省,攀枝花市,米易县,,26.89067,102.11024,,,
477,510403,中国,四川省,攀枝花市,西区,,26.59757,101.63064,,,
478,510500,中国,四川省,泸州市,,泸州,28.87875,105.43501,7343,76749,
479,510524,中国,四川省,泸州市,叙永县,,28.15588,105.44475,,,
480,510525,中国,四川省,泸州市,古蔺县,,28.03884,105.81239,,,
481,510522,中国,四川省,泸州市,合江县,,28.81147,105.83135,,,
482,510502,中国,四川省,泸州市,江阳区,,28.87875,105.43501,,,
483,510521,中国,四川省,泸州市,泸县,,29.1516,105.38185,,,
484,510503,中国,四川省,泸州市,纳溪区,,28.77313,105.37131,,,
485,510504,中国,四川省,泸州市,龙马潭区,,28.91318,105.43779,,,
486,513300,中国,四川省,甘孜藏族自治州,,甘孜,30.049026,101.963423,-24517,63559,
487,513323,中国,四川省,甘孜藏族自治州,丹巴县,,30.87868,101.89077,,,
488,513324,中国,四川省,甘孜藏族自治州,九龙县,,29.00019,101.50729,,,
489,513336,中国,四川省,甘孜藏族自治州,乡城县,,28.93118,99.79842,,,
490,513335,中国,四川省,甘孜藏族自治州,巴塘县,,30.00537,99.1105,,,
491,513321,中国,四川省,甘孜藏族自治州,康定县,,30.05441,101.96308,,,
492,513338,中国,四川省,甘孜藏族自治州,得荣县,,28.71307,99.28639,,,
493,513330,中国,四川省,甘孜藏族自治州,德格县,,31.80612,98.58088,,,
494,513329,中国,四川省,甘孜藏族自治州,新龙县,,30.93932,100.31152,,,
495,513322,中国,四川省,甘孜藏族自治州,泸定县,,29.91412,102.23471,,,
496,513327,中国,四川省,甘孜藏族自治州,炉霍县,,31.39005,100.67703,,,
497,513334,中国,四川省,甘孜藏族自治州,理塘县,,29.99603,100.26963,,,
498,513328,中国,四川省,甘孜藏族自治州,甘孜县,,31.623,99.99266,,,
499,513331,中国,四川省,甘孜藏族自治州,白玉县,,31.21014,98.82418,,,
500,513332,中国,四川省,甘孜藏族自治州,石渠县,,32.97834,98.10294,,,
501,513337,中国,四川省,甘孜藏族自治州,稻城县,,29.03704,100.29829,,,
502,513333,中国,四川省,甘孜藏族自治州,色达县,,32.26814,100.33264,,,
503,513326,中国,四川省,甘孜藏族自治州,道孚县,,30.97936,101.12508,,,
504,513325,中国,四川省,甘孜藏族自治州,雅江县,,30.03145,101.01426,,,
505,511400,中国,四川省,眉山市,,眉山,30.04228,103.83211,-7977,63939,
506,511402,中国,四川省,眉山市,东坡区,,30.04228,103.83211,,,
507,511424,中国,四川省,眉山市,丹棱县,,30.01453,103.51284,,,
508,511421,中国,四川省,眉山市,仁寿县,,29.99572,104.13407,,,
509,511422,中国,四川省,眉山市,彭山县,,30.19299,103.87283,,,
510,511423,中国,四川省,眉山市,洪雅县,,29.90496,103.37288,,,
511,511425,中国,四川省,眉山市,青神县,,29.8315,103.84656,,,
512,510700,中国,四川省,绵阳市,,绵阳,31.53474,104.56756,453,49299,
513,510722,中国,四川省,绵阳市,三台县,,31.09563,105.09459,,,
514,510726,中国,四川省,绵阳市,北川羌族自治县,,31.89148,104.30755,,,
515,510724,中国,四川省,绵阳市,安县,,31.53474,104.56756,,,
516,510727,中国,四川省,绵阳市,平武县,,32.40858,104.52904,,,
517,510725,中国,四川省,绵阳市,梓潼县,,31.63529,105.16118,,,
518,510781,中国,四川省,绵阳市,江油市,,31.75691,104.72458,,,
519,510703,中国,四川省,绵阳市,涪城区,,31.45498,104.75708,,,
520,510704,中国,四川省,绵阳市,游仙区,,31.47367,104.7667,,,
521,510723,中国,四川省,绵阳市,盐亭县,,31.20819,105.38996,,,
522,510300,中国,四川省,自贡市,,自贡,29.4,104.78,1305,71540,
523,510304,中国,四川省,自贡市,大安区,,29.36371,104.7739,,,
524,510322,中国,四川省,自贡市,富顺县,,29.18021,104.97512,,,
525,510311,中国,四川省,自贡市,沿滩区,,29.27234,104.87423,,,
526,510302,中国,四川省,自贡市,自流井区,,29.3374,104.77728,,,
527,510321,中国,四川省,自贡市,荣县,,29.4445,104.41766,,,
528,510303,中国,四川省,自贡市,贡井区,,29.34576,104.71526,,,
529,512000,中国,四川省,资阳市,,资阳,30.11758,104.6522,-577,63309,
530,512022,中国,四川省,资阳市,乐至县,,30.2759,105.02133,,,
531,512021,中国,四川省,资阳市,安岳县,,30.09733,105.33537,,,
532,512081,中国,四川省,资阳市,简阳市,,30.41133,104.54733,,,
533,512002,中国,四川省,资阳市,雁江区,,30.11758,104.6522,,,
534,511700,中国,四川省,达州市,,达州,31.19603,107.51177,25753,51969,
535,511781,中国,四川省,达州市,万源市,,32.08197,108.03446,,,
536,511724,中国,四川省,达州市,大竹县,,30.73607,107.20441,,,
537,511722,中国,四川省,达州市,宣汉县,,31.35386,107.7271,,,
538,511723,中国,四川省,达州市,开江县,,31.08316,107.86852,,,
539,511725,中国,四川省,达州市,渠县,,30.83664,106.97299,,,
540,511703,中国,四川省,达州市,达川区,,31.19603,107.51177,,,
541,511702,中国,四川省,达州市,通川区,,31.21473,107.50455,,,
542,510900,中国,四川省,遂宁市,,遂宁,30.5333,105.5333,7883,59409,
543,510923,中国,四川省,遂宁市,大英县,,30.5945,105.23649,,,
544,510904,中国,四川省,遂宁市,安居区,,30.35541,105.45636,,,
545,510922,中国,四川省,遂宁市,射洪县,,30.87113,105.38836,,,
546,510903,中国,四川省,遂宁市,船山区,,30.52552,105.56821,,,
547,510921,中国,四川省,遂宁市,蓬溪县,,30.75778,105.70756,,,
548,513200,中国,四川省,阿坝藏族羌族自治州,,阿坝州,31.8994,102.22477,-20977,43779,
549,513225,中国,四川省,阿坝藏族羌族自治州,九寨沟县,,33.26142,104.23567,,,
550,513230,中国,四川省,阿坝藏族羌族自治州,壤塘县,,32.26545,100.97861,,,
551,513227,中国,四川省,阿坝藏族羌族自治州,小金县,,30.99918,102.3644,,,
552,513224,中国,四川省,阿坝藏族羌族自治州,松潘县,,32.63813,103.59893,,,
553,513221,中国,四川省,阿坝藏族羌族自治州,汶川县,,31.47686,103.5903,,,
554,513222,中国,四川省,阿坝藏族羌族自治州,理县,,31.43659,103.167,,,
555,513233,中国,四川省,阿坝藏族羌族自治州,红原县,,32.79087,102.54438,,,
556,513232,中国,四川省,阿坝藏族羌族自治州,若尔盖县,,33.57586,102.96187,,,
557,513223,中国,四川省,阿坝藏族羌族自治州,茂县,,31.68163,103.85334,,,
558,513226,中国,四川省,阿坝藏族羌族自治州,金川县,,31.47597,102.06325,,,
559,513231,中国,四川省,阿坝藏族羌族自治州,阿坝县,,32.90245,101.70634,,,
560,513229,中国,四川省,阿坝藏族羌族自治州,马尔康县,,31.90585,102.20644,,,
561,513228,中国,四川省,阿坝藏族羌族自治州,黑水县,,32.06179,102.99021,,,
562,511800,中国,四川省,雅安市,,雅安,29.9804,103.08,-15277,65089,
563,511821,中国,四川省,雅安市,名山县,,30.06982,103.10954,,,
564,511825,中国,四川省,雅安市,天全县,,30.06672,102.7584,,,
565,511827,中国,四川省,雅安市,宝兴县,,30.36806,102.81457,,,
566,511823,中国,四川省,雅安市,汉源县,,29.34457,102.65261,,,
567,511824,中国,四川省,雅安市,石棉县,,29.22799,102.35944,,,
568,511826,中国,四川省,雅安市,芦山县,,30.14407,102.92826,,,
569,511822,中国,四川省,雅安市,荥经县,,29.79308,102.84671,,,
570,511802,中国,四川省,雅安市,雨城区,,30.00534,103.03311,,,
571,120000,中国,天津市,,,天津,39.13,117.2,104970,-34060,
572,120110,中国,天津市,天津市,东丽区,,39.08652,117.31428,,,
573,120113,中国,天津市,天津市,北辰区,,39.22393,117.13544,,,
574,120104,中国,天津市,天津市,南开区,,39.13815,117.15011,,,
575,120101,中国,天津市,天津市,和平区,,39.11712,117.2147,,,
576,120221,中国,天津市,天津市,宁河县,,39.33091,117.82478,,,
577,120115,中国,天津市,天津市,宝坻区,,39.71755,117.30983,,,
578,120114,中国,天津市,天津市,武清区,,39.38326,117.04412,,,
579,120102,中国,天津市,天津市,河东区,,39.12827,117.25228,,,
580,120105,中国,天津市,天津市,河北区,,39.14784,117.19674,,,
581,120103,中国,天津市,天津市,河西区,,39.10954,117.22336,,,
582,120112,中国,天津市,天津市,津南区,,38.9375,117.3571,,,
583,120116,中国,天津市,天津市,滨海新区,,39.0032,117.71071,,,
584,120106,中国,天津市,天津市,红桥区,,39.16734,117.15161,,,
585,120225,中国,天津市,天津市,蓟县,,40.04577,117.40829,,,
586,120111,中国,天津市,天津市,西青区,,39.14111,117.00739,,,
587,120223,中国,天津市,天津市,静海县,,38.94737,116.97428,,,
588,640000,中国,宁夏回族自治区,,,,38.47687796791088,106.26560480701352,,,
589,640500,中国,宁夏回族自治区,中卫市,,中卫,37.517,105.17362,7540,-14960,
590,640521,中国,宁夏回族自治区,中卫市,中宁县,,37.49157,105.68518,,,
591,640502,中国,宁夏回族自治区,中卫市,沙坡头区,,37.517,105.17362,,,
592,640522,中国,宁夏回族自治区,中卫市,海原县,,36.56524,105.64359,,,
593,640300,中国,宁夏回族自治区,吴忠市,,吴忠,37.42533,106.06243,16470,-20020,
594,640302,中国,宁夏回族自治区,吴忠市,利通区,,37.98472,106.21251,,,
595,640324,中国,宁夏回族自治区,吴忠市,同心县,,36.98064,105.91448,,,
596,640323,中国,宁夏回族自治区,吴忠市,盐池县,,37.78294,107.40789,,,
597,640303,中国,宁夏回族自治区,吴忠市,红寺堡区,,37.42533,106.06243,,,
598,640381,中国,宁夏回族自治区,吴忠市,青铜峡市,,38.02121,106.07875,,,
599,640400,中国,宁夏回族自治区,固原市,,固原,36.00341,106.28779,16970,1140,
600,640402,中国,宁夏回族自治区,固原市,原州区,,36.00341,106.28779,,,
601,640425,中国,宁夏回族自治区,固原市,彭阳县,,35.8496,106.63808,,,
602,640424,中国,宁夏回族自治区,固原市,泾源县,,35.49823,106.33067,,,
603,640422,中国,宁夏回族自治区,固原市,西吉县,,35.96385,105.72911,,,
604,640423,中国,宁夏回族自治区,固原市,隆德县,,35.61812,106.12332,,,
605,640200,中国,宁夏回族自治区,石嘴山市,,石嘴山,39.2333,106.769,17880,-31140,
606,640202,中国,宁夏回族自治区,石嘴山市,大武口区,,39.01895,106.36803,,,
607,640221,中国,宁夏回族自治区,石嘴山市,平罗县,,38.91335,106.52304,,,
608,640205,中国,宁夏回族自治区,石嘴山市,惠农区,,39.23909,106.78132,,,
609,640100,中国,宁夏回族自治区,银川市,,银川,38.468,106.273,16470,-25220,
610,640104,中国,宁夏回族自治区,银川市,兴庆区,,38.47371,106.28847,,,
611,640121,中国,宁夏回族自治区,银川市,永宁县,,38.27749,106.25318,,,
612,640181,中国,宁夏回族自治区,银川市,灵武市,,38.10269,106.34005,,,
613,640105,中国,宁夏回族自治区,银川市,西夏区,,38.49589,106.15652,,,
614,640122,中国,宁夏回族自治区,银川市,贺兰县,,38.55443,106.34985,,,
615,640106,中国,宁夏回族自治区,银川市,金凤区,,38.47314,106.24284,,,
616,340000,中国,安徽省,,,,31.73429415631746,117.3305404177196,,,
617,341600,中国,安徽省,亳州市,,亳州,33.87641,115.77914,97460,23650,
618,341623,中国,安徽省,亳州市,利辛县,,33.14484,116.20839,,,
619,341621,中国,安徽省,亳州市,涡阳县,,33.49285,116.21581,,,
620,341622,中国,安徽省,亳州市,蒙城县,,33.26584,116.5645,,,
621,341602,中国,安徽省,亳州市,谯城区,,33.87641,115.77914,,,
622,341500,中国,安徽省,六安市,,六安,31.74933,116.53949,105010,45130,
623,341521,中国,安徽省,六安市,寿县,,32.57332,116.78708,,,
624,341523,中国,安徽省,六安市,舒城县,,31.46209,116.9487,,,
625,341503,中国,安徽省,六安市,裕安区,,31.73795,116.47995,,,
626,341502,中国,安徽省,六安市,金安区,,31.74933,116.53949,,,
627,341524,中国,安徽省,六安市,金寨县,,31.72719,115.93418,,,
628,341525,中国,安徽省,六安市,霍山县,,31.39279,116.33269,,,
629,341522,中国,安徽省,六安市,霍邱县,,32.3532,116.27823,,,
630,340100,中国,安徽省,合肥市,,合肥,31.85,117.28,111960,43410,
631,340111,中国,安徽省,合肥市,包河区,,31.79322,117.30794,,,
632,340181,中国,安徽省,合肥市,巢湖市,,31.62329,117.88937,,,
633,340124,中国,安徽省,合肥市,庐江县,,31.25567,117.28736,,,
634,340103,中国,安徽省,合肥市,庐阳区,,31.87872,117.26497,,,
635,340102,中国,安徽省,合肥市,瑶海区,,31.85797,117.30949,,,
636,340122,中国,安徽省,合肥市,肥东县,,31.8877,117.46928,,,
637,340123,中国,安徽省,合肥市,肥西县,,31.70689,117.18283,,,
638,340104,中国,安徽省,合肥市,蜀山区,,31.8512,117.26061,,,
639,340121,中国,安徽省,合肥市,长丰县,,32.47796,117.16766,,,
640,340800,中国,安徽省,安庆市,,安庆,30.5,117.05,110680,57340,
641,340803,中国,安徽省,安庆市,大观区,,30.51227,117.03424,,,
642,340825,中国,安徽省,安庆市,太湖县,,30.45411,116.30885,,,
643,340811,中国,安徽省,安庆市,宜秀区,,30.61358,116.98933,,,
644,340826,中国,安徽省,安庆市,宿松县,,30.15363,116.1292,,,
645,340828,中国,安徽省,安庆市,岳西县,,30.84939,116.35999,,,
646,340822,中国,安徽省,安庆市,怀宁县,,30.73381,116.82974,,,
647,340827,中国,安徽省,安庆市,望江县,,30.12442,116.69423,,,
648,340823,中国,安徽省,安庆市,枞阳县,,30.69961,117.22019,,,
649,340881,中国,安徽省,安庆市,桐城市,,31.03585,116.97416,,,
650,340824,中国,安徽省,安庆市,潜山县,,30.63107,116.58133,,,
651,340802,中国,安徽省,安庆市,迎江区,,30.51155,117.09081,,,
652,341800,中国,安徽省,宣城市,,宣城,30.94622,118.75634,125780,51870,
653,341881,中国,安徽省,宣城市,宁国市,,30.63364,118.98336,,,
654,341802,中国,安徽省,宣城市,宣州区,,30.94622,118.75634,,,
655,341822,中国,安徽省,宣城市,广德县,,30.8938,119.41705,,,
656,341825,中国,安徽省,宣城市,旌德县,,30.28636,118.54045,,,
657,341823,中国,安徽省,宣城市,泾县,,30.68853,118.4197,,,
658,341824,中国,安徽省,宣城市,绩溪县,,30.06633,118.57993,,,
659,341821,中国,安徽省,宣城市,郎溪县,,31.12658,119.17944,,,
660,341300,中国,安徽省,宿州市,,宿州,33.64004,116.97728,107970,25580,
661,341302,中国,安徽省,宿州市,埇桥区,,33.64004,116.97728,,,
662,341324,中国,安徽省,宿州市,泗县,,33.48289,117.91106,,,
663,341323,中国,安徽省,宿州市,灵璧县,,33.54232,117.55855,,,
664,341321,中国,安徽省,宿州市,砀山县,,34.44097,116.36606,,,
665,341322,中国,安徽省,宿州市,萧县,,34.18876,116.94724,,,
666,341700,中国,安徽省,池州市,,池州,30.68673,117.56733,114560,55910,
667,341721,中国,安徽省,池州市,东至县,,30.09663,117.02766,,,
668,341722,中国,安徽省,池州市,石台县,,30.21026,117.48619,,,
669,341702,中国,安徽省,池州市,贵池区,,30.68673,117.56733,,,
670,341723,中国,安徽省,池州市,青阳县,,30.63935,117.84749,,,
671,340600,中国,安徽省,淮北市,,淮北,33.9504,116.75,106110,21830,
672,340602,中国,安徽省,淮北市,杜集区,,33.99141,116.82803,,,
673,340621,中国,安徽省,淮北市,濉溪县,,33.91537,116.7662,,,
674,340604,中国,安徽省,淮北市,烈山区,,33.89577,116.8132,,,
675,340603,中国,安徽省,淮北市,相山区,,33.95999,116.79425,,,
676,340400,中国,安徽省,淮南市,,淮南,32.63,116.98,108840,35680,
677,340405,中国,安徽省,淮南市,八公山区,,32.63142,116.83359,,,
678,340421,中国,安徽省,淮南市,凤台县,,32.70946,116.71077,,,
679,340402,中国,安徽省,淮南市,大通区,,32.63149,117.05335,,,
680,340406,中国,安徽省,淮南市,潘集区,,32.77263,116.83626,,,
681,340403,中国,安徽省,淮南市,田家庵区,,32.64709,117.01743,,,
682,340404,中国,安徽省,淮南市,谢家集区,,32.59996,116.85913,,,
683,341100,中国,安徽省,滁州市,,滁州,32.2948,118.30553,120410,38130,
684,341124,中国,安徽省,滁州市,全椒县,,32.0853,118.27303,,,
685,341126,中国,安徽省,滁州市,凤阳县,,32.866,117.56124,,,
686,341103,中国,安徽省,滁州市,南谯区,,32.35317,118.17138,,,
687,341181,中国,安徽省,滁州市,天长市,,32.68945,119.00355,,,
688,341125,中国,安徽省,滁州市,定远县,,32.52998,117.69856,,,
689,341182,中国,安徽省,滁州市,明光市,,32.77699,117.98944,,,
690,341122,中国,安徽省,滁州市,来安县,,32.45217,118.43575,,,
691,341102,中国,安徽省,滁州市,琅琊区,,32.2948,118.30553,,,
692,340200,中国,安徽省,芜湖市,,芜湖,31.3504,118.37,122530,48000,
693,340208,中国,安徽省,芜湖市,三山区,,31.22436,118.23464,,,
694,340223,中国,安徽省,芜湖市,南陵县,,30.91465,118.33405,,,
695,340203,中国,安徽省,芜湖市,弋江区,,31.31202,118.37273,,,
696,340225,中国,安徽省,芜湖市,无为县,,31.30317,117.90224,,,
697,340222,中国,安徽省,芜湖市,繁昌县,,31.08291,118.19934,,,
698,340221,中国,安徽省,芜湖市,芜湖县,,31.13479,118.57529,,,
699,340202,中国,安徽省,芜湖市,镜湖区,,31.34072,118.38548,,,
700,340207,中国,安徽省,芜湖市,鸠江区,,31.36959,118.39236,,,
701,340300,中国,安徽省,蚌埠市,,蚌埠,32.94448,117.36779,111780,32560,
702,340322,中国,安徽省,蚌埠市,五河县,,33.14507,117.88529,,,
703,340323,中国,安徽省,蚌埠市,固镇县,,33.31769,117.31666,,,
704,340321,中国,安徽省,蚌埠市,怀远县,,32.97011,117.20514,,,
705,340311,中国,安徽省,蚌埠市,淮上区,,32.96436,117.35996,,,
706,340304,中国,安徽省,蚌埠市,禹会区,,32.92921,117.34211,,,
707,340303,中国,安徽省,蚌埠市,蚌山区,,32.94448,117.36779,,,
708,340302,中国,安徽省,蚌埠市,龙子湖区,,32.9428,117.39347,,,
709,340700,中国,安徽省,铜陵市,,铜陵,30.9504,117.78,117390,52750,
710,340703,中国,安徽省,铜陵市,狮子山区,,30.95614,117.87431,,,
711,340711,中国,安徽省,铜陵市,郊区,,30.90466,117.80103,,,
712,340721,中国,安徽省,铜陵市,铜陵县,,30.95271,117.79147,,,
713,341200,中国,安徽省,阜阳市,,阜阳,32.91303,115.85668,98230,33650,
714,341221,中国,安徽省,阜阳市,临泉县,,33.06457,115.25811,,,
715,341222,中国,安徽省,阜阳市,太和县,,33.16026,115.62203,,,
716,341282,中国,安徽省,阜阳市,界首市,,33.25722,115.37436,,,
717,341225,中国,安徽省,阜阳市,阜南县,,32.65887,115.59319,,,
718,341226,中国,安徽省,阜阳市,颍上县,,32.62893,116.26455,,,
719,341203,中国,安徽省,阜阳市,颍东区,,32.91303,115.85668,,,
720,341202,中国,安徽省,阜阳市,颍州区,,32.88327,115.80672,,,
721,341204,中国,安徽省,阜阳市,颍泉区,,32.92505,115.80847,,,
722,340500,中国,安徽省,马鞍山市,,马鞍山,31.7304,118.48,122920,45490,
723,340506,中国,安徽省,马鞍山市,博望区,,31.55856,118.84432,,,
724,340522,中国,安徽省,马鞍山市,含山县,,31.73358,118.10241,,,
725,340523,中国,安徽省,马鞍山市,和县,,31.74423,118.35145,,,
726,340521,中国,安徽省,马鞍山市,当涂县,,31.5699,118.4978,,,
727,340503,中国,安徽省,马鞍山市,花山区,,31.69996,118.5115,,,
728,340504,中国,安徽省,马鞍山市,雨山区,,31.68216,118.49853,,,
729,341000,中国,安徽省,黄山市,,黄山,30.27296,118.14161,122710,64820,
730,341022,中国,安徽省,黄山市,休宁县,,29.78618,118.18245,,,
731,341002,中国,安徽省,黄山市,屯溪区,,29.6958,118.3151,,,
732,341004,中国,安徽省,黄山市,徽州区,,29.82794,118.33681,,,
733,341021,中国,安徽省,黄山市,歙县,,29.86076,118.41359,,,
734,341024,中国,安徽省,黄山市,祁门县,,29.85409,117.71715,,,
735,341003,中国,安徽省,黄山市,黄山区,,30.27296,118.14161,,,
736,341023,中国,安徽省,黄山市,黟县,,29.92476,117.93835,,,
737,370000,中国,山东省,,,,36.674856650404905,117.02744162847857,,,
738,370500,中国,山东省,东营市,,东营,37.44878,118.58215,117400,-17890,
739,370502,中国,山东省,东营市,东营区,,37.44878,118.58215,,,
740,370522,中国,山东省,东营市,利津县,,37.49028,118.25536,,,
741,370521,中国,山东省,东营市,垦利县,,37.58748,118.54768,,,
742,370523,中国,山东省,东营市,广饶县,,37.05359,118.40702,,,
743,370503,中国,山东省,东营市,河口区,,37.88624,118.52544,,,
744,371300,中国,山东省,临沂市,,临沂,35.08,118.33,118340,9290,
745,371329,中国,山东省,临沂市,临沭县,,34.91985,118.65063,,,
746,371302,中国,山东省,临沂市,兰山区,,35.05151,118.34787,,,
747,371324,中国,山东省,临沂市,兰陵县,,34.85729,118.07072,,,
748,371326,中国,山东省,临沂市,平邑县,,35.50587,117.64048,,,
749,371321,中国,山东省,临沂市,沂南县,,35.55001,118.46566,,,
750,371323,中国,山东省,临沂市,沂水县,,35.79034,118.62782,,,
751,371312,中国,山东省,临沂市,河东区,,35.08729,118.40184,,,
752,371311,中国,山东省,临沂市,罗庄区,,34.99636,118.28437,,,
753,371327,中国,山东省,临沂市,莒南县,,35.17486,118.83543,,,
754,371328,中国,山东省,临沂市,蒙阴县,,35.7101,117.94494,,,
755,371325,中国,山东省,临沂市,费县,,35.26659,117.97711,,,
756,371322,中国,山东省,临沂市,郯城县,,34.61357,118.36717,,,
757,371000,中国,山东省,威海市,,威海,37.5,122.1,147650,-20760,
758,371083,中国,山东省,威海市,乳山市,,36.92021,121.5402,,,
759,371081,中国,山东省,威海市,文登市,,37.19397,122.0581,,,
760,371002,中国,山东省,威海市,环翠区,,37.50212,122.12348,,,
761,371082,中国,山东省,威海市,荣成市,,37.16523,122.48628,,,
762,371400,中国,山东省,德州市,,德州,37.4504,116.3,98740,-15570,
763,371424,中国,山东省,德州市,临邑县,,37.18998,116.8666,,,
764,371481,中国,山东省,德州市,乐陵市,,37.72913,117.23065,,,
765,371427,中国,山东省,德州市,夏津县,,36.94856,116.00175,,,
766,371422,中国,山东省,德州市,宁津县,,37.65221,116.80023,,,
767,371426,中国,山东省,德州市,平原县,,37.16538,116.43395,,,
768,371423,中国,山东省,德州市,庆云县,,37.77528,117.38497,,,
769,371402,中国,山东省,德州市,德城区,,37.45079,116.29941,,,
770,371428,中国,山东省,德州市,武城县,,37.21317,116.06923,,,
771,371482,中国,山东省,德州市,禹城市,,36.93394,116.63813,,,
772,371421,中国,山东省,德州市,陵县,,37.33566,116.57634,,,
773,371425,中国,山东省,德州市,齐河县,,36.79492,116.76002,,,
774,371100,中国,山东省,日照市,,日照,35.4304,119.45,128450,4500,
775,371102,中国,山东省,日照市,东港区,,35.42545,119.46242,,,
776,371121,中国,山东省,日照市,五莲县,,35.75018,119.20875,,,
777,371103,中国,山东省,日照市,岚山区,,35.12206,119.31891,,,
778,371122,中国,山东省,日照市,莒县,,35.57997,118.83687,,,
779,370400,中国,山东省,枣庄市,,枣庄,34.88,117.57,109540,12830,
780,370405,中国,山东省,枣庄市,台儿庄区,,34.56261,117.73385,,,
781,370406,中国,山东省,枣庄市,山亭区,,35.09963,117.4613,,,
782,370404,中国,山东省,枣庄市,峄城区,,34.77228,117.59061,,,
783,370402,中国,山东省,枣庄市,市中区,,34.86426,117.55601,,,
784,370481,中国,山东省,枣庄市,滕州市,,35.11338,117.16596,,,
785,370403,中国,山东省,枣庄市,薛城区,,34.79502,117.2632,,,
786,370900,中国,山东省,泰安市,,泰安,36.2,117.1201,107070,-2290,
787,370923,中国,山东省,泰安市,东平县,,35.93708,116.47024,,,
788,370921,中国,山东省,泰安市,宁阳县,,35.75961,116.80727,,,
789,370911,中国,山东省,泰安市,岱岳区,,36.18752,117.0418,,,
790,370982,中国,山东省,泰安市,新泰市,,35.90878,117.768,,,
791,370902,中国,山东省,泰安市,泰山区,,36.19198,117.13526,,,
792,370983,中国,山东省,泰安市,肥城市,,36.18245,116.76917,,,
793,370100,中国,山东省,济南市,,济南,36.675,116.995,105170,-7110,
794,370102,中国,山东省,济南市,历下区,,36.66645,117.07641,,,
795,370112,中国,山东省,济南市,历城区,,36.68013,117.06533,,,
796,370126,中国,山东省,济南市,商河县,,37.30907,117.1571,,,
797,370105,中国,山东省,济南市,天桥区,,36.67789,116.98737,,,
798,370103,中国,山东省,济南市,市中区,,36.65118,116.99744,,,
799,370124,中国,山东省,济南市,平阴县,,36.28937,116.45599,,,
800,370104,中国,山东省,济南市,槐荫区,,36.65142,116.90084,,,
801,370125,中国,山东省,济南市,济阳县,,36.97847,117.17333,,,
802,370181,中国,山东省,济南市,章丘市,,36.68124,117.52627,,,
803,370113,中国,山东省,济南市,长清区,,36.55358,116.75199,,,
804,370800,中国,山东省,济宁市,,济宁,35.4004,116.55,102840,6570,
805,370811,中国,山东省,济宁市,任城区,,35.4082,116.59649,,,
806,370882,中国,山东省,济宁市,兖州市,,35.5526,116.7857,,,
807,370829,中国,山东省,济宁市,嘉祥县,,35.4075,116.34249,,,
808,370826,中国,山东省,济宁市,微山县,,34.80718,117.12886,,,
809,370881,中国,山东省,济宁市,曲阜市,,35.58082,116.98648,,,
810,370832,中国,山东省,济宁市,梁山县,,35.8024,116.09584,,,
811,370830,中国,山东省,济宁市,汶上县,,35.73281,116.48917,,,
812,370831,中国,山东省,济宁市,泗水县,,35.66471,117.25216,,,
813,370883,中国,山东省,济宁市,邹城市,,35.40522,117.00385,,,
814,370828,中国,山东省,济宁市,金乡县,,35.06661,116.31148,,,
815,370827,中国,山东省,济宁市,鱼台县,,35.01161,116.65046,,,
816,370300,中国,山东省,淄博市,,淄博,36.8,118.05,114210,-9590,
817,370305,中国,山东省,淄博市,临淄区,,36.82593,118.30971,,,
818,370304,中国,山东省,淄博市,博山区,,36.49473,117.86172,,,
819,370306,中国,山东省,淄博市,周村区,,36.80298,117.86974,,,
820,370303,中国,山东省,淄博市,张店区,,36.80661,118.0179,,,
821,370321,中国,山东省,淄博市,桓台县,,36.95933,118.09797,,,
822,370323,中国,山东省,淄博市,沂源县,,36.18488,118.17077,,,
823,370302,中国,山东省,淄博市,淄川区,,36.6435,117.96673,,,
824,370322,中国,山东省,淄博市,高青县,,37.17105,117.82675,,,
825,371600,中国,山东省,滨州市,,滨州,37.42726,118.02279,113580,-16350,
826,371625,中国,山东省,滨州市,博兴县,,37.15299,118.11096,,,
827,371621,中国,山东省,滨州市,惠民县,,37.48982,117.5092,,,
828,371623,中国,山东省,滨州市,无棣县,,37.76993,117.62577,,,
829,371603,中国,山东省,滨州市,沾化区,,37.70058,118.09882,,,
830,371602,中国,山东省,滨州市,滨城区,,37.42726,118.02279,,,
831,371626,中国,山东省,滨州市,邹平县,,36.86299,117.74309,,,
832,371622,中国,山东省,滨州市,阳信县,,37.64109,117.5782,,,
833,370700,中国,山东省,潍坊市,,潍坊,36.7204,119.1001,122910,-9310,
834,370724,中国,山东省,潍坊市,临朐县,,36.51231,118.543,,,
835,370704,中国,山东省,潍坊市,坊子区,,36.65458,119.16607,,,
836,370705,中国,山东省,潍坊市,奎文区,,36.70864,119.13279,,,
837,370784,中国,山东省,潍坊市,安丘市,,36.47842,119.21784,,,
838,370703,中国,山东省,潍坊市,寒亭区,,36.77506,119.21994,,,
839,370783,中国,山东省,潍坊市,寿光市,,36.85541,118.79098,,,
840,370725,中国,山东省,潍坊市,昌乐县,,36.70702,118.82984,,,
841,370786,中国,山东省,潍坊市,昌邑市,,36.85884,119.39862,,,
842,370702,中国,山东省,潍坊市,潍城区,,36.72667,119.02389,,,
843,370782,中国,山东省,潍坊市,诸城市,,35.99583,119.40983,,,
844,370781,中国,山东省,潍坊市,青州市,,36.68456,118.47966,,,
845,370785,中国,山东省,潍坊市,高密市,,36.38257,119.75568,,,
846,370600,中国,山东省,烟台市,,烟台,37.5304,121.4,141670,-20290,
847,370685,中国,山东省,烟台市,招远市,,37.35531,120.43421,,,
848,370686,中国,山东省,烟台市,栖霞市,,37.33505,120.84977,,,
849,370687,中国,山东省,烟台市,海阳市,,36.77645,121.15846,,,
850,370612,中国,山东省,烟台市,牟平区,,37.38683,121.60042,,,
851,370611,中国,山东省,烟台市,福山区,,37.49794,121.26757,,,
852,370602,中国,山东省,烟台市,芝罘区,,37.54061,121.40011,,,
853,370613,中国,山东省,烟台市,莱山区,,37.51104,121.44547,,,
854,370683,中国,山东省,烟台市,莱州市,,37.17702,119.94222,,,
855,370682,中国,山东省,烟台市,莱阳市,,36.97878,120.71181,,,
856,370684,中国,山东省,烟台市,蓬莱市,,37.81072,120.75882,,,
857,370634,中国,山东省,烟台市,长岛县,,37.92135,120.73645,,,
858,370681,中国,山东省,烟台市,龙口市,,37.64345,120.47872,,,
859,371500,中国,山东省,聊城市,,聊城,36.4304,115.97,96860,-4610,
860,371502,中国,山东省,聊城市,东昌府区,,36.43452,115.98847,,,
861,371524,中国,山东省,聊城市,东阿县,,36.33503,116.24773,,,
862,371581,中国,山东省,聊城市,临清市,,36.83834,115.70504,,,
863,371525,中国,山东省,聊城市,冠县,,36.48335,115.44263,,,
864,371523,中国,山东省,聊城市,茌平县,,36.58068,116.25522,,,
865,371522,中国,山东省,聊城市,莘县,,36.23361,115.67072,,,
866,371521,中国,山东省,聊城市,阳谷县,,36.11447,115.79131,,,
867,371526,中国,山东省,聊城市,高唐县,,36.86602,116.23111,,,
868,371200,中国,山东省,莱芜市,,莱芜,36.2004,117.66,111450,-2850,
869,371202,中国,山东省,莱芜市,莱城区,,36.20317,117.65992,,,
870,371203,中国,山东省,莱芜市,钢城区,,36.05866,117.81107,,,
871,371700,中国,山东省,菏泽市,,菏泽,35.23,115.45,93110,9260,
872,371728,中国,山东省,菏泽市,东明县,,35.28953,115.09016,,,
873,371722,中国,山东省,菏泽市,单县,,34.79438,116.08724,,,
874,371727,中国,山东省,菏泽市,定陶县,,35.07095,115.57298,,,
875,371724,中国,山东省,菏泽市,巨野县,,35.39633,116.09495,,,
876,371723,中国,山东省,菏泽市,成武县,,34.95245,115.88964,,,
877,371721,中国,山东省,菏泽市,曹县,,34.82553,115.54214,,,
878,371702,中国,山东省,菏泽市,牡丹区,,35.25141,115.41666,,,
879,371725,中国,山东省,菏泽市,郓城县,,35.59984,115.94364,,,
880,371726,中国,山东省,菏泽市,鄄城县,,35.5635,115.51005,,,
881,370200,中国,山东省,青岛市,,青岛,36.30744,120.39629,134810,-3650,
882,370282,中国,山东省,青岛市,即墨市,,36.38932,120.44715,,,
883,370214,中国,山东省,青岛市,城阳区,,36.30744,120.39629,,,
884,370212,中国,山东省,青岛市,崂山区,,36.10811,120.46803,,,
885,370203,中国,山东省,青岛市,市北区,,36.08743,120.37479,,,
886,370202,中国,山东省,青岛市,市南区,,36.07515,120.41283,,,
887,370283,中国,山东省,青岛市,平度市,,36.7867,119.95994,,,
888,370213,中国,山东省,青岛市,李沧区,,36.14508,120.43294,,,
889,370281,中国,山东省,青岛市,胶州市,,36.26445,120.03354,,,
890,370285,中国,山东省,青岛市,莱西市,,36.88808,120.51777,,,
891,370211,中国,山东省,青岛市,黄岛区,,35.95995,120.19653,,,
892,140000,中国,山西省,,,,37.87982942385603,112.56937550968271,,,
893,141000,中国,山西省,临汾市,,临汾,36.08329,111.57776,60570,790,
894,141029,中国,山西省,临汾市,乡宁县,,35.97053,110.84721,,,
895,141081,中国,山西省,临汾市,侯马市,,35.61908,111.37213,,,
896,141025,中国,山西省,临汾市,古县,,36.26661,111.9205,,,
897,141028,中国,山西省,临汾市,吉县,,36.09789,110.68162,,,
898,141030,中国,山西省,临汾市,大宁县,,36.46511,110.75285,,,
899,141026,中国,山西省,临汾市,安泽县,,36.14781,112.25013,,,
900,141002,中国,山西省,临汾市,尧都区,,36.08329,111.57776,,,
901,141021,中国,山西省,临汾市,曲沃县,,35.64105,111.4757,,,
902,141032,中国,山西省,临汾市,永和县,,36.75952,110.63198,,,
903,141034,中国,山西省,临汾市,汾西县,,36.65295,111.56365,,,
904,141024,中国,山西省,临汾市,洪洞县,,36.25374,111.67496,,,
905,141027,中国,山西省,临汾市,浮山县,,35.96802,111.84952,,,
906,141022,中国,山西省,临汾市,翼城县,,35.73823,111.71836,,,
907,141033,中国,山西省,临汾市,蒲县,,36.41179,111.09648,,,
908,141023,中国,山西省,临汾市,襄汾县,,35.87618,111.44189,,,
909,141031,中国,山西省,临汾市,隰县,,36.69344,110.94049,,,
910,141082,中国,山西省,临汾市,霍州市,,36.56879,111.75505,,,
911,141100,中国,山西省,吕梁市,,吕梁,37.51761,111.15081,57200,-14310,
912,141129,中国,山西省,吕梁市,中阳县,,37.3572,111.17953,,,
913,141124,中国,山西省,吕梁市,临县,,37.95106,110.99208,,,
914,141130,中国,山西省,吕梁市,交口县,,36.98217,111.18107,,,
915,141122,中国,山西省,吕梁市,交城县,,37.55165,112.15478,,,
916,141123,中国,山西省,吕梁市,兴县,,38.46242,111.1276,,,
917,141181,中国,山西省,吕梁市,孝义市,,37.14534,111.77903,,,
918,141127,中国,山西省,吕梁市,岚县,,38.27939,111.67195,,,
919,141121,中国,山西省,吕梁市,文水县,,37.43843,112.0285,,,
920,141128,中国,山西省,吕梁市,方山县,,37.8947,111.24396,,,
921,141125,中国,山西省,吕梁市,柳林县,,37.42902,110.88937,,,
922,141182,中国,山西省,吕梁市,汾阳市,,37.26542,111.78777,,,
923,141126,中国,山西省,吕梁市,石楼县,,36.99857,110.83469,,,
924,141102,中国,山西省,吕梁市,离石区,,37.51761,111.15081,,,
925,140200,中国,山西省,大同市,,大同,40.08,113.3,73380,-42900,
926,140211,中国,山西省,大同市,南郊区,,40.00543,113.14952,,,
927,140202,中国,山西省,大同市,城区,,40.06416,113.29315,,,
928,140227,中国,山西省,大同市,大同县,,40.04016,113.61217,,,
929,140222,中国,山西省,大同市,天镇县,,40.42031,114.0907,,,
930,140226,中国,山西省,大同市,左云县,,40.01349,112.70273,,,
931,140223,中国,山西省,大同市,广灵县,,39.7602,114.28257,,,
932,140212,中国,山西省,大同市,新荣区,,40.25585,113.14013,,,
933,140225,中国,山西省,大同市,浑源县,,39.69873,113.6908,,,
934,140224,中国,山西省,大同市,灵丘县,,39.44243,114.2342,,,
935,140203,中国,山西省,大同市,矿区,,40.00543,113.14952,,,
936,140221,中国,山西省,大同市,阳高县,,40.36627,113.75412,,,
937,140100,中国,山西省,太原市,,太原,37.875,112.5451,68630,-18560,
938,140109,中国,山西省,太原市,万柏林区,,37.85929,112.51562,,,
939,140181,中国,山西省,太原市,古交市,,37.90714,112.17588,,,
940,140123,中国,山西省,太原市,娄烦县,,38.0672,111.79745,,,
941,140105,中国,山西省,太原市,小店区,,37.73605,112.56566,,,
942,140108,中国,山西省,太原市,尖草坪区,,37.94036,112.48699,,,
943,140110,中国,山西省,太原市,晋源区,,37.71525,112.4777,,,
944,140107,中国,山西省,太原市,杏花岭区,,37.89403,112.57053,,,
945,140121,中国,山西省,太原市,清徐县,,37.60736,112.35885,,,
946,140106,中国,山西省,太原市,迎泽区,,37.8632,112.56346,,,
947,140122,中国,山西省,太原市,阳曲县,,38.05828,112.67292,,,
948,140900,中国,山西省,忻州市,,忻州,38.4104,112.72,69820,-24510,
949,140922,中国,山西省,忻州市,五台县,,38.72812,113.2554,,,
950,140928,中国,山西省,忻州市,五寨县,,38.91071,111.84701,,,
951,140923,中国,山西省,忻州市,代县,,39.06689,112.95996,,,
952,140931,中国,山西省,忻州市,保德县,,39.02265,111.08625,,,
953,140932,中国,山西省,忻州市,偏关县,,39.43613,111.50869,,,
954,140981,中国,山西省,忻州市,原平市,,38.73051,112.71092,,,
955,140925,中国,山西省,忻州市,宁武县,,39.00147,112.3045,,,
956,140921,中国,山西省,忻州市,定襄县,,38.47348,112.95722,,,
957,140929,中国,山西省,忻州市,岢岚县,,38.70427,111.57296,,,
958,140902,中国,山西省,忻州市,忻府区,,38.40429,112.74619,,,
959,140930,中国,山西省,忻州市,河曲县,,39.38456,111.13837,,,
960,140927,中国,山西省,忻州市,神池县,,39.09059,112.21077,,,
961,140924,中国,山西省,忻州市,繁峙县,,39.18904,113.26547,,,
962,140926,中国,山西省,忻州市,静乐县,,38.35924,111.93875,,,
963,140700,中国,山西省,晋中市,,晋中,37.69978,112.70746,70250,-16650,
964,140781,中国,山西省,晋中市,介休市,,37.0271,111.91672,,,
965,140723,中国,山西省,晋中市,和顺县,,37.32905,113.56972,,,
966,140726,中国,山西省,晋中市,太谷县,,37.42119,112.55126,,,
967,140725,中国,山西省,晋中市,寿阳县,,37.89498,113.17666,,,
968,140722,中国,山西省,晋中市,左权县,,37.08243,113.37926,,,
969,140728,中国,山西省,晋中市,平遥县,,37.18934,112.17557,,,
970,140724,中国,山西省,晋中市,昔阳县,,37.61282,113.70718,,,
971,140702,中国,山西省,晋中市,榆次区,,37.69978,112.70746,,,
972,140721,中国,山西省,晋中市,榆社县,,37.07084,112.97522,,,
973,140729,中国,山西省,晋中市,灵石县,,36.84788,111.77879,,,
974,140727,中国,山西省,晋中市,祁县,,37.35775,112.33507,,,
975,140500,中国,山西省,晋城市,,晋城,35.50154,112.85352,71510,6490,
976,140502,中国,山西省,晋城市,城区,,35.50154,112.85352,,,
977,140521,中国,山西省,晋城市,沁水县,,35.69015,112.1866,,,
978,140525,中国,山西省,晋城市,泽州县,,35.50043,112.94366,,,
979,140522,中国,山西省,晋城市,阳城县,,35.48618,112.41491,,,
980,140524,中国,山西省,晋城市,陵川县,,35.77512,113.28061,,,
981,140581,中国,山西省,晋城市,高平市,,35.79807,112.92358,,,
982,140600,中国,山西省,朔州市,,朔州,39.3004,112.42,66680,-34500,
983,140623,中国,山西省,朔州市,右玉县,,39.98913,112.46705,,,
984,140621,中国,山西省,朔州市,山阴县,,39.52625,112.81572,,,
985,140603,中国,山西省,朔州市,平鲁区,,39.51238,112.28832,,,
986,140622,中国,山西省,朔州市,应县,,39.55434,113.19093,,,
987,140624,中国,山西省,朔州市,怀仁县,,39.82788,113.10012,,,
988,140602,中国,山西省,朔州市,朔城区,,39.31918,112.43314,,,
989,140800,中国,山西省,运城市,,运城,35.01505,110.99817,56240,12030,
990,140822,中国,山西省,运城市,万荣县,,35.41534,110.83781,,,
991,140821,中国,山西省,运城市,临猗县,,35.14471,110.77408,,,
992,140827,中国,山西省,运城市,垣曲县,,35.29762,111.67025,,,
993,140828,中国,山西省,运城市,夏县,,35.14136,111.22031,,,
994,140829,中国,山西省,运城市,平陆县,,34.83467,111.19474,,,
995,140825,中国,山西省,运城市,新绛县,,35.61622,111.2247,,,
996,140881,中国,山西省,运城市,永济市,,34.86716,110.44773,,,
997,140882,中国,山西省,运城市,河津市,,35.59643,110.71186,,,
998,140802,中国,山西省,运城市,盐湖区,,35.01505,110.99817,,,
999,140824,中国,山西省,运城市,稷山县,,35.60401,110.98311,,,
1000,140826,中国,山西省,运城市,绛县,,35.61622,111.2247,,,
1001,140830,中国,山西省,运城市,芮城县,,34.69365,110.69442,,,
1002,140823,中国,山西省,运城市,闻喜县,,35.35663,111.22472,,,
1003,140400,中国,山西省,长治市,,长治,36.1839,113.1053,73590,-930,
1004,140402,中国,山西省,长治市,城区,,36.20346,113.12303,,,
1005,140427,中国,山西省,长治市,壶关县,,36.11567,113.20733,,,
1006,140424,中国,山西省,长治市,屯留县,,36.31553,112.89221,,,
1007,140425,中国,山西省,长治市,平顺县,,36.20006,113.43606,,,
1008,140429,中国,山西省,长治市,武乡县,,36.8378,112.86387,,,
1009,140430,中国,山西省,长治市,沁县,,36.75608,112.69907,,,
1010,140431,中国,山西省,长治市,沁源县,,36.5001,112.33762,,,
1011,140481,中国,山西省,长治市,潞城市,,36.33418,113.22893,,,
1012,140423,中国,山西省,长治市,襄垣县,,36.53581,113.05306,,,
1013,140411,中国,山西省,长治市,郊区,,36.22434,113.11185,,,
1014,140428,中国,山西省,长治市,长子县,,36.12222,112.87795,,,
1015,140421,中国,山西省,长治市,长治县,,36.05312,113.05135,,,
1016,140426,中国,山西省,长治市,黎城县,,36.50227,113.38722,,,
1017,140300,中国,山西省,阳泉市,,阳泉,37.87,113.57,76820,-18560,
1018,140302,中国,山西省,阳泉市,城区,,37.84739,113.60075,,,
1019,140321,中国,山西省,阳泉市,平定县,,37.78685,113.65804,,,
1020,140322,中国,山西省,阳泉市,盂县,,38.0858,113.41238,,,
1021,140303,中国,山西省,阳泉市,矿区,,37.86851,113.5553,,,
1022,140311,中国,山西省,阳泉市,郊区,,37.94135,113.58515,,,
1023,440000,中国,广东省,,,,23.13794855653905,113.27242891272826,,,
1024,441900,中国,广东省,东莞市,,东莞,23.02067,113.75179,85290,138850,
1025,442000,中国,广东省,中山市,,中山,22.51595,113.3926,81990,143950,
1026,445300,中国,广东省,云浮市,,云浮,22.91525,112.04453,68560,140630,
1027,445302,中国,广东省,云浮市,云城区,,22.92797,112.04373,,,
1028,445303,中国,广东省,云浮市,云安区,,23.07101,112.00324,,,
1029,445321,中国,广东省,云浮市,新兴县,,22.69573,112.22536,,,
1030,445381,中国,广东省,云浮市,罗定市,,22.7683,111.57004,,,
1031,445322,中国,广东省,云浮市,郁南县,,23.23464,111.53536,,,
1032,440600,中国,广东省,佛山市,,佛山,23.02185,113.12192,79080,139040,
1033,440607,中国,广东省,佛山市,三水区,,23.15623,112.89629,,,
1034,440605,中国,广东省,佛山市,南海区,,23.02882,113.14278,,,
1035,440604,中国,广东省,佛山市,禅城区,,23.00944,113.12249,,,
1036,440606,中国,广东省,佛山市,顺德区,,22.80536,113.29321,,,
1037,440608,中国,广东省,佛山市,高明区,,22.90026,112.89262,,,
1038,440100,中国,广东省,广州市,,广州,23.145,113.325,80460,137940,
1039,440117,中国,广东省,广州市,从化区,,23.54835,113.58646,,,
1040,440115,中国,广东省,广州市,南沙区,,22.80169,113.52497,,,
1041,440118,中国,广东省,广州市,增城区,,23.26093,113.8109,,,
1042,440106,中国,广东省,广州市,天河区,,23.12463,113.36199,,,
1043,440105,中国,广东省,广州市,海珠区,,23.08331,113.3172,,,
1044,440113,中国,广东省,广州市,番禺区,,22.93772,113.38424,,,
1045,440111,中国,广东省,广州市,白云区,,23.15792,113.27324,,,
1046,440114,中国,广东省,广州市,花都区,,23.40391,113.22026,,,
1047,440103,中国,广东省,广州市,荔湾区,,23.12586,113.24428,,,
1048,440104,中国,广东省,广州市,越秀区,,23.12901,113.2668,,,
1049,440112,中国,广东省,广州市,黄埔区,,23.18139,113.48067,,,
1050,441300,中国,广东省,惠州市,,惠州,23.08,114.4,91850,137530,
1051,441322,中国,广东省,惠州市,博罗县,,23.17315,114.28973,,,
1052,441323,中国,广东省,惠州市,惠东县,,22.98486,114.71999,,,
1053,441302,中国,广东省,惠州市,惠城区,,23.08383,114.38273,,,
1054,441303,中国,广东省,惠州市,惠阳区,,22.78851,114.45646,,,
1055,441324,中国,广东省,惠州市,龙门县,,23.72763,114.25486,,,
1056,445200,中国,广东省,揭阳市,,揭阳,23.54972,116.37271,110800,132280,
1057,445224,中国,广东省,揭阳市,惠来县,,23.03321,116.29511,,,
1058,445221,中国,广东省,揭阳市,揭东县,,23.56606,116.41211,,,
1059,445222,中国,广东省,揭阳市,揭西县,,23.43141,115.84189,,,
1060,445281,中国,广东省,揭阳市,普宁市,,23.29736,116.16569,,,
1061,445202,中国,广东省,揭阳市,榕城区,,23.52486,116.36692,,,
1062,441400,中国,广东省,梅州市,,梅州,24.3005,116.12,107980,124900,
1063,441423,中国,广东省,梅州市,丰顺县,,23.73945,116.18225,,,
1064,441424,中国,广东省,梅州市,五华县,,23.93254,115.77609,,,
1065,441481,中国,广东省,梅州市,兴宁市,,24.1365,115.73119,,,
1066,441422,中国,广东省,梅州市,大埔县,,24.34792,116.6952,,,
1067,441426,中国,广东省,梅州市,平远县,,24.56632,115.89112,,,
1068,441421,中国,广东省,梅州市,梅县,,24.26539,116.08245,,,
1069,441402,中国,广东省,梅州市,梅江区,,24.30996,116.11699,,,
1070,441427,中国,广东省,梅州市,蕉岭县,,24.65861,116.17123,,,
1071,440500,中国,广东省,汕头市,,汕头,23.37,116.67,113910,134060,
1072,440523,中国,广东省,汕头市,南澳县,,23.42178,117.02348,,,
1073,440514,中国,广东省,汕头市,潮南区,,23.25029,116.4331,,,
1074,440513,中国,广东省,汕头市,潮阳区,,23.26489,116.60157,,,
1075,440515,中国,广东省,汕头市,澄海区,,23.46613,116.75608,,,
1076,440512,中国,广东省,汕头市,濠江区,,23.28592,116.72664,,,
1077,440511,中国,广东省,汕头市,金平区,,23.36525,116.7054,,,
1078,440507,中国,广东省,汕头市,龙湖区,,23.37246,116.71677,,,
1079,441500,中国,广东省,汕尾市,,汕尾,22.78566,115.37514,101390,140360,
1080,441502,中国,广东省,汕尾市,城区,,22.7787,115.36502,,,
1081,441521,中国,广东省,汕尾市,海丰县,,22.96657,115.32341,,,
1082,441581,中国,广东省,汕尾市,陆丰市,,22.94511,115.64462,,,
1083,441523,中国,广东省,汕尾市,陆河县,,23.30148,115.65996,,,
1084,440700,中国,广东省,江门市,,江门,22.5804,113.08,78940,143510,
1085,440781,中国,广东省,江门市,台山市,,22.25156,112.7939,,,
1086,440783,中国,广东省,江门市,开平市,,22.37638,112.69851,,,
1087,440785,中国,广东省,江门市,恩平市,,22.18294,112.30532,,,
1088,440705,中国,广东省,江门市,新会区,,22.45877,113.03231,,,
1089,440704,中国,广东省,江门市,江海区,,22.56028,113.11103,,,
1090,440703,中国,广东省,江门市,蓬江区,,22.59514,113.07845,,,
1091,440784,中国,广东省,江门市,鹤山市,,22.7653,112.96436,,,
1092,441600,中国,广东省,河源市,,河源,23.7304,114.68,94270,131040,
1093,441625,中国,广东省,河源市,东源县,,23.78856,114.74625,,,
1094,441624,中国,广东省,河源市,和平县,,24.44201,114.93872,,,
1095,441602,中国,广东省,河源市,源城区,,23.73417,114.70246,,,
1096,441621,中国,广东省,河源市,紫金县,,23.63532,115.18398,,,
1097,441623,中国,广东省,河源市,连平县,,24.36956,114.48865,,,
1098,441622,中国,广东省,河源市,龙川县,,24.10014,115.25984,,,
1099,440300,中国,广东省,深圳市,,深圳,22.5524,114.1221,87640,143070,
1100,440305,中国,广东省,深圳市,南山区,,22.53332,113.93041,,,
1101,440306,中国,广东省,深圳市,宝安区,,22.55329,113.88308,,,
1102,440308,中国,广东省,深圳市,盐田区,,22.557,114.23679,,,
1103,440304,中国,广东省,深圳市,福田区,,22.52291,114.05454,,,
1104,440303,中国,广东省,深圳市,罗湖区,,22.54836,114.13166,,,
1105,440307,中国,广东省,深圳市,龙岗区,,22.71991,114.24779,,,
1106,441800,中国,广东省,清远市,,清远,23.7004,113.0301,78100,132390,
1107,441821,中国,广东省,清远市,佛冈县,,23.87921,113.53172,,,
1108,441802,中国,广东省,清远市,清城区,,23.69795,113.06269,,,
1109,441803,中国,广东省,清远市,清新区,,23.73474,113.01658,,,
1110,441881,中国,广东省,清远市,英德市,,24.18572,113.41505,,,
1111,441826,中国,广东省,清远市,连南瑶族自治县,,24.7254,112.28698,,,
1112,441825,中国,广东省,清远市,连山壮族瑶族自治县,,24.57036,112.09348,,,
1113,441882,中国,广东省,清远市,连州市,,24.77998,112.37677,,,
1114,441823,中国,广东省,清远市,阳山县,,24.465,112.64132,,,
1115,440800,中国,广东省,湛江市,,湛江,21.2,110.38,52840,157860,
1116,440883,中国,广东省,湛江市,吴川市,,21.44182,110.77824,,,
1117,440804,中国,广东省,湛江市,坡头区,,21.24475,110.4555,,,
1118,440881,中国,广东省,湛江市,廉江市,,21.60962,110.28625,,,
1119,440825,中国,广东省,湛江市,徐闻县,,20.32652,110.17502,,,
1120,440802,中国,广东省,湛江市,赤坎区,,21.26624,110.36534,,,
1121,440823,中国,广东省,湛江市,遂溪县,,21.37708,110.25006,,,
1122,440882,中国,广东省,湛江市,雷州市,,20.91444,110.09651,,,
1123,440803,中国,广东省,湛江市,霞山区,,21.19169,110.39821,,,
1124,440811,中国,广东省,湛江市,麻章区,,21.26331,110.33427,,,
1125,445100,中国,广东省,潮州市,,潮州,23.68,116.63,113210,131080,
1126,445102,中国,广东省,潮州市,湘桥区,,23.67441,116.62834,,,
1127,445121,中国,广东省,潮州市,潮安县,,23.46244,116.67809,,,
1128,445122,中国,广东省,潮州市,饶平县,,23.66412,117.0039,,,
1129,440400,中国,广东省,珠海市,,珠海,22.2769,113.5678,83760,146280,
1130,440403,中国,广东省,珠海市,斗门区,,22.20907,113.29673,,,
1131,440404,中国,广东省,珠海市,金湾区,,22.14589,113.3642,,,
1132,440402,中国,广东省,珠海市,香洲区,,22.26666,113.54342,,,
1133,441200,中国,广东省,肇庆市,,肇庆,23.0469,112.46528,72610,139130,
1134,441284,中国,广东省,肇庆市,四会市,,23.32743,112.73404,,,
1135,441225,中国,广东省,肇庆市,封开县,,23.42448,111.51196,,,
1136,441223,中国,广东省,肇庆市,广宁县,,23.63493,112.44112,,,
1137,441226,中国,广东省,肇庆市,德庆县,,23.14376,111.78559,,,
1138,441224,中国,广东省,肇庆市,怀集县,,23.91188,112.18454,,,
1139,441202,中国,广东省,肇庆市,端州区,,23.05196,112.48461,,,
1140,441283,中国,广东省,肇庆市,高要市,,23.02581,112.45839,,,
1141,441203,中国,广东省,肇庆市,鼎湖区,,23.15815,112.56706,,,
1142,440900,中国,广东省,茂名市,,茂名,21.9204,110.87,58140,153690,
1143,440983,中国,广东省,茂名市,信宜市,,22.35429,110.9471,,,
1144,440982,中国,广东省,茂名市,化州市,,21.66397,110.63954,,,
1145,440904,中国,广东省,茂名市,电白区,,21.51428,111.01636,,,
1146,440902,中国,广东省,茂名市,茂南区,,21.64109,110.91879,,,
1147,440981,中国,广东省,茂名市,高州市,,21.91812,110.85338,,,
1148,441700,中国,广东省,阳江市,,阳江,21.8504,111.97,68490,151220,
1149,441702,中国,广东省,阳江市,江城区,,21.86182,111.95516,,,
1150,441723,中国,广东省,阳江市,阳东县,,21.86829,112.0067,,,
1151,441781,中国,广东省,阳江市,阳春市,,22.1703,111.79153,,,
1152,441721,中国,广东省,阳江市,阳西县,,21.75229,111.61791,,,
1153,440200,中国,广东省,韶关市,,韶关,24.8,113.58,82920,120660,
1154,440281,中国,广东省,韶关市,乐昌市,,25.13014,113.34746,,,
1155,440232,中国,广东省,韶关市,乳源瑶族自治县,,24.77591,113.27596,,,
1156,440224,中国,广东省,韶关市,仁化县,,25.08566,113.74918,,,
1157,440282,中国,广东省,韶关市,南雄市,,25.11962,114.31084,,,
1158,440222,中国,广东省,韶关市,始兴县,,24.95269,114.06206,,,
1159,440233,中国,广东省,韶关市,新丰县,,24.05959,114.20689,,,
1160,440205,中国,广东省,韶关市,曲江区,,24.6826,113.60458,,,
1161,440203,中国,广东省,韶关市,武江区,,24.79268,113.58771,,,
1162,440204,中国,广东省,韶关市,浈江区,,24.80446,113.61095,,,
1163,440229,中国,广东省,韶关市,翁源县,,24.3502,114.13033,,,
1164,450000,中国,广西壮族自治区,,,,22.821268997908664,108.3345212294372,,,
1165,450500,中国,广西壮族自治区,北海市,,北海,21.4804,109.1,40923,154219,
1166,450521,中国,广西壮族自治区,北海市,合浦县,,21.66089,109.20725,,,
1167,450502,中国,广西壮族自治区,北海市,海城区,,21.47525,109.1175,,,
1168,450512,中国,广西壮族自治区,北海市,铁山港区,,21.52909,109.4216,,,
1169,450503,中国,广西壮族自治区,北海市,银海区,,21.44872,109.13916,,,
1170,450100,中国,广西壮族自治区,南宁市,,南宁,22.82,108.32,31463,140799,
1171,450125,中国,广西壮族自治区,南宁市,上林县,,23.43205,108.60506,,,
1172,450102,中国,广西壮族自治区,南宁市,兴宁区,,22.85429,108.36836,,,
1173,450126,中国,广西壮族自治区,南宁市,宾阳县,,23.21768,108.8103,,,
1174,450127,中国,广西壮族自治区,南宁市,横县,,22.67999,109.26147,,,
1175,450122,中国,广西壮族自治区,南宁市,武鸣县,,23.15866,108.27461,,,
1176,450105,中国,广西壮族自治区,南宁市,江南区,,22.78121,108.27331,,,
1177,450108,中国,广西壮族自治区,南宁市,良庆区,,22.75619,108.32082,,,
1178,450107,中国,广西壮族自治区,南宁市,西乡塘区,,22.83393,108.31343,,,
1179,450109,中国,广西壮族自治区,南宁市,邕宁区,,22.75837,108.48737,,,
1180,450123,中国,广西壮族自治区,南宁市,隆安县,,23.16589,107.6961,,,
1181,450103,中国,广西壮族自治区,南宁市,青秀区,,22.78658,108.49693,,,
1182,450124,中国,广西壮族自治区,南宁市,马山县,,23.70817,108.17702,,,
1183,451400,中国,广西壮族自治区,崇左市,,崇左,22.40566,107.35325,22363,145199,
1184,451481,中国,广西壮族自治区,崇左市,凭祥市,,22.09439,106.76649,,,
1185,451424,中国,广西壮族自治区,崇左市,大新县,,22.8304,107.20124,,,
1186,451425,中国,广西壮族自治区,崇左市,天等县,,23.08134,107.14363,,,
1187,451422,中国,广西壮族自治区,崇左市,宁明县,,22.14016,107.07673,,,
1188,451421,中国,广西壮族自治区,崇左市,扶绥县,,22.63497,107.90411,,,
1189,451402,中国,广西壮族自治区,崇左市,江洲区,,22.40566,107.35325,,,
1190,451423,中国,广西壮族自治区,崇左市,龙州县,,22.34262,106.85455,,,
1191,451300,中国,广西壮族自治区,来宾市,,来宾,23.72742,109.23462,40033,131099,
1192,451302,中国,广西壮族自治区,来宾市,兴宾区,,23.72742,109.23462,,,
1193,451381,中国,广西壮族自治区,来宾市,合山市,,23.8066,108.88611,,,
1194,451321,中国,广西壮族自治区,来宾市,忻城县,,24.06617,108.66575,,,
1195,451323,中国,广西壮族自治区,来宾市,武宣县,,23.59414,109.66325,,,
1196,451322,中国,广西壮族自治区,来宾市,象州县,,23.97374,109.70526,,,
1197,451324,中国,广西壮族自治区,来宾市,金秀瑶族自治县,,24.13039,110.18942,,,
1198,450200,中国,广西壮族自治区,柳州市,,柳州,24.28,109.25,41693,125109,
1199,450226,中国,广西壮族自治区,柳州市,三江侗族自治县,,25.78314,109.60788,,,
1200,450202,中国,广西壮族自治区,柳州市,城中区,,24.33941,109.44626,,,
1201,450205,中国,广西壮族自治区,柳州市,柳北区,,24.36259,109.40209,,,
1202,450204,中国,广西壮族自治区,柳州市,柳南区,,24.33599,109.3859,,,
1203,450222,中国,广西壮族自治区,柳州市,柳城县,,24.65058,109.24468,,,
1204,450221,中国,广西壮族自治区,柳州市,柳江县,,24.25465,109.32672,,,
1205,450224,中国,广西壮族自治区,柳州市,融安县,,25.22467,109.39764,,,
1206,450225,中国,广西壮族自治区,柳州市,融水苗族自治县,,25.06629,109.25636,,,
1207,450203,中国,广西壮族自治区,柳州市,鱼峰区,,24.28154,109.44726,,,
1208,450223,中国,广西壮族自治区,柳州市,鹿寨县,,24.47308,109.75179,,,
1209,450300,中国,广西壮族自治区,桂林市,,桂林,25.28,110.28,48363,115759,
1210,450305,中国,广西壮族自治区,桂林市,七星区,,25.25235,110.31771,,,
1211,450322,中国,广西壮族自治区,桂林市,临桂县,,25.23868,110.2124,,,
1212,450324,中国,广西壮族自治区,桂林市,全州县,,25.92861,111.07304,,,
1213,450325,中国,广西壮族自治区,桂林市,兴安县,,25.61169,110.67147,,,
1214,450303,中国,广西壮族自治区,桂林市,叠彩区,,25.31402,110.30188,,,
1215,450330,中国,广西壮族自治区,桂林市,平乐县,,24.63325,110.64322,,,
1216,450332,中国,广西壮族自治区,桂林市,恭城瑶族自治县,,24.83135,110.82835,,,
1217,450326,中国,广西壮族自治区,桂林市,永福县,,24.98001,109.98318,,,
1218,450327,中国,广西壮族自治区,桂林市,灌阳县,,25.48932,111.16083,,,
1219,450323,中国,广西壮族自治区,桂林市,灵川县,,25.4097,110.32552,,,
1220,450302,中国,广西壮族自治区,桂林市,秀峰区,,25.28131,110.28903,,,
1221,450331,中国,广西壮族自治区,桂林市,荔浦县,,24.48785,110.39508,,,
1222,450304,中国,广西壮族自治区,桂林市,象山区,,25.26159,110.2811,,,
1223,450329,中国,广西壮族自治区,桂林市,资源县,,26.04241,110.65259,,,
1224,450321,中国,广西壮族自治区,桂林市,阳朔县,,24.77843,110.49663,,,
1225,450311,中国,广西壮族自治区,桂林市,雁山区,,25.06039,110.30914,,,
1226,450328,中国,广西壮族自治区,桂林市,龙胜各族自治县,,25.79809,110.01149,,,
1227,450400,中国,广西壮族自治区,梧州市,,梧州,23.48,111.32,59763,133569,
1228,450403,中国,广西壮族自治区,梧州市,万秀区,,23.47303,111.32033,,,
1229,450481,中国,广西壮族自治区,梧州市,岑溪市,,22.91828,110.9949,,,
1230,450421,中国,广西壮族自治区,梧州市,苍梧县,,23.84232,111.54488,,,
1231,450423,中国,广西壮族自治区,梧州市,蒙山县,,24.19355,110.52492,,,
1232,450422,中国,广西壮族自治区,梧州市,藤县,,23.37497,110.91497,,,
1233,450405,中国,广西壮族自治区,梧州市,长洲区,,23.48555,111.27466,,,
1234,450406,中国,广西壮族自治区,梧州市,龙圩区,,23.41513,111.24752,,,
1235,451200,中国,广西壮族自治区,河池市,,河池,23.0965,109.6091,35073,123879,
1236,451224,中国,广西壮族自治区,河池市,东兰县,,24.51072,107.37421,,,
1237,451223,中国,广西壮族自治区,河池市,凤山县,,24.54699,107.04221,,,
1238,451221,中国,广西壮族自治区,河池市,南丹县,,24.97535,107.54224,,,
1239,451229,中国,广西壮族自治区,河池市,大化瑶族自治县,,23.7364,107.99814,,,
1240,451222,中国,广西壮族自治区,河池市,天峨县,,24.99911,107.17372,,,
1241,451281,中国,广西壮族自治区,河池市,宜州市,,24.48513,108.63656,,,
1242,451227,中国,广西壮族自治区,河池市,巴马瑶族自治县,,24.14108,107.25965,,,
1243,451226,中国,广西壮族自治区,河池市,环江毛南族自治县,,24.82601,108.2583,,,
1244,451225,中国,广西壮族自治区,河池市,罗城仫佬族自治县,,24.77739,108.90465,,,
1245,451228,中国,广西壮族自治区,河池市,都安瑶族自治县,,23.93122,108.10555,,,
1246,451202,中国,广西壮族自治区,河池市,金城江区,,24.68983,108.03719,,,
1247,450900,中国,广西壮族自治区,玉林市,,玉林,22.63,110.15,49183,142489,
1248,450924,中国,广西壮族自治区,玉林市,兴业县,,22.73636,109.87517,,,
1249,450981,中国,广西壮族自治区,玉林市,北流市,,22.70837,110.35426,,,
1250,450923,中国,广西壮族自治区,玉林市,博白县,,22.27306,109.97627,,,
1251,450921,中国,广西壮族自治区,玉林市,容县,,22.85783,110.55786,,,
1252,450902,中国,广西壮族自治区,玉林市,玉州区,,22.62811,110.15133,,,
1253,450903,中国,广西壮族自治区,玉林市,福绵区,,22.57957,110.05125,,,
1254,450922,中国,广西壮族自治区,玉林市,陆川县,,22.32109,110.26413,,,
1255,451000,中国,广西壮族自治区,百色市,,百色,23.90115,106.61897,15053,129089,
1256,451028,中国,广西壮族自治区,百色市,乐业县,,24.78583,106.56163,,,
1257,451027,中国,广西壮族自治区,百色市,凌云县,,24.34751,106.56159,,,
1258,451002,中国,广西壮族自治区,百色市,右江区,,23.90115,106.61897,,,
1259,451023,中国,广西壮族自治区,百色市,平果县,,23.32934,107.58988,,,
1260,451024,中国,广西壮族自治区,百色市,德保县,,23.3234,106.6155,,,
1261,451022,中国,广西壮族自治区,百色市,田东县,,23.59724,107.12608,,,
1262,451029,中国,广西壮族自治区,百色市,田林县,,24.29438,106.22852,,,
1263,451021,中国,广西壮族自治区,百色市,田阳县,,23.73567,106.91567,,,
1264,451030,中国,广西壮族自治区,百色市,西林县,,24.48957,105.09383,,,
1265,451026,中国,广西壮族自治区,百色市,那坡县,,23.3871,105.83349,,,
1266,451031,中国,广西壮族自治区,百色市,隆林各族自治县,,24.77066,105.34389,,,
1267,451025,中国,广西壮族自治区,百色市,靖西县,,23.13402,106.41769,,,
1268,450800,中国,广西壮族自治区,贵港市,,贵港,23.11084,109.57339,43723,137669,
1269,450821,中国,广西壮族自治区,贵港市,平南县,,23.53919,110.39215,,,
1270,450881,中国,广西壮族自治区,贵港市,桂平市,,23.3941,110.07901,,,
1271,450802,中国,广西壮族自治区,贵港市,港北区,,23.11084,109.57339,,,
1272,450803,中国,广西壮族自治区,贵港市,港南区,,23.07504,109.59996,,,
1273,450804,中国,广西壮族自治区,贵港市,覃塘区,,23.12718,109.45269,,,
1274,451100,中国,广西壮族自治区,贺州市,,贺州,24.41175,111.55197,62243,123829,
1275,451102,中国,广西壮族自治区,贺州市,八步区,,24.41175,111.55197,,,
1276,451123,中国,广西壮族自治区,贺州市,富川瑶族自治县,,24.81433,111.27753,,,
1277,451121,中国,广西壮族自治区,贺州市,昭平县,,24.16947,110.81137,,,
1278,451122,中国,广西壮族自治区,贺州市,钟山县,,24.5264,111.30278,,,
1279,450700,中国,广西壮族自治区,钦州市,,钦州,21.9504,108.62,34823,149769,
1280,450722,中国,广西壮族自治区,钦州市,浦北县,,22.27152,109.55698,,,
1281,450721,中国,广西壮族自治区,钦州市,灵山县,,22.4165,109.29094,,,
1282,450703,中国,广西壮族自治区,钦州市,钦北区,,22.17075,108.57324,,,
1283,450702,中国,广西壮族自治区,钦州市,钦南区,,21.93854,108.6569,,,
1284,450600,中国,广西壮族自治区,防城港市,,防城港,21.76913,108.35342,31993,152279,
1285,450621,中国,广西壮族自治区,防城港市,上思县,,22.1537,107.98362,,,
1286,450681,中国,广西壮族自治区,防城港市,东兴市,,21.54792,107.97188,,,
1287,450602,中国,广西壮族自治区,防城港市,港口区,,21.64348,108.38012,,,
1288,450603,中国,广西壮族自治区,防城港市,防城区,,21.76913,108.35342,,,
1289,650000,中国,新疆维吾尔自治区,,,,43.79923810128996,87.63347320573824,,,
1290,659005,中国,新疆维吾尔自治区,北屯市,,北屯,47.36327,87.80014,-110750,-135690,
1291,659007,中国,新疆维吾尔自治区,双河市,,双河,44.84418,82.35501,-150590,-118970,
1292,659008,中国,新疆维吾尔自治区,可克达拉市,,可克达拉,43.94799,81.04476,-167550,-117880,
1293,659006,中国,新疆维吾尔自治区,铁门关市,,铁门关,41.86868,85.67583,-136600,-81370,
1294,650100,中国,新疆维吾尔自治区,乌鲁木齐市,,乌鲁木齐,43.805,87.575,-118460,-100310,
1295,650121,中国,新疆维吾尔自治区,乌鲁木齐市,乌鲁木齐县,,43.47129,87.40931,,,
1296,650102,中国,新疆维吾尔自治区,乌鲁木齐市,天山区,,43.79547,87.63356,,,
1297,650106,中国,新疆维吾尔自治区,乌鲁木齐市,头屯河区,,43.87711,87.42812,,,
1298,650104,中国,新疆维吾尔自治区,乌鲁木齐市,新市区,,43.84367,87.574,,,
1299,650105,中国,新疆维吾尔自治区,乌鲁木齐市,水磨沟区,,43.83244,87.64248,,,
1300,650103,中国,新疆维吾尔自治区,乌鲁木齐市,沙依巴克区,,43.80095,87.59811,,,
1301,650109,中国,新疆维吾尔自治区,乌鲁木齐市,米东区,,43.97365,87.65591,,,
1302,650107,中国,新疆维吾尔自治区,乌鲁木齐市,达坂城区,,43.36378,88.31104,,,
1303,659004,中国,新疆维吾尔自治区,五家渠市,,五家渠,44.16799,87.54017,-118060,-108980,
1304,654000,中国,新疆维吾尔自治区,伊犁哈萨克自治州,,伊犁,43.91689,81.32416,-163130,-113330,
1305,654021,中国,新疆维吾尔自治区,伊犁哈萨克自治州,伊宁县,,43.9095,81.27725,,,
1306,654002,中国,新疆维吾尔自治区,伊犁哈萨克自治州,伊宁市,,43.9095,81.27725,,,
1307,654003,中国,新疆维吾尔自治区,伊犁哈萨克自治州,奎屯市,,44.42689,84.90167,,,
1308,654022,中国,新疆维吾尔自治区,伊犁哈萨克自治州,察布查尔锡伯自治县,,43.84072,81.15128,,,
1309,654028,中国,新疆维吾尔自治区,伊犁哈萨克自治州,尼勒克县,,43.79904,82.5119,,,
1310,654024,中国,新疆维吾尔自治区,伊犁哈萨克自治州,巩留县,,43.48257,82.23175,,,
1311,654025,中国,新疆维吾尔自治区,伊犁哈萨克自治州,新源县,,43.42988,83.26157,,,
1312,654026,中国,新疆维吾尔自治区,伊犁哈萨克自治州,昭苏县,,43.15724,81.13102,,,
1313,654027,中国,新疆维吾尔自治区,伊犁哈萨克自治州,特克斯县,,43.21799,81.83603,,,
1314,654023,中国,新疆维吾尔自治区,伊犁哈萨克自治州,霍城县,,44.05599,80.87899,,,
1315,654004,中国,新疆维吾尔自治区,伊犁哈萨克自治州,霍尔果斯市,,44.19865,80.41317,,,
1316,653000,中国,新疆维吾尔自治区,克孜勒苏柯尔克孜自治州,,克州,39.7153,76.16661,-208700,-83970,
1317,653024,中国,新疆维吾尔自治区,克孜勒苏柯尔克孜自治州,乌恰县,,39.71909,75.25841,,,
1318,653022,中国,新疆维吾尔自治区,克孜勒苏柯尔克孜自治州,阿克陶县,,39.14786,75.9474,,,
1319,653023,中国,新疆维吾尔自治区,克孜勒苏柯尔克孜自治州,阿合奇县,,40.93704,78.44626,,,
1320,653001,中国,新疆维吾尔自治区,克孜勒苏柯尔克孜自治州,阿图什市,,39.7161,76.16839,,,
1321,650200,中国,新疆维吾尔自治区,克拉玛依市,,克拉玛依,45.5899,84.8599,-134520,-122930,
1322,650205,中国,新疆维吾尔自治区,克拉玛依市,乌尔禾区,,46.08908,85.69377,,,
1323,650203,中国,新疆维吾尔自治区,克拉玛依市,克拉玛依区,,45.60243,84.86782,,,
1324,650202,中国,新疆维吾尔自治区,克拉玛依市,独山子区,,44.3287,84.88675,,,
1325,650204,中国,新疆维吾尔自治区,克拉玛依市,白碱滩区,,45.68734,85.13208,,,
1326,652700,中国,新疆维吾尔自治区,博尔塔拉蒙古自治州,,博州,44.90597,82.06665,-155070,-121390,
1327,652701,中国,新疆维吾尔自治区,博尔塔拉蒙古自治州,博乐市,,44.85387,82.05112,,,
1328,652723,中国,新疆维吾尔自治区,博尔塔拉蒙古自治州,温泉县,,44.96882,81.02478,,,
1329,652722,中国,新疆维吾尔自治区,博尔塔拉蒙古自治州,精河县,,44.60055,82.89417,,,
1330,652702,中国,新疆维吾尔自治区,博尔塔拉蒙古自治州,阿拉山口市,,45.17328,82.55447,,,
1331,652100,中国,新疆维吾尔自治区,吐鲁番地区,,吐鲁番,42.9354,89.165,-108920,-89510,
1332,652123,中国,新疆维吾尔自治区,吐鲁番地区,托克逊县,,42.79181,88.65384,,,
1333,652122,中国,新疆维吾尔自治区,吐鲁番地区,鄯善县,,42.86887,90.21341,,,
1334,650402,中国,新疆维吾尔自治区,吐鲁番地区,高昌区,,42.94244,89.18596,,,
1335,653200,中国,新疆维吾尔自治区,和田地区,,和田,37.0997,79.9269,-193860,-49370,
1336,653226,中国,新疆维吾尔自治区,和田地区,于田县,,36.85728,81.67712,,,
1337,653221,中国,新疆维吾尔自治区,和田地区,和田县,,37.11178,79.91321,,,
1338,653201,中国,新疆维吾尔自治区,和田地区,和田市,,37.11178,79.91321,,,
1339,653222,中国,新疆维吾尔自治区,和田地区,墨玉县,,37.2772,79.72895,,,
1340,653227,中国,新疆维吾尔自治区,和田地区,民丰县,,37.06419,82.69595,,,
1341,653224,中国,新疆维吾尔自治区,和田地区,洛浦县,,37.0737,80.18889,,,
1342,653223,中国,新疆维吾尔自治区,和田地区,皮山县,,37.62139,78.283,,,
1343,653225,中国,新疆维吾尔自治区,和田地区,策勒县,,36.99846,80.81005,,,
1344,652200,中国,新疆维吾尔自治区,哈密地区,,哈密,42.827,93.515,-77810,-83330,
1345,652223,中国,新疆维吾尔自治区,哈密地区,伊吾县,,43.25451,94.69741,,,
1346,652222,中国,新疆维吾尔自治区,哈密地区,巴里坤哈萨克自治县,,43.59873,93.01654,,,
1347,653100,中国,新疆维吾尔自治区,喀什地区,,喀什,39.4763,75.9699,-216340,-82350,
1348,653129,中国,新疆维吾尔自治区,喀什地区,伽师县,,39.48806,76.72379,,,
1349,653126,中国,新疆维吾尔自治区,喀什地区,叶城县,,37.88299,77.41367,,,
1350,653101,中国,新疆维吾尔自治区,喀什地区,喀什市,,39.46772,75.99381,,,
1351,653131,中国,新疆维吾尔自治区,喀什地区,塔什库尔干塔吉克自治县,,37.77297,75.2247,,,
1352,653128,中国,新疆维吾尔自治区,喀什地区,岳普湖县,,39.2333,76.77796,,,
1353,653130,中国,新疆维吾尔自治区,喀什地区,巴楚县,,39.78519,78.54906,,,
1354,653124,中国,新疆维吾尔自治区,喀什地区,泽普县,,38.19174,77.27095,,,
1355,653122,中国,新疆维吾尔自治区,喀什地区,疏勒县,,39.40134,76.04797,,,
1356,653121,中国,新疆维吾尔自治区,喀什地区,疏附县,,39.37516,75.86296,,,
1357,653123,中国,新疆维吾尔自治区,喀什地区,英吉沙县,,38.92956,76.17561,,,
1358,653125,中国,新疆维吾尔自治区,喀什地区,莎车县,,38.41432,77.24629,,,
1359,653127,中国,新疆维吾尔自治区,喀什地区,麦盖提县,,38.90493,77.65273,,,
1360,659003,中国,新疆维吾尔自治区,图木舒克市,,图木舒克,39.86495,79.06902,-194390,-79730,
1361,654200,中国,新疆维吾尔自治区,塔城地区,,塔城,46.75,82.95,-143650,-137540,
1362,654202,中国,新疆维吾尔自治区,塔城地区,乌苏市,,44.43556,84.67851,,,
1363,654226,中国,新疆维吾尔自治区,塔城地区,和布克赛尔蒙古自治县,,46.79302,85.72856,,,
1364,654201,中国,新疆维吾尔自治区,塔城地区,塔城市,,46.75145,82.98703,,,
1365,654224,中国,新疆维吾尔自治区,塔城地区,托里县,,45.93677,83.60621,,,
1366,654223,中国,新疆维吾尔自治区,塔城地区,沙湾县,,44.32628,85.61959,,,
1367,654225,中国,新疆维吾尔自治区,塔城地区,裕民县,,46.20109,82.98277,,,
1368,654221,中国,新疆维吾尔自治区,塔城地区,额敏县,,46.52457,83.62822,,,
1369,652800,中国,新疆维吾尔自治区,巴音郭楞蒙古自治州,,巴州,41.76404,86.14517,-134690,-81710,
1370,652825,中国,新疆维吾尔自治区,巴音郭楞蒙古自治州,且末县,,38.14538,85.52977,,,
1371,652829,中国,新疆维吾尔自治区,巴音郭楞蒙古自治州,博湖县,,41.98009,86.63254,,,
1372,652828,中国,新疆维吾尔自治区,巴音郭楞蒙古自治州,和硕县,,42.26817,86.86397,,,
1373,652827,中国,新疆维吾尔自治区,巴音郭楞蒙古自治州,和静县,,42.32266,86.38307,,,
1374,652823,中国,新疆维吾尔自治区,巴音郭楞蒙古自治州,尉犁县,,41.34392,86.26075,,,
1375,652801,中国,新疆维吾尔自治区,巴音郭楞蒙古自治州,库尔勒市,,41.72643,86.17369,,,
1376,652826,中国,新疆维吾尔自治区,巴音郭楞蒙古自治州,焉耆回族自治县,,42.0591,86.57425,,,
1377,652824,中国,新疆维吾尔自治区,巴音郭楞蒙古自治州,若羌县,,39.02374,88.16728,,,
1378,652822,中国,新疆维吾尔自治区,巴音郭楞蒙古自治州,轮台县,,41.77763,84.25191,,,
1379,652300,中国,新疆维吾尔自治区,昌吉回族自治州,,昌吉,44.01117,87.30822,-120330,-103220,
1380,652327,中国,新疆维吾尔自治区,昌吉回族自治州,吉木萨尔县,,44.00061,89.18076,,,
1381,652323,中国,新疆维吾尔自治区,昌吉回族自治州,呼图壁县,,44.1916,86.89887,,,
1382,652325,中国,新疆维吾尔自治区,昌吉回族自治州,奇台县,,44.02197,89.59399,,,
1383,652301,中国,新疆维吾尔自治区,昌吉回族自治州,昌吉市,,44.01437,87.26749,,,
1384,652328,中国,新疆维吾尔自治区,昌吉回族自治州,木垒哈萨克自治县,,43.83464,90.28598,,,
1385,652324,中国,新疆维吾尔自治区,昌吉回族自治州,玛纳斯县,,44.30413,86.21421,,,
1386,652302,中国,新疆维吾尔自治区,昌吉回族自治州,阜康市,,44.15706,87.98738,,,
1387,659001,中国,新疆维吾尔自治区,石河子市,,石河子,44.3,86.0299,-126590,-113390,
1388,652900,中国,新疆维吾尔自治区,阿克苏地区,,阿克苏,41.15,80.25,-178460,-88180,
1389,652927,中国,新疆维吾尔自治区,阿克苏地区,乌什县,,41.21472,79.22457,,,
1390,652923,中国,新疆维吾尔自治区,阿克苏地区,库车县,,41.71741,82.96212,,,
1391,652926,中国,新疆维吾尔自治区,阿克苏地区,拜城县,,41.79685,81.87347,,,
1392,652925,中国,新疆维吾尔自治区,阿克苏地区,新和县,,41.54833,82.60912,,,
1393,652929,中国,新疆维吾尔自治区,阿克苏地区,柯坪县,,40.50826,79.04681,,,
1394,652924,中国,新疆维吾尔自治区,阿克苏地区,沙雅县,,41.2216,82.78209,,,
1395,652922,中国,新疆维吾尔自治区,阿克苏地区,温宿县,,41.27706,80.23914,,,
1396,652901,中国,新疆维吾尔自治区,阿克苏地区,阿克苏市,,41.16763,80.26338,,,
1397,652928,中国,新疆维吾尔自治区,阿克苏地区,阿瓦提县,,40.64451,80.37306,,,
1398,654300,中国,新疆维吾尔自治区,阿勒泰地区,,阿勒泰,47.8666,88.1166,-106560,-140350,
1399,654326,中国,新疆维吾尔自治区,阿勒泰地区,吉木乃县,,47.4431,85.8754,,,
1400,654324,中国,新疆维吾尔自治区,阿勒泰地区,哈巴河县,,48.06069,86.4192,,,
1401,654322,中国,新疆维吾尔自治区,阿勒泰地区,富蕴县,,46.99362,89.52553,,,
1402,654321,中国,新疆维吾尔自治区,阿勒泰地区,布尔津县,,47.69989,86.86313,,,
1403,654323,中国,新疆维吾尔自治区,阿勒泰地区,福海县,,47.112,87.48677,,,
1404,654301,中国,新疆维吾尔自治区,阿勒泰地区,阿勒泰市,,47.827,88.13243,,,
1405,654325,中国,新疆维吾尔自治区,阿勒泰地区,青河县,,46.67911,90.37558,,,
1406,659002,中国,新疆维吾尔自治区,阿拉尔市,,阿拉尔,40.54798,81.28067,-175570,-80280,
1407,320000,中国,江苏省,,,,32.066776944293416,118.76955164466914,,,
1408,320100,中国,江苏省,南京市,,南京,32.05,118.78,125173,38269,
1409,320116,中国,江苏省,南京市,六合区,,32.32222,118.82155,,,
1410,320105,中国,江苏省,南京市,建邺区,,32.00335,118.73145,,,
1411,320113,中国,江苏省,南京市,栖霞区,,32.09636,118.90907,,,
1412,320115,中国,江苏省,南京市,江宁区,,31.95266,118.84002,,,
1413,320111,中国,江苏省,南京市,浦口区,,32.059,118.62841,,,
1414,320124,中国,江苏省,南京市,溧水县,,31.651,119.0284,,,
1415,320102,中国,江苏省,南京市,玄武区,,32.04835,118.79809,,,
1416,320104,中国,江苏省,南京市,秦淮区,,32.03899,118.7945,,,
1417,320114,中国,江苏省,南京市,雨花台区,,31.99226,118.7787,,,
1418,320125,中国,江苏省,南京市,高淳县,,31.32751,118.8921,,,
1419,320106,中国,江苏省,南京市,鼓楼区,,32.06639,118.77013,,,
1420,320600,中国,江苏省,南通市,,南通,32.0304,120.825,142373,38209,
1421,320681,中国,江苏省,南通市,启东市,,31.80805,121.65787,,,
1422,320623,中国,江苏省,南通市,如东县,,32.32956,121.18502,,,
1423,320682,中国,江苏省,南通市,如皋市,,32.3716,120.57382,,,
1424,320602,中国,江苏省,南通市,崇川区,,32.00986,120.85737,,,
1425,320621,中国,江苏省,南通市,海安县,,32.53308,120.46759,,,
1426,320684,中国,江苏省,南通市,海门市,,31.87165,121.18179,,,
1427,320611,中国,江苏省,南通市,港闸区,,32.03141,120.81813,,,
1428,320612,中国,江苏省,南通市,通州区,,32.06764,121.07299,,,
1429,321300,中国,江苏省,宿迁市,,宿迁,33.96271,118.24239,121073,19919,
1430,321302,中国,江苏省,宿迁市,宿城区,,33.96271,118.24239,,,
1431,321311,中国,江苏省,宿迁市,宿豫区,,33.94686,118.33066,,,
1432,321322,中国,江苏省,宿迁市,沭阳县,,34.11215,118.80406,,,
1433,321324,中国,江苏省,宿迁市,泗洪县,,33.459,118.21624,,,
1434,321323,中国,江苏省,宿迁市,泗阳县,,33.72101,118.70335,,,
1435,320400,中国,江苏省,常州市,,常州,31.78,119.97,134853,41139,
1436,320402,中国,江苏省,常州市,天宁区,,31.77973,119.97472,,,
1437,320411,中国,江苏省,常州市,新北区,,31.83052,119.97147,,,
1438,320412,中国,江苏省,常州市,武进区,,31.70165,119.94311,,,
1439,320481,中国,江苏省,常州市,溧阳市,,31.41586,119.4846,,,
1440,320482,中国,江苏省,常州市,金坛市,,31.72322,119.59794,,,
1441,320404,中国,江苏省,常州市,钟楼区,,31.80164,119.90143,,,
1442,320300,中国,江苏省,徐州市,,徐州,34.28,117.18,112223,16669,
1443,320321,中国,江苏省,徐州市,丰县,,34.69396,116.59532,,,
1444,320303,中国,江苏省,徐州市,云龙区,,34.249,117.22942,,,
1445,320381,中国,江苏省,徐州市,新沂市,,34.36927,118.35548,,,
1446,320322,中国,江苏省,徐州市,沛县,,34.72166,116.9375,,,
1447,320311,中国,江苏省,徐州市,泉山区,,34.24422,117.19383,,,
1448,320324,中国,江苏省,徐州市,睢宁县,,33.91274,117.94108,,,
1449,320305,中国,江苏省,徐州市,贾汪区,,34.44308,117.45353,,,
1450,320382,中国,江苏省,徐州市,邳州市,,34.3352,118.01246,,,
1451,320312,中国,江苏省,徐州市,铜山区,,34.18044,117.16898,,,
1452,320302,中国,江苏省,徐州市,鼓楼区,,34.28823,117.18554,,,
1453,321000,中国,江苏省,扬州市,,扬州,32.4,119.43,130523,35169,
1454,321081,中国,江苏省,扬州市,仪征市,,32.27203,119.18444,,,
1455,321023,中国,江苏省,扬州市,宝应县,,33.24142,119.35841,,,
1456,321002,中国,江苏省,扬州市,广陵区,,32.39463,119.43157,,,
1457,321088,中国,江苏省,扬州市,江都市,,32.43458,119.57006,,,
1458,321003,中国,江苏省,扬州市,邗江区,,32.37654,119.39823,,,
1459,321084,中国,江苏省,扬州市,高邮市,,32.78112,119.45558,,,
1460,320200,中国,江苏省,无锡市,,无锡,31.58,120.3,137793,43199,
1461,320204,中国,江苏省,无锡市,北塘区,,31.56597,120.30297,,,
1462,320282,中国,江苏省,无锡市,宜兴市,,31.34042,119.82346,,,
1463,320206,中国,江苏省,无锡市,惠山区,,31.68096,120.29834,,,
1464,320281,中国,江苏省,无锡市,江阴市,,31.91919,120.28432,,,
1465,320211,中国,江苏省,无锡市,滨湖区,,31.52853,120.28429,,,
1466,320205,中国,江苏省,无锡市,锡山区,,31.58849,120.35761,,,
1467,321200,中国,江苏省,泰州市,,泰州,32.31841,119.88116,134473,34119,
1468,321281,中国,江苏省,泰州市,兴化市,,32.91041,119.85272,,,
1469,321284,中国,江苏省,泰州市,姜堰市,,32.50879,120.12673,,,
1470,321283,中国,江苏省,泰州市,泰兴市,,32.17191,120.052,,,
1471,321202,中国,江苏省,泰州市,海陵区,,32.49098,119.91956,,,
1472,321282,中国,江苏省,泰州市,靖江市,,32.01494,120.27454,,,
1473,321203,中国,江苏省,泰州市,高港区,,32.31841,119.88116,,,
1474,320800,中国,江苏省,淮安市,,淮安,33.29433,118.8735,127173,23419,
1475,320829,中国,江苏省,淮安市,洪泽县,,33.29433,118.8735,,,
1476,320826,中国,江苏省,淮安市,涟水县,,33.78098,119.26089,,,
1477,320803,中国,江苏省,淮安市,淮安区,,33.50306,119.14108,,,
1478,320804,中国,江苏省,淮安市,淮阴区,,33.63175,119.0349,,,
1479,320811,中国,江苏省,淮安市,清浦区,,33.55308,119.02662,,,
1480,320830,中国,江苏省,淮安市,盱眙县,,33.01089,118.54499,,,
1481,320831,中国,江苏省,淮安市,金湖县,,33.02359,119.02043,,,
1482,320900,中国,江苏省,盐城市,,盐城,33.3856,120.1253,136323,25469,
1483,320981,中国,江苏省,盐城市,东台市,,32.86695,120.3205,,,
1484,320902,中国,江苏省,盐城市,亭湖区,,33.38893,120.1953,,,
1485,320921,中国,江苏省,盐城市,响水县,,34.19919,119.57839,,,
1486,320982,中国,江苏省,盐城市,大丰市,,33.20107,120.50102,,,
1487,320924,中国,江苏省,盐城市,射阳县,,33.77496,120.25815,,,
1488,320925,中国,江苏省,盐城市,建湖县,,33.46406,119.79858,,,
1489,320922,中国,江苏省,盐城市,滨海县,,33.98975,119.82064,,,
1490,320903,中国,江苏省,盐城市,盐都区,,33.33732,120.15448,,,
1491,320923,中国,江苏省,盐城市,阜宁县,,33.75931,119.80258,,,
1492,320500,中国,江苏省,苏州市,,苏州,31.30227,120.63132,140473,45719,
1493,320506,中国,江苏省,苏州市,吴中区,,31.26249,120.63212,,,
1494,320584,中国,江苏省,苏州市,吴江市,,31.13762,120.64504,,,
1495,320585,中国,江苏省,苏州市,太仓市,,31.45911,121.12975,,,
1496,320508,中国,江苏省,苏州市,姑苏区,,31.30227,120.63132,,,
1497,320581,中国,江苏省,苏州市,常熟市,,31.65381,120.75224,,,
1498,320582,中国,江苏省,苏州市,张家港市,,31.87547,120.5555,,,
1499,320583,中国,江苏省,苏州市,昆山市,,31.38475,120.98181,,,
1500,320507,中国,江苏省,苏州市,相城区,,31.36897,120.64247,,,
1501,320505,中国,江苏省,苏州市,虎丘区,,31.29579,120.57186,,,
1502,320700,中国,江苏省,连云港市,,连云港,34.6004,119.17,128523,13619,
1503,320722,中国,江苏省,连云港市,东海县,,34.54216,118.77147,,,
1504,320706,中国,江苏省,连云港市,海州区,,34.57203,119.16348,,,
1505,320723,中国,江苏省,连云港市,灌云县,,34.28407,119.24096,,,
1506,320724,中国,江苏省,连云港市,灌南县,,34.08673,119.31563,,,
1507,320721,中国,江苏省,连云港市,赣榆县,,34.84065,119.1773,,,
1508,320703,中国,江苏省,连云港市,连云区,,34.75974,119.33894,,,
1509,321100,中国,江苏省,镇江市,,镇江,32.22,119.43,130573,37069,
1510,321112,中国,江苏省,镇江市,丹徒区,,32.13188,119.43396,,,
1511,321181,中国,江苏省,镇江市,丹阳市,,32.00945,119.60694,,,
1512,321102,中国,江苏省,镇江市,京口区,,32.19811,119.46962,,,
1513,321183,中国,江苏省,镇江市,句容市,,31.94482,119.16864,,,
1514,321182,中国,江苏省,镇江市,扬中市,,32.23702,119.79682,,,
1515,321111,中国,江苏省,镇江市,润州区,,32.19525,119.41217,,,
1516,360000,中国,江西省,,,,28.68169051676075,115.91542320365122,,,
1517,361100,中国,江西省,上饶市,,上饶,28.4704,117.97,119223,78709,
1518,361129,中国,江西省,上饶市,万年县,,28.69466,117.05839,,,
1519,361121,中国,江西省,上饶市,上饶县,,28.44923,117.9096,,,
1520,361127,中国,江西省,上饶市,余干县,,28.70211,116.6956,,,
1521,361102,中国,江西省,上饶市,信州区,,28.42995,117.96469,,,
1522,361130,中国,江西省,上饶市,婺源县,,29.24791,117.86192,,,
1523,361122,中国,江西省,上饶市,广丰县,,28.43631,118.19133,,,
1524,361126,中国,江西省,上饶市,弋阳县,,28.37754,117.44821,,,
1525,361181,中国,江西省,上饶市,德兴市,,28.94654,117.57884,,,
1526,361125,中国,江西省,上饶市,横峰县,,28.4072,117.59644,,,
1527,361123,中国,江西省,上饶市,玉山县,,28.68194,118.24481,,,
1528,361128,中国,江西省,上饶市,鄱阳县,,29.00563,116.70343,,,
1529,361124,中国,江西省,上饶市,铅山县,,28.31535,117.70942,,,
1530,360400,中国,江西省,九江市,,九江,29.73,115.98,100673,67809,
1531,360421,中国,江西省,九江市,九江县,,29.60855,115.91135,,,
1532,360424,中国,江西省,九江市,修水县,,29.02533,114.54688,,,
1533,360482,中国,江西省,九江市,共青城市,,29.24955,115.81477,,,
1534,360402,中国,江西省,九江市,庐山区,,29.44821,116.04512,,,
1535,360430,中国,江西省,九江市,彭泽县,,29.89613,116.54911,,,
1536,360426,中国,江西省,九江市,德安县,,29.31344,115.75605,,,
1537,360427,中国,江西省,九江市,星子县,,29.44821,116.04512,,,
1538,360423,中国,江西省,九江市,武宁县,,29.25622,115.10065,,,
1539,360425,中国,江西省,九江市,永修县,,29.02097,115.80916,,,
1540,360403,中国,江西省,九江市,浔阳区,,29.72776,115.98999,,,
1541,360429,中国,江西省,九江市,湖口县,,29.73942,116.22025,,,
1542,360481,中国,江西省,九江市,瑞昌市,,29.67658,115.68103,,,
1543,360428,中国,江西省,九江市,都昌县,,29.27307,116.20409,,,
1544,360100,中国,江西省,南昌市,,南昌,28.68,115.88,100823,78559,
1545,360102,中国,江西省,南昌市,东湖区,,28.68503,115.89925,,,
1546,360121,中国,江西省,南昌市,南昌县,,28.54538,115.94422,,,
1547,360123,中国,江西省,南昌市,安义县,,28.84444,115.54927,,,
1548,360122,中国,江西省,南昌市,新建县,,28.6925,115.81529,,,
1549,360105,中国,江西省,南昌市,湾里区,,28.71479,115.73083,,,
1550,360103,中国,江西省,南昌市,西湖区,,28.65619,115.87683,,,
1551,360124,中国,江西省,南昌市,进贤县,,28.37737,116.24145,,,
1552,360104,中国,江西省,南昌市,青云谱区,,28.62084,115.9258,,,
1553,360111,中国,江西省,南昌市,青山湖区,,28.68194,115.96191,,,
1554,360800,中国,江西省,吉安市,,吉安,27.1448,114.99457,93873,95759,
1555,360828,中国,江西省,吉安市,万安县,,26.45825,114.78615,,,
1556,360881,中国,江西省,吉安市,井冈山市,,26.74808,114.28953,,,
1557,360821,中国,江西省,吉安市,吉安县,,27.03935,114.90821,,,
1558,360802,中国,江西省,吉安市,吉州区,,27.1448,114.99457,,,
1559,360822,中国,江西省,吉安市,吉水县,,27.22976,115.1355,,,
1560,360829,中国,江西省,吉安市,安福县,,27.3928,114.6196,,,
1561,360823,中国,江西省,吉安市,峡江县,,27.58289,115.31643,,,
1562,360824,中国,江西省,吉安市,新干县,,27.74016,115.38692,,,
1563,360825,中国,江西省,吉安市,永丰县,,27.31815,115.44189,,,
1564,360830,中国,江西省,吉安市,永新县,,26.94498,114.24307,,,
1565,360826,中国,江西省,吉安市,泰和县,,26.78993,114.90887,,,
1566,360827,中国,江西省,吉安市,遂川县,,26.31363,114.52052,,,
1567,360803,中国,江西省,吉安市,青原区,,27.08195,115.01465,,,
1568,360900,中国,江西省,宜春市,,宜春,27.79817,114.42773,88023,88759,
1569,360922,中国,江西省,宜春市,万载县,,28.1061,114.44551,,,
1570,360923,中国,江西省,宜春市,上高县,,28.23337,114.9248,,,
1571,360981,中国,江西省,宜春市,丰城市,,28.1592,115.77121,,,
1572,360921,中国,江西省,宜春市,奉新县,,28.68793,115.40037,,,
1573,360924,中国,江西省,宜春市,宜丰县,,28.3938,114.80369,,,
1574,360982,中国,江西省,宜春市,樟树市,,28.05589,115.54615,,,
1575,360902,中国,江西省,宜春市,袁州区,,27.79817,114.42773,,,
1576,360926,中国,江西省,宜春市,铜鼓县,,28.52182,114.37071,,,
1577,360925,中国,江西省,宜春市,靖安县,,28.86138,115.36268,,,
1578,360983,中国,江西省,宜春市,高安市,,28.41729,115.37562,,,
1579,361000,中国,江西省,抚州市,,抚州,28.24771,116.60334,105473,85509,
1580,361029,中国,江西省,抚州市,东乡县,,28.24771,116.60334,,,
1581,361002,中国,江西省,抚州市,临川区,,27.93473,116.30986,,,
1582,361025,中国,江西省,抚州市,乐安县,,27.42814,115.83109,,,
1583,361023,中国,江西省,抚州市,南丰县,,27.21863,116.52526,,,
1584,361021,中国,江西省,抚州市,南城县,,27.5684,116.63775,,,
1585,361026,中国,江西省,抚州市,宜黄县,,27.55489,116.23628,,,
1586,361024,中国,江西省,抚州市,崇仁县,,27.76437,116.06124,,,
1587,361030,中国,江西省,抚州市,广昌县,,26.83729,116.32573,,,
1588,361028,中国,江西省,抚州市,资溪县,,27.70594,117.06101,,,
1589,361027,中国,江西省,抚州市,金溪县,,27.91912,116.75485,,,
1590,361022,中国,江西省,抚州市,黎川县,,27.28236,116.90753,,,
1591,360500,中国,江西省,新余市,,新余,27.8,114.93,92423,88159,
1592,360521,中国,江西省,新余市,分宜县,,27.81476,114.69191,,,
1593,360502,中国,江西省,新余市,渝水区,,27.80038,114.94461,,,
1594,360200,中国,江西省,景德镇市,,景德镇,29.2704,117.18,111773,71309,
1595,360281,中国,江西省,景德镇市,乐平市,,28.96173,117.129,,,
1596,360202,中国,江西省,景德镇市,昌江区,,29.27324,117.18366,,,
1597,360222,中国,江西省,景德镇市,浮梁县,,29.35159,117.21523,,,
1598,360203,中国,江西省,景德镇市,珠山区,,29.30005,117.20275,,,
1600,360300,中国,江西省,萍乡市,,萍乡,27.62,113.85,83123,91309,
1601,360322,中国,江西省,萍乡市,上栗县,,27.88042,113.79537,,,
1602,360302,中国,江西省,萍乡市,安源区,,27.61552,113.87163,,,
1603,360313,中国,江西省,萍乡市,湘东区,,27.64069,113.73421,,,
1604,360323,中国,江西省,萍乡市,芦溪县,,27.63064,114.02956,,,
1605,360321,中国,江西省,萍乡市,莲花县,,27.12761,113.96123,,,
1606,360700,中国,江西省,赣州市,,赣州,25.92,114.95,94723,109309,
1607,360724,中国,江西省,赣州市,上犹县,,25.79086,114.53754,,,
1608,360731,中国,江西省,赣州市,于都县,,25.95184,115.41544,,,
1609,360733,中国,江西省,赣州市,会昌县,,25.60039,115.786,,,
1610,360722,中国,江西省,赣州市,信丰县,,25.38617,114.92285,,,
1611,360729,中国,江西省,赣州市,全南县,,24.74235,114.53012,,,
1612,360732,中国,江西省,赣州市,兴国县,,26.33779,115.36314,,,
1613,360703,中国,江西省,赣州市,南康区,,25.66144,114.76535,,,
1614,360723,中国,江西省,赣州市,大余县,,25.40148,114.36195,,,
1615,360730,中国,江西省,赣州市,宁都县,,26.47019,116.00941,,,
1616,360726,中国,江西省,赣州市,安远县,,25.13702,115.39379,,,
1617,360728,中国,江西省,赣州市,定南县,,24.7855,115.02739,,,
1618,360734,中国,江西省,赣州市,寻乌县,,24.96351,115.64673,,,
1619,360725,中国,江西省,赣州市,崇义县,,25.68165,114.30784,,,
1620,360781,中国,江西省,赣州市,瑞金市,,25.88562,116.02709,,,
1621,360735,中国,江西省,赣州市,石城县,,26.32691,116.35432,,,
1622,360702,中国,江西省,赣州市,章贡区,,25.81751,114.92085,,,
1623,360721,中国,江西省,赣州市,赣县,,25.86076,115.01161,,,
1624,360727,中国,江西省,赣州市,龙南县,,24.91105,114.78993,,,
1625,360600,中国,江西省,鹰潭市,,鹰潭,28.23902,117.03708,111623,81509,
1626,360622,中国,江西省,鹰潭市,余江县,,28.20991,116.81834,,,
1627,360602,中国,江西省,鹰潭市,月湖区,,28.23902,117.03708,,,
1628,360681,中国,江西省,鹰潭市,贵溪市,,28.29252,117.24525,,,
1629,130000,中国,河北省,,,,38.04320164520046,114.53659630531568,,,
1630,130600,中国,河北省,保定市,,保定,38.8704,115.48,92030,-30410,
1631,130637,中国,河北省,保定市,博野县,,38.45766,115.46439,,,
1632,130627,中国,河北省,保定市,唐县,,38.7479,114.98295,,,
1633,130683,中国,河北省,保定市,安国市,,38.41845,115.32664,,,
1634,130632,中国,河北省,保定市,安新县,,38.93535,115.93564,,,
1635,130626,中国,河北省,保定市,定兴县,,39.26315,115.8079,,,
1636,130682,中国,河北省,保定市,定州市,,38.51626,114.99025,,,
1637,130629,中国,河北省,保定市,容城县,,39.04285,115.86164,,,
1638,130625,中国,河北省,保定市,徐水县,,39.01865,115.65586,,,
1639,130602,中国,河北省,保定市,新市区,,38.87757,115.45875,,,
1640,130633,中国,河北省,保定市,易县,,39.34926,115.49846,,,
1641,130634,中国,河北省,保定市,曲阳县,,38.62231,114.74501,,,
1642,130631,中国,河北省,保定市,望都县,,38.709,115.15564,,,
1643,130623,中国,河北省,保定市,涞水县,,39.39428,115.71378,,,
1644,130630,中国,河北省,保定市,涞源县,,39.36018,114.69424,,,
1645,130681,中国,河北省,保定市,涿州市,,39.48529,115.97439,,,
1646,130622,中国,河北省,保定市,清苑县,,38.76526,115.48989,,,
1647,130621,中国,河北省,保定市,满城县,,38.94892,115.32217,,,
1648,130606,中国,河北省,保定市,莲池区,,38.88353,115.49715,,,
1649,130635,中国,河北省,保定市,蠡县,,38.48806,115.5836,,,
1650,130624,中国,河北省,保定市,阜平县,,38.84915,114.19531,,,
1651,130638,中国,河北省,保定市,雄县,,38.99446,116.10879,,,
1652,130636,中国,河北省,保定市,顺平县,,38.83759,115.13543,,,
1653,130684,中国,河北省,保定市,高碑店市,,39.32658,115.87373,,,
1654,130628,中国,河北省,保定市,高阳县,,38.70007,115.77884,112970,-39890,
1655,130200,中国,河北省,唐山市,,唐山,39.6243,118.1944,,,
1656,130207,中国,河北省,唐山市,丰南区,,39.57487,118.08505,,,
1657,130208,中国,河北省,唐山市,丰润区,,39.83269,118.16206,,,
1658,130225,中国,河北省,唐山市,乐亭县,,39.42564,118.91252,,,
1659,130204,中国,河北省,唐山市,古冶区,,39.71612,118.45885,,,
1660,130205,中国,河北省,唐山市,开平区,,39.67132,118.26174,,,
1661,130209,中国,河北省,唐山市,曹妃甸区,,39.27313,118.46023,,,
1662,130224,中国,河北省,唐山市,滦南县,,39.50394,118.67414,,,
1663,130223,中国,河北省,唐山市,滦县,,39.74058,118.70351,,,
1664,130229,中国,河北省,唐山市,玉田县,,39.9005,117.73881,,,
1665,130203,中国,河北省,唐山市,路北区,,39.62429,118.20127,,,
1666,130202,中国,河北省,唐山市,路南区,,39.62527,118.15474,,,
1667,130283,中国,河北省,唐山市,迁安市,,39.99836,118.70073,,,
1668,130227,中国,河北省,唐山市,迁西县,,40.14153,118.3146,,,
1669,130281,中国,河北省,唐山市,遵化市,,40.18924,117.96567,,,
1670,131000,中国,河北省,廊坊市,,廊坊,39.5204,116.68,101090,-38020,
1671,131082,中国,河北省,廊坊市,三河市,,39.98246,117.07822,,,
1672,131022,中国,河北省,廊坊市,固安县,,39.43825,116.29852,,,
1673,131028,中国,河北省,廊坊市,大厂回族自治县,,39.88665,116.98951,,,
1674,131025,中国,河北省,廊坊市,大城县,,38.70469,116.65423,,,
1675,131002,中国,河北省,廊坊市,安次区,,39.50311,116.68572,,,
1676,131003,中国,河北省,廊坊市,广阳区,,39.5228,116.71051,,,
1677,131026,中国,河北省,廊坊市,文安县,,38.87328,116.45848,,,
1678,131023,中国,河北省,廊坊市,永清县,,39.32178,116.49904,,,
1679,131081,中国,河北省,廊坊市,霸州市,,39.12581,116.3917,,,
1680,131024,中国,河北省,廊坊市,香河县,,39.76142,117.00645,,,
1681,130700,中国,河北省,张家口市,,张家口,40.83,114.93,86030,-50600,
1682,130729,中国,河北省,张家口市,万全县,,40.76699,114.74055,,,
1683,130706,中国,河北省,张家口市,下花园区,,40.5024,115.28751,,,
1684,130705,中国,河北省,张家口市,宣化区,,40.60845,115.09923,,,
1685,130725,中国,河北省,张家口市,尚义县,,41.07599,113.96919,,,
1686,130733,中国,河北省,张家口市,崇礼县,,40.97457,115.28261,,,
1687,130723,中国,河北省,张家口市,康保县,,41.85228,114.60035,,,
1688,130722,中国,河北省,张家口市,张北县,,41.15862,114.71987,,,
1689,130728,中国,河北省,张家口市,怀安县,,40.6743,114.38564,,,
1690,130730,中国,河北省,张家口市,怀来县,,40.41538,115.51778,,,
1691,130702,中国,河北省,张家口市,桥东区,,40.78847,114.89436,,,
1692,130703,中国,河北省,张家口市,桥西区,,40.81956,114.86937,,,
1693,130724,中国,河北省,张家口市,沽源县,,41.66964,115.68865,,,
1694,130731,中国,河北省,张家口市,涿鹿县,,40.38003,115.21962,,,
1695,130726,中国,河北省,张家口市,蔚县,,39.84072,114.58897,,,
1696,130732,中国,河北省,张家口市,赤城县,,40.91295,115.83166,,,
1697,130727,中国,河北省,张家口市,阳原县,,40.10366,114.15057,,,
1698,130800,中国,河北省,承德市,,承德,40.9604,117.93,110360,-54150,
1699,130826,中国,河北省,承德市,丰宁满族自治县,,41.20894,116.64591,,,
1700,130822,中国,河北省,承德市,兴隆县,,40.41727,117.50076,,,
1701,130802,中国,河北省,承德市,双桥区,,40.97469,117.94348,,,
1702,130803,中国,河北省,承德市,双滦区,,40.95913,117.80024,,,
1703,130828,中国,河北省,承德市,围场满族蒙古族自治县,,41.93846,117.76016,,,
1704,130827,中国,河北省,承德市,宽城满族自治县,,40.61139,118.48535,,,
1705,130823,中国,河北省,承德市,平泉县,,41.0184,118.70202,,,
1706,130821,中国,河北省,承德市,承德县,,40.76853,118.17382,,,
1707,130824,中国,河北省,承德市,滦平县,,40.94145,117.33286,,,
1708,130825,中国,河北省,承德市,隆化县,,41.31381,117.73897,,,
1709,130804,中国,河北省,承德市,鹰手营子矿区,,40.5464,117.65955,,,
1710,130900,中国,河北省,沧州市,,沧州,38.3204,116.87,103310,-24890,
1711,130923,中国,河北省,沧州市,东光县,,37.88828,116.5371,,,
1712,130982,中国,河北省,沧州市,任丘市,,38.71164,116.09954,,,
1713,130927,中国,河北省,沧州市,南皮县,,38.0378,116.70774,,,
1714,130928,中国,河北省,沧州市,吴桥县,,37.6277,116.39154,,,
1715,130930,中国,河北省,沧州市,孟村回族自治县,,38.05341,117.10418,,,
1716,130902,中国,河北省,沧州市,新华区,,38.31404,116.86638,,,
1717,130921,中国,河北省,沧州市,沧县,,38.32474,116.60718,,,
1718,130984,中国,河北省,沧州市,河间市,,38.44548,116.099,,,
1719,130981,中国,河北省,沧州市,泊头市,,38.08364,116.57828,,,
1720,130924,中国,河北省,沧州市,海兴县,,38.14325,117.49785,,,
1721,130929,中国,河北省,沧州市,献县,,38.19018,116.12279,,,
1722,130925,中国,河北省,沧州市,盐山县,,38.0583,117.23025,,,
1723,130926,中国,河北省,沧州市,肃宁县,,38.42277,115.82997,,,
1724,130903,中国,河北省,沧州市,运河区,,38.31077,116.83191,,,
1725,130922,中国,河北省,沧州市,青县,,38.58348,116.80318,,,
1726,130983,中国,河北省,沧州市,黄骅市,,38.37139,117.33012,,,
1727,130100,中国,河北省,石家庄市,,石家庄,38.05,114.48,84990,-21040,
1728,130121,中国,河北省,石家庄市,井陉县,,38.03225,114.14532,,,
1729,130107,中国,河北省,石家庄市,井陉矿区,,38.06499,114.0623,,,
1730,130132,中国,河北省,石家庄市,元氏县,,37.76646,114.52547,,,
1731,130131,中国,河北省,石家庄市,平山县,,38.25998,114.18605,,,
1732,130184,中国,河北省,石家庄市,新乐市,,38.34338,114.68384,,,
1733,130105,中国,河北省,石家庄市,新华区,,38.0509,114.46312,,,
1734,130130,中国,河北省,石家庄市,无极县,,38.17915,114.97638,,,
1735,130183,中国,河北省,石家庄市,晋州市,,38.03356,115.0441,,,
1736,130124,中国,河北省,石家庄市,栾城县,,37.90025,114.64839,,,
1737,130104,中国,河北省,石家庄市,桥西区,,38.00407,114.46104,,,
1738,130123,中国,河北省,石家庄市,正定县,,38.14618,114.57096,,,
1739,130128,中国,河北省,石家庄市,深泽县,,38.18417,115.20094,,,
1740,130126,中国,河北省,石家庄市,灵寿县,,38.30864,114.38265,,,
1741,130182,中国,河北省,石家庄市,藁城市,,38.02166,114.84676,,,
1742,130125,中国,河北省,石家庄市,行唐县,,38.43848,114.55294,,,
1743,130108,中国,河北省,石家庄市,裕华区,,38.0061,114.53122,,,
1744,130129,中国,河北省,石家庄市,赞皇县,,37.66579,114.38592,,,
1745,130133,中国,河北省,石家庄市,赵县,,37.75631,114.77616,,,
1746,130181,中国,河北省,石家庄市,辛集市,,37.94316,115.21792,,,
1747,130102,中国,河北省,石家庄市,长安区,,38.03647,114.53952,,,
1748,130127,中国,河北省,石家庄市,高邑县,,37.61493,114.61148,,,
1749,130185,中国,河北省,石家庄市,鹿泉市,,38.08587,114.31344,,,
1750,130300,中国,河北省,秦皇岛市,,秦皇岛,39.9304,119.62,123530,-44050,
1751,130304,中国,河北省,秦皇岛市,北戴河区,,39.83507,119.48458,,,
1752,130324,中国,河北省,秦皇岛市,卢龙县,,39.8918,118.89294,,,
1753,130303,中国,河北省,秦皇岛市,山海关区,,39.97892,119.77606,,,
1754,130323,中国,河北省,秦皇岛市,抚宁县,,39.87634,119.24444,,,
1755,130322,中国,河北省,秦皇岛市,昌黎县,,39.71284,119.16288,,,
1756,130302,中国,河北省,秦皇岛市,海港区,,39.9345,119.61063,,,
1757,130321,中国,河北省,秦皇岛市,青龙满族自治县,,40.40692,118.95012,,,
1758,131100,中国,河北省,衡水市,,衡水,37.72,115.7,94430,-18530,
1759,131181,中国,河北省,衡水市,冀州市,,37.55085,115.57938,,,
1760,131125,中国,河北省,衡水市,安平县,,38.23447,115.51912,,,
1761,131126,中国,河北省,衡水市,故城县,,37.34748,115.96581,,,
1762,131127,中国,河北省,衡水市,景县,,37.69234,116.2706,,,
1763,131121,中国,河北省,衡水市,枣强县,,37.51337,115.72418,,,
1764,131102,中国,河北省,衡水市,桃城区,,37.73516,115.67466,,,
1765,131123,中国,河北省,衡水市,武强县,,38.0412,115.98253,,,
1766,131122,中国,河北省,衡水市,武邑县,,37.80186,115.88751,,,
1767,131182,中国,河北省,衡水市,深州市,,38.00022,115.56001,,,
1768,131128,中国,河北省,衡水市,阜城县,,37.86885,116.14437,,,
1769,131124,中国,河北省,衡水市,饶阳县,,38.2353,115.7256,,,
1770,130500,中国,河北省,邢台市,,邢台,37.06787,114.50713,85570,-10870,
1771,130522,中国,河北省,邢台市,临城县,,37.4443,114.49898,,,
1772,130535,中国,河北省,邢台市,临西县,,36.87082,115.50104,,,
1773,130526,中国,河北省,邢台市,任县,,37.12092,114.67132,,,
1774,130523,中国,河北省,邢台市,内丘县,,37.28678,114.51207,,,
1775,130527,中国,河北省,邢台市,南和县,,37.0049,114.68376,,,
1776,130581,中国,河北省,邢台市,南宫市,,37.35795,115.40866,,,
1777,130533,中国,河北省,邢台市,威县,,36.97542,115.26669,,,
1778,130528,中国,河北省,邢台市,宁晋县,,37.6198,114.91932,,,
1779,130529,中国,河北省,邢台市,巨鹿县,,37.22107,115.03781,,,
1780,130532,中国,河北省,邢台市,平乡县,,37.06319,115.03007,,,
1781,130531,中国,河北省,邢台市,广宗县,,37.07463,115.14261,,,
1782,130530,中国,河北省,邢台市,新河县,,37.52867,115.24214,,,
1783,130524,中国,河北省,邢台市,柏乡县,,37.48244,114.69363,,,
1784,130502,中国,河北省,邢台市,桥东区,,37.06787,114.50713,,,
1785,130503,中国,河北省,邢台市,桥西区,,37.05983,114.46816,,,
1786,130582,中国,河北省,邢台市,沙河市,,36.85516,114.50332,,,
1787,130534,中国,河北省,邢台市,清河县,,37.03993,115.66718,,,
1788,130521,中国,河北省,邢台市,邢台县,,37.08627,114.54489,,,
1789,130525,中国,河北省,邢台市,隆尧县,,37.35025,114.77031,,,
1790,130400,中国,河北省,邯郸市,,邯郸,36.61853,114.49339,86180,-6370,
1791,130403,中国,河北省,邯郸市,丛台区,,36.61853,114.49339,,,
1792,130423,中国,河北省,邯郸市,临漳县,,36.3348,114.61968,,,
1793,130404,中国,河北省,邯郸市,复兴区,,36.61693,114.47309,,,
1794,130425,中国,河北省,邯郸市,大名县,,36.28558,115.14788,,,
1795,130406,中国,河北省,邯郸市,峰峰矿区,,36.41968,114.21302,,,
1796,130432,中国,河北省,邯郸市,广平县,,36.48345,114.9485,,,
1797,130424,中国,河北省,邯郸市,成安县,,36.44414,114.66999,,,
1798,130435,中国,河北省,邯郸市,曲周县,,36.77918,114.94485,,,
1799,130481,中国,河北省,邯郸市,武安市,,36.69671,114.20376,,,
1800,130429,中国,河北省,邯郸市,永年县,,36.77771,114.49095,,,
1801,130426,中国,河北省,邯郸市,涉县,,36.58544,113.69065,,,
1802,130427,中国,河北省,邯郸市,磁县,,36.37396,114.37392,,,
1803,130428,中国,河北省,邯郸市,肥乡县,,36.54811,114.80002,,,
1804,130402,中国,河北省,邯郸市,邯山区,,36.6,114.48376,,,
1805,130430,中国,河北省,邯郸市,邱县,,36.81987,115.17641,,,
1806,130433,中国,河北省,邯郸市,馆陶县,,36.53529,115.30629,,,
1807,130434,中国,河北省,邯郸市,魏县,,36.35991,114.93882,,,
1808,130431,中国,河北省,邯郸市,鸡泽县,,36.92031,114.8782,,,
1809,410000,中国,河南省,,,,34.771712921931496,113.75938408486323,,,
1810,411200,中国,河南省,三门峡市,,三门峡,34.77141,111.18747,82540,32580,
1811,411281,中国,河南省,三门峡市,义马市,,34.74725,111.87449,,,
1812,411224,中国,河南省,三门峡市,卢氏县,,34.05438,111.04783,,,
1813,411221,中国,河南省,三门峡市,渑池县,,34.76726,111.7619,,,
1814,411202,中国,河南省,三门峡市,湖滨区,,34.77141,111.18747,,,
1815,411282,中国,河南省,三门峡市,灵宝市,,34.51685,110.89456,,,
1816,411222,中国,河南省,三门峡市,陕县,,34.72054,111.10338,,,
1817,411500,中国,河南省,信阳市,,信阳,32.1304,114.07,83690,42120,
1818,411522,中国,河南省,信阳市,光山县,,32.00997,114.91878,,,
1819,411524,中国,河南省,信阳市,商城县,,31.79836,115.4069,,,
1820,411525,中国,河南省,信阳市,固始县,,32.16839,115.65481,,,
1821,411503,中国,河南省,信阳市,平桥区,,32.10105,114.12561,,,
1822,411528,中国,河南省,信阳市,息县,,32.34282,114.74024,,,
1823,411523,中国,河南省,信阳市,新县,,31.64389,114.87929,,,
1824,411502,中国,河南省,信阳市,浉河区,,32.11683,114.05857,,,
1825,411527,中国,河南省,信阳市,淮滨县,,32.47339,115.41987,,,
1826,411526,中国,河南省,信阳市,潢川县,,32.13156,115.05129,,,
1827,411521,中国,河南省,信阳市,罗山县,,32.20314,114.51307,,,
1828,411300,中国,河南省,南阳市,,南阳,33.0004,112.53,69730,33670,
1829,411325,中国,河南省,南阳市,内乡县,,33.04483,111.84926,,,
1830,411321,中国,河南省,南阳市,南召县,,33.48979,112.42914,,,
1831,411303,中国,河南省,南阳市,卧龙区,,32.98646,112.53494,,,
1832,411328,中国,河南省,南阳市,唐河县,,32.68117,112.80745,,,
1833,411302,中国,河南省,南阳市,宛城区,,33.0036,112.5396,,,
1834,411329,中国,河南省,南阳市,新野县,,32.52093,112.36006,,,
1835,411322,中国,河南省,南阳市,方城县,,33.25439,113.01255,,,
1836,411330,中国,河南省,南阳市,桐柏县,,32.37913,113.42892,,,
1837,411326,中国,河南省,南阳市,淅川县,,33.13815,111.49078,,,
1838,411327,中国,河南省,南阳市,社旗县,,33.05614,112.94793,,,
1839,411323,中国,河南省,南阳市,西峡县,,33.3056,111.47244,,,
1840,411381,中国,河南省,南阳市,邓州市,,32.68777,112.08736,,,
1841,411324,中国,河南省,南阳市,镇平县,,33.03391,112.23448,,,
1842,411600,中国,河南省,周口市,,周口,33.6304,114.63,87970,25670,
1843,411623,中国,河南省,周口市,商水县,,33.54256,114.61165,,,
1844,411627,中国,河南省,周口市,太康县,,34.06379,114.83779,,,
1845,411602,中国,河南省,周口市,川汇区,,33.64738,114.65048,,,
1846,411621,中国,河南省,周口市,扶沟县,,34.06,114.39482,,,
1847,411624,中国,河南省,周口市,沈丘县,,33.4094,115.09856,,,
1848,411626,中国,河南省,周口市,淮阳县,,33.7315,114.88614,,,
1849,411622,中国,河南省,周口市,西华县,,33.76754,114.52974,,,
1850,411625,中国,河南省,周口市,郸城县,,33.64475,115.17704,,,
1851,411681,中国,河南省,周口市,项城市,,33.46723,114.87562,,,
1852,411628,中国,河南省,周口市,鹿邑县,,33.86009,115.48443,,,
1853,411400,中国,河南省,商丘市,,商丘,34.4504,115.65,95570,16760,
1854,411426,中国,河南省,商丘市,夏邑县,,34.23929,116.12969,,,
1855,411423,中国,河南省,商丘市,宁陵县,,34.45454,115.30516,,,
1856,411424,中国,河南省,商丘市,柘城县,,34.09114,115.30544,,,
1857,411402,中国,河南省,商丘市,梁园区,,34.44379,115.61396,,,
1858,411421,中国,河南省,商丘市,民权县,,34.64691,115.14766,,,
1859,411481,中国,河南省,商丘市,永城市,,33.92915,116.44946,,,
1860,411422,中国,河南省,商丘市,睢县,,34.44526,115.07153,,,
1861,411403,中国,河南省,商丘市,睢阳区,,34.38818,115.65347,,,
1862,411425,中国,河南省,商丘市,虞城县,,34.39737,115.86519,,,
1863,410500,中国,河南省,安阳市,,安阳,36.08,114.35,83990,-930,
1864,410527,中国,河南省,安阳市,内黄县,,35.94714,114.89936,,,
1865,410503,中国,河南省,安阳市,北关区,,36.10849,114.35511,,,
1866,410522,中国,河南省,安阳市,安阳县,,36.21256,114.23182,,,
1867,410502,中国,河南省,安阳市,文峰区,,36.09052,114.35688,,,
1868,410581,中国,河南省,安阳市,林州市,,36.08308,113.81908,,,
1869,410505,中国,河南省,安阳市,殷都区,,36.10994,114.30345,,,
1870,410523,中国,河南省,安阳市,汤阴县,,35.92138,114.35723,,,
1871,410526,中国,河南省,安阳市,滑县,,35.57534,114.5193,,,
1872,410506,中国,河南省,安阳市,龙安区,,36.07609,114.30089,,,
1873,410400,中国,河南省,平顶山市,,平顶山,33.7304,113.3,75090,24740,
1874,410403,中国,河南省,平顶山市,卫东区,,33.73469,113.33503,,,
1875,410422,中国,河南省,平顶山市,叶县,,33.62683,113.35737,,,
1876,410421,中国,河南省,平顶山市,宝丰县,,33.8684,113.05479,,,
1877,410402,中国,河南省,平顶山市,新华区,,33.73741,113.29431,,,
1878,410482,中国,河南省,平顶山市,汝州市,,34.16717,112.84437,,,
1879,410411,中国,河南省,平顶山市,湛河区,,33.7009,113.27602,,,
1880,410404,中国,河南省,平顶山市,石龙区,,33.89889,112.89888,,,
1881,410481,中国,河南省,平顶山市,舞钢市,,33.29315,113.52531,,,
1882,410425,中国,河南省,平顶山市,郏县,,33.9718,113.21262,,,
1883,410423,中国,河南省,平顶山市,鲁山县,,33.73854,112.90802,,,
1884,410200,中国,河南省,开封市,,开封,34.85,114.35,83930,13050,
1885,410225,中国,河南省,开封市,兰考县,,34.8223,114.82115,,,
1886,410223,中国,河南省,开封市,尉氏县,,34.41161,114.19297,,,
1887,410221,中国,河南省,开封市,杞县,,34.55034,114.78283,,,
1888,410212,中国,河南省,开封市,祥符区,,34.757,114.44136,,,
1889,410205,中国,河南省,开封市,禹王台区,,34.77717,114.34826,,,
1890,410222,中国,河南省,开封市,通许县,,34.48044,114.46741,,,
1891,410203,中国,河南省,开封市,顺河回族区,,34.79971,114.36435,,,
1892,410204,中国,河南省,开封市,鼓楼区,,34.78861,114.34816,,,
1893,410202,中国,河南省,开封市,龙亭区,,34.81568,114.35461,,,
1894,410700,中国,河南省,新乡市,,新乡,35.3204,113.87,80410,7640,
1895,410704,中国,河南省,新乡市,凤泉区,,35.3718,113.90598,,,
1896,410703,中国,河南省,新乡市,卫滨区,,35.30227,113.86582,,,
1897,410781,中国,河南省,新乡市,卫辉市,,35.39847,114.06459,,,
1898,410725,中国,河南省,新乡市,原阳县,,35.06569,113.93997,,,
1899,410727,中国,河南省,新乡市,封丘县,,35.04119,114.41861,,,
1900,410726,中国,河南省,新乡市,延津县,,35.14194,114.20515,,,
1901,410721,中国,河南省,新乡市,新乡县,,35.19079,113.80516,,,
1902,410711,中国,河南省,新乡市,牧野区,,35.31493,113.90866,,,
1903,410702,中国,河南省,新乡市,红旗区,,35.30351,113.87523,,,
1904,410724,中国,河南省,新乡市,获嘉县,,35.25962,113.65716,,,
1905,410782,中国,河南省,新乡市,辉县市,,35.46212,113.8054,,,
1906,410728,中国,河南省,新乡市,长垣县,,35.20049,114.66886,,,
1907,410300,中国,河南省,洛阳市,,洛阳,34.68,112.4701,68230,15710,
1908,410329,中国,河南省,洛阳市,伊川县,,34.42135,112.42568,,,
1909,410381,中国,河南省,洛阳市,偃师市,,34.72763,112.78965,,,
1910,410306,中国,河南省,洛阳市,吉利区,,34.90099,112.58888,,,
1911,410322,中国,河南省,洛阳市,孟津县,,34.82544,112.4451,,,
1912,410327,中国,河南省,洛阳市,宜阳县,,34.51496,112.1792,,,
1913,410325,中国,河南省,洛阳市,嵩县,,34.13451,112.0857,,,
1914,410323,中国,河南省,洛阳市,新安县,,34.72818,112.13242,,,
1915,410324,中国,河南省,洛阳市,栾川县,,33.78576,111.61579,,,
1916,410326,中国,河南省,洛阳市,汝阳县,,34.15388,112.47317,,,
1917,410328,中国,河南省,洛阳市,洛宁县,,34.38917,111.65313,,,
1918,410311,中国,河南省,洛阳市,洛龙区,,34.61866,112.46403,,,
1919,410305,中国,河南省,洛阳市,涧西区,,34.65774,112.3957,,,
1920,410304,中国,河南省,洛阳市,瀍河回族区,,34.70431,112.51078,,,
1921,410302,中国,河南省,洛阳市,老城区,,34.68356,112.46958,,,
1922,410303,中国,河南省,洛阳市,西工区,,34.66064,112.42827,,,
1923,419001,中国,河南省,济源市,,济源,35.06707,112.60273,69580,10540,
1924,411100,中国,河南省,漯河市,,漯河,33.54528,113.9202,82180,26370,
1925,411122,中国,河南省,漯河市,临颍县,,33.80958,113.93443,,,
1926,411104,中国,河南省,漯河市,召陵区,,33.58645,114.09389,,,
1927,411102,中国,河南省,漯河市,源汇区,,33.54528,113.9202,,,
1928,411121,中国,河南省,漯河市,舞阳县,,33.43765,113.60931,,,
1929,411103,中国,河南省,漯河市,郾城区,,33.58705,114.00664,,,
1930,410900,中国,河南省,濮阳市,,濮阳,35.77745,115.07432,89630,2430,
1931,410902,中国,河南省,濮阳市,华龙区,,35.77745,115.07432,,,
1932,410923,中国,河南省,濮阳市,南乐县,,36.06979,115.20491,,,
1933,410927,中国,河南省,濮阳市,台前县,,35.96931,115.87163,,,
1934,410922,中国,河南省,濮阳市,清丰县,,35.8851,115.10421,,,
1935,410928,中国,河南省,濮阳市,濮阳县,,35.71221,115.02903,,,
1936,410926,中国,河南省,濮阳市,范县,,35.85193,115.50411,,,
1937,410800,中国,河南省,焦作市,,焦作,35.25,113.22,74650,8890,
1938,410803,中国,河南省,焦作市,中站区,,35.2367,113.18296,,,
1939,410821,中国,河南省,焦作市,修武县,,35.22361,113.44776,,,
1940,410822,中国,河南省,焦作市,博爱县,,35.17123,113.06453,,,
1941,410883,中国,河南省,焦作市,孟州市,,34.90735,112.79134,,,
1942,410811,中国,河南省,焦作市,山阳区,,35.21414,113.2542,,,
1943,410823,中国,河南省,焦作市,武陟县,,35.09952,113.40184,,,
1944,410882,中国,河南省,焦作市,沁阳市,,35.0876,112.9506,,,
1945,410825,中国,河南省,焦作市,温县,,34.94023,113.08057,,,
1946,410802,中国,河南省,焦作市,解放区,,35.24052,113.23064,,,
1947,410804,中国,河南省,焦作市,马村区,,35.25615,113.3229,,,
1948,411000,中国,河南省,许昌市,,许昌,34.0204,113.82,80500,21560,
1949,411081,中国,河南省,许昌市,禹州市,,34.14048,113.48794,,,
1950,411025,中国,河南省,许昌市,襄城县,,33.85072,113.50669,,,
1951,411023,中国,河南省,许昌市,许昌县,,34.12596,113.82272,,,
1952,411024,中国,河南省,许昌市,鄢陵县,,34.10233,114.17739,,,
1953,411082,中国,河南省,许昌市,长葛市,,34.21672,113.76827,,,
1954,411002,中国,河南省,许昌市,魏都区,,34.04611,113.8308,,,
1955,410100,中国,河南省,郑州市,,郑州,34.755,113.6651,78200,13860,
1956,410106,中国,河南省,郑州市,上街区,,34.8028,113.30892,,,
1957,410102,中国,河南省,郑州市,中原区,,34.74821,113.61332,,,
1958,410122,中国,河南省,郑州市,中牟县,,34.71903,113.97624,,,
1959,410103,中国,河南省,郑州市,二七区,,34.72468,113.6401,,,
1960,410181,中国,河南省,郑州市,巩义市,,34.74798,113.02206,,,
1961,410108,中国,河南省,郑州市,惠济区,,34.86739,113.61694,,,
1962,410183,中国,河南省,郑州市,新密市,,34.53952,113.39044,,,
1963,410184,中国,河南省,郑州市,新郑市,,34.39605,113.74161,,,
1964,410185,中国,河南省,郑州市,登封市,,34.45348,113.05028,,,
1965,410104,中国,河南省,郑州市,管城回族区,,34.75381,113.67739,,,
1966,410182,中国,河南省,郑州市,荥阳市,,34.78762,113.38349,,,
1967,410105,中国,河南省,郑州市,金水区,,34.79977,113.66072,,,
1968,411700,中国,河南省,驻马店市,,驻马店,32.97319,113.99382,82540,32580,
1969,411722,中国,河南省,驻马店市,上蔡县,,33.26255,114.26435,,,
1970,411723,中国,河南省,驻马店市,平舆县,,32.96257,114.61912,,,
1971,411729,中国,河南省,驻马店市,新蔡县,,32.74926,114.98571,,,
1972,411724,中国,河南省,驻马店市,正阳县,,32.60566,114.39274,,,
1973,411727,中国,河南省,驻马店市,汝南县,,33.00685,114.36229,,,
1974,411726,中国,河南省,驻马店市,泌阳县,,32.7241,113.32709,,,
1975,411725,中国,河南省,驻马店市,确山县,,32.80207,114.02648,,,
1976,411721,中国,河南省,驻马店市,西平县,,33.3878,114.02158,,,
1977,411728,中国,河南省,驻马店市,遂平县,,33.14576,114.01319,,,
1978,411702,中国,河南省,驻马店市,驿城区,,32.97319,113.99382,,,
1979,410600,中国,河南省,鹤壁市,,鹤壁,35.9504,114.22,83330,2770,
1980,410603,中国,河南省,鹤壁市,山城区,,35.89765,114.18444,,,
1981,410621,中国,河南省,鹤壁市,浚县,,35.67617,114.55078,,,
1982,410622,中国,河南省,鹤壁市,淇县,,35.60786,114.19766,,,
1983,410611,中国,河南省,鹤壁市,淇滨区,,35.7413,114.29872,,,
1984,410602,中国,河南省,鹤壁市,鹤山区,,35.9547,114.1633,,,
1985,330000,中国,浙江省,,,,30.271548393336545,120.15953308739246,,,
1986,331100,中国,浙江省,丽水市,,丽水,28.4504,119.9,137233,76429,
1987,331125,中国,浙江省,丽水市,云和县,,28.11591,119.5734,,,
1988,331126,中国,浙江省,丽水市,庆元县,,27.61913,119.06266,,,
1989,331127,中国,浙江省,丽水市,景宁畲族自治县,,27.9732,119.63581,,,
1990,331124,中国,浙江省,丽水市,松阳县,,28.44947,119.48202,,,
1991,331122,中国,浙江省,丽水市,缙云县,,28.65928,120.09158,,,
1992,331102,中国,浙江省,丽水市,莲都区,,28.44594,119.91284,,,
1993,331123,中国,浙江省,丽水市,遂昌县,,28.59213,119.27602,,,
1994,331121,中国,浙江省,丽水市,青田县,,28.13987,120.28955,,,
1995,331181,中国,浙江省,丽水市,龙泉市,,28.07434,119.14168,,,
1996,331000,中国,浙江省,台州市,,台州,32.4904,119.9,151673,72739,
1997,331022,中国,浙江省,台州市,三门县,,29.10467,121.39568,,,
1998,331082,中国,浙江省,台州市,临海市,,28.8584,121.14495,,,
1999,331024,中国,浙江省,台州市,仙居县,,28.84683,120.72881,,,
2000,331023,中国,浙江省,台州市,天台县,,29.14029,121.03093,,,
2001,331002,中国,浙江省,台州市,椒江区,,28.67307,121.44297,,,
2002,331081,中国,浙江省,台州市,温岭市,,28.3718,121.38599,,,
2003,331021,中国,浙江省,台州市,玉环县,,28.13589,121.23164,,,
2004,331004,中国,浙江省,台州市,路桥区,,28.58265,121.36508,,,
2005,331003,中国,浙江省,台州市,黄岩区,,28.64965,121.26295,,,
2006,330400,中国,浙江省,嘉兴市,,嘉兴,30.7704,120.75,144023,51469,
2007,330402,中国,浙江省,嘉兴市,南湖区,,30.74744,120.78483,,,
2008,330421,中国,浙江省,嘉兴市,嘉善县,,30.83075,120.92716,,,
2009,330482,中国,浙江省,嘉兴市,平湖市,,30.67585,121.01606,,,
2010,330483,中国,浙江省,嘉兴市,桐乡市,,30.63074,120.56432,,,
2011,330481,中国,浙江省,嘉兴市,海宁市,,30.50938,120.68102,,,
2012,330424,中国,浙江省,嘉兴市,海盐县,,30.52553,120.94579,,,
2013,330411,中国,浙江省,嘉兴市,秀洲区,,30.76388,120.7092,,,
2014,330200,中国,浙江省,宁波市,,宁波,29.89889,121.84431,152303,60349,
2015,330281,中国,浙江省,宁波市,余姚市,,30.03711,121.15435,,,
2016,330206,中国,浙江省,宁波市,北仑区,,29.89889,121.84431,,,
2017,330283,中国,浙江省,宁波市,奉化市,,29.65503,121.40686,,,
2018,330226,中国,浙江省,宁波市,宁海县,,29.28807,121.42961,,,
2019,330282,中国,浙江省,宁波市,慈溪市,,30.16964,121.26647,,,
2020,330205,中国,浙江省,宁波市,江北区,,29.88615,121.55468,,,
2021,330203,中国,浙江省,宁波市,海曙区,,29.85957,121.55084,,,
2022,330225,中国,浙江省,宁波市,象山县,,29.47665,121.86932,,,
2023,330212,中国,浙江省,宁波市,鄞州区,,29.8172,121.547,,,
2024,330211,中国,浙江省,宁波市,镇海区,,29.94899,121.71624,,,
2025,330100,中国,浙江省,杭州市,,杭州,30.25,120.17,138443,56359,
2026,330102,中国,浙江省,杭州市,上城区,,30.24259,120.16929,,,
2027,330103,中国,浙江省,杭州市,下城区,,30.28122,120.18117,,,
2028,330185,中国,浙江省,杭州市,临安市,,30.23383,119.7248,,,
2029,330110,中国,浙江省,杭州市,余杭区,,30.41875,120.2985,,,
2030,330183,中国,浙江省,杭州市,富阳市,,30.04885,119.96043,,,
2031,330182,中国,浙江省,杭州市,建德市,,29.47475,119.28121,,,
2032,330105,中国,浙江省,杭州市,拱墅区,,30.31974,120.1421,,,
2033,330122,中国,浙江省,杭州市,桐庐县,,29.79317,119.6915,,,
2034,330104,中国,浙江省,杭州市,江干区,,30.25727,120.20523,,,
2035,330127,中国,浙江省,杭州市,淳安县,,29.60886,119.04207,,,
2036,330108,中国,浙江省,杭州市,滨江区,,30.2084,120.21201,,,
2037,330109,中国,浙江省,杭州市,萧山区,,30.18534,120.26457,,,
2038,330106,中国,浙江省,杭州市,西湖区,,30.25961,120.13026,,,
2039,330300,中国,浙江省,温州市,,温州,28.02,120.6501,145103,81079,
2040,330382,中国,浙江省,温州市,乐清市,,28.11289,120.98338,,,
2041,330326,中国,浙江省,温州市,平阳县,,27.6621,120.56595,,,
2042,330328,中国,浙江省,温州市,文成县,,27.78712,120.09137,,,
2043,330324,中国,浙江省,温州市,永嘉县,,28.15336,120.69171,,,
2044,330329,中国,浙江省,温州市,泰顺县,,27.55639,119.7175,,,
2045,330322,中国,浙江省,温州市,洞头县,,27.83616,121.1572,,,
2046,330381,中国,浙江省,温州市,瑞安市,,27.77838,120.65518,,,
2047,330304,中国,浙江省,温州市,瓯海区,,28.00708,120.63768,,,
2048,330327,中国,浙江省,温州市,苍南县,,27.51743,120.42631,,,
2049,330302,中国,浙江省,温州市,鹿城区,,28.01469,120.65523,,,
2050,330303,中国,浙江省,温州市,龙湾区,,27.93252,120.81303,,,
2051,330500,中国,浙江省,湖州市,,湖州,30.8704,120.1,137483,51279,
2052,330503,中国,浙江省,湖州市,南浔区,,30.84979,120.41847,,,
2053,330502,中国,浙江省,湖州市,吴兴区,,30.85816,120.18562,,,
2054,330523,中国,浙江省,湖州市,安吉县,,30.63824,119.68219,,,
2055,330521,中国,浙江省,湖州市,德清县,,30.5427,119.97728,,,
2056,330522,中国,浙江省,湖州市,长兴县,,31.02663,119.91011,,,
2057,330600,中国,浙江省,绍兴市,,绍兴,30.0004,120.57,142903,59519,
2058,330604,中国,浙江省,绍兴市,上虞区,,30.03227,120.86858,,,
2059,330683,中国,浙江省,绍兴市,嵊州市,,29.58849,120.8217,,,
2060,330624,中国,浙江省,绍兴市,新昌县,,29.49983,120.90385,,,
2061,330603,中国,浙江省,绍兴市,柯桥区,,30.08189,120.49476,,,
2062,330681,中国,浙江省,绍兴市,诸暨市,,29.71364,120.23632,,,
2063,330602,中国,浙江省,绍兴市,越城区,,29.98899,120.58199,,,
2064,330900,中国,浙江省,舟山市,,舟山,30.01979,122.10679,158773,58399,
2065,330902,中国,浙江省,舟山市,定海区,,30.01979,122.10679,,,
2066,330921,中国,浙江省,舟山市,岱山县,,30.24369,122.20498,,,
2067,330922,中国,浙江省,舟山市,嵊泗县,,30.72573,122.45137,,,
2068,330903,中国,浙江省,舟山市,普陀区,,29.9492,122.30278,,,
2069,330800,中国,浙江省,衢州市,,衢州,28.96864,118.87117,126733,71829,
2070,330822,中国,浙江省,衢州市,常山县,,28.90141,118.51116,,,
2071,330824,中国,浙江省,衢州市,开化县,,29.13609,118.41422,,,
2072,330802,中国,浙江省,衢州市,柯城区,,28.96864,118.87117,,,
2073,330881,中国,浙江省,衢州市,江山市,,28.73725,118.6269,,,
2074,330803,中国,浙江省,衢州市,衢江区,,28.97964,118.95919,,,
2075,330825,中国,浙江省,衢州市,龙游县,,29.02827,119.17225,,,
2076,330700,中国,浙江省,金华市,,金华,29.12,119.65,134173,69669,
2077,330783,中国,浙江省,金华市,东阳市,,29.28946,120.24191,,,
2078,330782,中国,浙江省,金华市,义乌市,,29.30558,120.07468,,,
2079,330781,中国,浙江省,金华市,兰溪市,,29.20838,119.46051,,,
2080,330702,中国,浙江省,金华市,婺城区,,29.08624,119.5715,,,
2081,330723,中国,浙江省,金华市,武义县,,28.8926,119.81651,,,
2082,330784,中国,浙江省,金华市,永康市,,28.88851,120.04731,,,
2083,330726,中国,浙江省,金华市,浦江县,,29.45251,119.89206,,,
2084,330727,中国,浙江省,金华市,磐安县,,29.05403,120.45022,,,
2085,330703,中国,浙江省,金华市,金东区,,29.09914,119.69311,,,
2086,460000,中国,海南省,,,,,,,,
2087,469006,中国,海南省,万宁市,,万宁,18.79532,110.38975,52673,183549,
2088,460200,中国,海南省,三亚市,,三亚,18.2591,109.504,44503,188179,
2089,460203,中国,海南省,三亚市,吉阳区,,18.28225,109.57841,,,
2090,460204,中国,海南省,三亚市,天涯区,,18.29921,109.45263,,,
2091,460205,中国,海南省,三亚市,崖州区,,18.35753,109.17186,,,
2092,460202,中国,海南省,三亚市,海棠区,,18.40005,109.7525,,,
2093,460300,中国,海南省,三沙市,,三沙,16.83272,112.33356,65593,202609,
2094,469007,中国,海南省,东方市,,东方,19.09614,108.65367,36263,180709,
2095,469024,中国,海南省,临高县,,临高县,19.91243,109.69077,46103,172419,
2096,469027,中国,海南省,乐东黎族自治县,,乐东,18.74986,109.17361,41143,183889,
2097,469001,中国,海南省,五指山市,,五指山,18.77515,109.51696,44503,183929,
2098,469029,中国,海南省,保亭黎族苗族自治县,,保亭,18.63905,109.70259,46283,185059,
2099,469003,中国,海南省,儋州市,,儋州,19.52093,109.58069,45093,176289,
2100,460400,中国,海南省,儋州市,儋州市,,19.52093,109.58069,,,
2101,469021,中国,海南省,定安县,,定安县,19.68121,110.3593,52353,174959,
2102,469022,中国,海南省,屯昌县,,屯昌县,19.35182,110.10347,49853,178209,
2103,469005,中国,海南省,文昌市,,文昌,19.54329,110.79774,56673,176109,
2104,469026,中国,海南省,昌江黎族自治县,,昌江,19.29828,109.05559,40303,178649,
2105,460100,中国,海南省,海口市,,海口,20.05,110.32,52303,171239,
2106,460107,中国,海南省,海口市,琼山区,,20.0039,110.35432,,,
2107,460105,中国,海南省,海口市,秀英区,,20.0076,110.29357,,,
2108,460108,中国,海南省,海口市,美兰区,,20.02864,110.36663,,,
2109,460106,中国,海南省,海口市,龙华区,,20.02971,110.32941,,,
2110,469023,中国,海南省,澄迈县,,澄迈县,19.73849,110.00487,49113,174169,
2111,469030,中国,海南省,琼中黎族苗族自治县,,琼中,19.03334,109.83839,47543,181309,
2112,469002,中国,海南省,琼海市,,琼海,19.25838,110.47464,53603,178779,
2113,469025,中国,海南省,白沙黎族自治县,,白沙,19.22543,109.45167,43963,179219,
2114,469028,中国,海南省,陵水黎族自治县,,陵水,18.50596,110.0372,49263,185749,
2115,420000,中国,湖北省,,,,30.551600064658352,114.34844073658718,,,
2116,429004,中国,湖北省,仙桃市,,仙桃,30.3704,113.44,78270,61690,
2117,420300,中国,湖北省,十堰市,,十堰,32.57,110.78,54310,37920,
2118,420381,中国,湖北省,十堰市,丹江口市,,32.5404,111.51322,,,
2119,420303,中国,湖北省,十堰市,张湾区,,32.65192,110.76916,,,
2120,420325,中国,湖北省,十堰市,房县,,32.05552,110.74116,,,
2121,420323,中国,湖北省,十堰市,竹山县,,32.22468,110.22879,,,
2122,420324,中国,湖北省,十堰市,竹溪县,,32.31824,109.71527,,,
2123,420302,中国,湖北省,十堰市,茅箭区,,32.59175,110.81285,,,
2124,420321,中国,湖北省,十堰市,郧县,,32.83488,110.81197,,,
2125,420322,中国,湖北省,十堰市,郧西县,,32.99306,110.42588,,,
2126,421200,中国,湖北省,咸宁市,,咸宁,29.84126,114.32245,86640,66540,
2127,421202,中国,湖北省,咸宁市,咸安区,,29.85251,114.2984,,,
2128,421221,中国,湖北省,咸宁市,嘉鱼县,,29.97057,113.93932,,,
2129,421223,中国,湖北省,咸宁市,崇阳县,,29.55537,114.03892,,,
2130,421281,中国,湖北省,咸宁市,赤壁市,,29.72476,113.90054,,,
2131,421222,中国,湖北省,咸宁市,通城县,,29.24535,113.81702,,,
2132,421224,中国,湖北省,咸宁市,通山县,,29.60638,114.48276,,,
2133,429006,中国,湖北省,天门市,,天门,30.6,113.1,75090,57210,
2134,420900,中国,湖北省,孝感市,,孝感,30.9204,113.9,82550,55200,
2135,420923,中国,湖北省,孝感市,云梦县,,31.02103,113.75331,,,
2136,420922,中国,湖北省,孝感市,大悟县,,31.56096,114.12694,,,
2137,420902,中国,湖北省,孝感市,孝南区,,30.91677,113.91049,,,
2138,420921,中国,湖北省,孝感市,孝昌县,,31.25803,113.99802,,,
2139,420982,中国,湖北省,孝感市,安陆市,,31.25554,113.68913,,,
2140,420981,中国,湖北省,孝感市,应城市,,30.92838,113.57292,,,
2141,420984,中国,湖北省,孝感市,汉川市,,30.66122,113.83907,,,
2142,420500,中国,湖北省,宜昌市,,宜昌,30.7,111.28,58830,58480,
2143,420529,中国,湖北省,宜昌市,五峰土家族自治县,,30.19983,110.67452,,,
2144,420503,中国,湖北省,宜昌市,伍家岗区,,30.64441,111.361,,,
2145,420526,中国,湖北省,宜昌市,兴山县,,31.34813,110.74719,,,
2146,420506,中国,湖北省,宜昌市,夷陵区,,30.7699,111.32488,,,
2147,420581,中国,湖北省,宜昌市,宜都市,,30.37846,111.4501,,,
2148,420582,中国,湖北省,宜昌市,当阳市,,30.82118,111.78833,,,
2149,420583,中国,湖北省,宜昌市,枝江市,,30.42583,111.76044,,,
2150,420504,中国,湖北省,宜昌市,点军区,,30.69322,111.26824,,,
2151,420505,中国,湖北省,宜昌市,猇亭区,,30.5307,111.43471,,,
2152,420527,中国,湖北省,宜昌市,秭归县,,30.82578,110.97768,,,
2153,420502,中国,湖北省,宜昌市,西陵区,,30.71082,111.28581,,,
2154,420525,中国,湖北省,宜昌市,远安县,,31.06144,111.63985,,,
2155,420528,中国,湖北省,宜昌市,长阳土家族自治县,,30.4725,111.20705,,,
2156,422800,中国,湖北省,恩施土家族苗族自治州,,恩施州,30.27217,109.48817,42030,64850,
2157,422802,中国,湖北省,恩施土家族苗族自治州,利川市,,30.29121,108.93595,,,
2158,422826,中国,湖北省,恩施土家族苗族自治州,咸丰县,,29.66521,109.13963,,,
2159,422825,中国,湖北省,恩施土家族苗族自治州,宣恩县,,29.98715,109.49185,,,
2160,422823,中国,湖北省,恩施土家族苗族自治州,巴东县,,31.04233,110.34075,,,
2161,422822,中国,湖北省,恩施土家族苗族自治州,建始县,,30.60213,109.72213,,,
2162,422801,中国,湖北省,恩施土家族苗族自治州,恩施市,,30.29504,109.47918,,,
2163,422827,中国,湖北省,恩施土家族苗族自治州,来凤县,,29.49391,109.407,,,
2164,422828,中国,湖北省,恩施土家族苗族自治州,鹤峰县,,29.89084,110.03498,,,
2165,420100,中国,湖北省,武汉市,,武汉,30.59276,114.30525,85970,58500,
2166,420112,中国,湖北省,武汉市,东西湖区,,30.61996,14.13702,,,
2167,420117,中国,湖北省,武汉市,新洲区,,30.84154,114.80114,,,
2168,420106,中国,湖北省,武汉市,武昌区,,30.55386,14.31599,,,
2169,420113,中国,湖北省,武汉市,汉南区,,30.30895,114.08469,,,
2170,420105,中国,湖北省,武汉市,汉阳区,,30.55473,114.21772,,,
2171,420115,中国,湖北省,武汉市,江夏区,,30.37559,114.32168,,,
2172,420102,中国,湖北省,武汉市,江岸区,,30.59982,114.3096,,,
2173,420103,中国,湖北省,武汉市,江汉区,,30.60147,114.27096,,,
2174,420111,中国,湖北省,武汉市,洪山区,,30.49984,114.34253,,,
2175,420104,中国,湖北省,武汉市,硚口区,,30.58145,114.21498,,,
2176,420114,中国,湖北省,武汉市,蔡甸区,,30.58203,114.02919,,,
2177,420107,中国,湖北省,武汉市,青山区,,30.63,114.38,,,
2178,420116,中国,湖北省,武汉市,黄陂区,,30.88131,14.37509,,,
2179,429005,中国,湖北省,潜江市,,潜江,30.38949,112.93953,72690,61110,
2180,429021,中国,湖北省,神农架林区,,神农架,31.35138,110.57011,52350,51980,
2181,421000,中国,湖北省,荆州市,,荆州,30.33479,112.24069,67560,62080,
2182,421022,中国,湖北省,荆州市,公安县,,30.0583,112.22948,,,
2183,421087,中国,湖北省,荆州市,松滋市,,30.1696,111.76743,,,
2184,421024,中国,湖北省,荆州市,江陵县,,30.04184,112.4247,,,
2185,421002,中国,湖北省,荆州市,沙市区,,30.31098,112.25494,,,
2186,421083,中国,湖北省,荆州市,洪湖市,,29.82756,113.47775,,,
2187,421023,中国,湖北省,荆州市,监利县,,29.83928,112.90492,,,
2188,421081,中国,湖北省,荆州市,石首市,,29.72085,112.4255,,,
2189,421003,中国,湖北省,荆州市,荆州区,,30.35269,112.19016,,,
2190,420800,中国,湖北省,荆门市,,荆门,31.0304,112.1,66800,54540,
2191,420802,中国,湖北省,荆门市,东宝区,,31.05193,112.20158,,,
2192,420821,中国,湖北省,荆门市,京山县,,31.01848,113.11953,,,
2193,420804,中国,湖北省,荆门市,掇刀区,,30.97303,112.20715,,,
2194,420822,中国,湖北省,荆门市,沙洋县,,30.70918,112.58854,,,
2195,420881,中国,湖北省,荆门市,钟祥市,,31.16797,112.58817,,,
2196,420600,中国,湖北省,襄阳市,,襄阳,32.009,112.12255,65840,44310,
2197,420626,中国,湖北省,襄阳市,保康县,,31.87753,111.26117,,,
2198,420624,中国,湖北省,襄阳市,南漳县,,31.77471,111.83902,,,
2199,420684,中国,湖北省,襄阳市,宜城市,,31.71976,112.25776,,,
2200,420683,中国,湖北省,襄阳市,枣阳市,,32.12836,112.77398,,,
2201,420606,中国,湖北省,襄阳市,樊城区,,32.04487,112.13555,,,
2202,420682,中国,湖北省,襄阳市,老河口市,,32.38671,111.67507,,,
2203,420602,中国,湖北省,襄阳市,襄城区,,32.01067,112.13423,,,
2204,420607,中国,湖北省,襄阳市,襄州区,,32.08718,112.21194,,,
2205,420625,中国,湖北省,襄阳市,谷城县,,32.26338,111.65304,,,
2206,420700,中国,湖北省,鄂州市,,鄂州,30.39085,114.89495,91070,60250,
2207,420703,中国,湖北省,鄂州市,华容区,,30.53434,114.72983,,,
2208,420702,中国,湖北省,鄂州市,梁子湖区,,30.09996,114.68456,,,
2209,420704,中国,湖北省,鄂州市,鄂城区,,30.40057,114.89171,,,
2210,421300,中国,湖北省,随州市,,随州,31.69013,113.38262,77120,47260,
2211,421381,中国,湖北省,随州市,广水市,,31.61686,113.826,,,
2212,421303,中国,湖北省,随州市,曾都区,,31.71615,113.3712,,,
2213,421321,中国,湖北省,随州市,随县,,31.8538,113.29995,,,
2214,421100,中国,湖北省,黄冈市,,黄冈,30.45347,114.87238,91220,59230,
2215,421121,中国,湖北省,黄冈市,团风县,,30.64362,114.87232,,,
2216,421182,中国,湖北省,黄冈市,武穴市,,29.84433,115.5613,,,
2217,421125,中国,湖北省,黄冈市,浠水县,,30.45184,115.26551,,,
2218,421122,中国,湖北省,黄冈市,红安县,,31.2881,114.61813,,,
2219,421123,中国,湖北省,黄冈市,罗田县,,30.78399,115.39927,,,
2220,421124,中国,湖北省,黄冈市,英山县,,30.73518,115.68143,,,
2221,421126,中国,湖北省,黄冈市,蕲春县,,30.22617,115.43621,,,
2222,421181,中国,湖北省,黄冈市,麻城市,,31.17333,115.00869,,,
2223,421102,中国,湖北省,黄冈市,黄州区,,30.43472,114.88005,,,
2224,421127,中国,湖北省,黄冈市,黄梅县,,30.07037,115.94432,,,
2225,420200,中国,湖北省,黄石市,,黄石,30.22,115.1,92850,62350,
2226,420204,中国,湖北省,黄石市,下陆区,,30.17384,114.96118,,,
2227,420281,中国,湖北省,黄石市,大冶市,,30.09551,114.97977,,,
2228,420203,中国,湖北省,黄石市,西塞山区,,30.20489,115.11019,,,
2229,420205,中国,湖北省,黄石市,铁山区,,30.20666,114.90143,,,
2230,420222,中国,湖北省,黄石市,阳新县,,29.83039,115.2153,,,
2231,420202,中国,湖北省,黄石市,黄石港区,,30.22286,115.06611,,,
2232,430000,中国,湖南省,,,,28.118269998009367,112.98960254334654,,,
2233,431300,中国,湖南省,娄底市,,娄底,27.72978,112.0017,65723,90209,
2234,431381,中国,湖南省,娄底市,冷水江市,,27.68615,111.43525,,,
2235,431321,中国,湖南省,娄底市,双峰县,,27.45702,112.19392,,,
2236,431302,中国,湖南省,娄底市,娄星区,,27.72978,112.0017,,,
2237,431322,中国,湖南省,娄底市,新化县,,27.72663,111.32743,,,
2238,431382,中国,湖南省,娄底市,涟源市,,27.69271,111.66446,,,
2239,430600,中国,湖南省,岳阳市,,岳阳,29.3801,113.1,76403,71869,
2240,430682,中国,湖南省,岳阳市,临湘市,,29.47684,113.45058,,,
2241,430603,中国,湖南省,岳阳市,云溪区,,29.47358,113.27239,,,
2242,430623,中国,湖南省,岳阳市,华容县,,29.53015,112.53946,,,
2243,430611,中国,湖南省,岳阳市,君山区,,29.46135,113.00651,,,
2244,430621,中国,湖南省,岳阳市,岳阳县,,29.14415,113.11635,,,
2245,430602,中国,湖南省,岳阳市,岳阳楼区,,29.37197,113.12931,,,
2246,430626,中国,湖南省,岳阳市,平江县,,28.70203,113.58134,,,
2247,430681,中国,湖南省,岳阳市,汨罗市,,28.80642,113.06711,,,
2248,430624,中国,湖南省,岳阳市,湘阴县,,28.68925,112.90917,,,
2249,430700,中国,湖南省,常德市,,常德,29.03,111.68,62883,75559,
2250,430724,中国,湖南省,常德市,临澧县,,29.44098,111.64735,,,
2251,430721,中国,湖南省,常德市,安乡县,,29.41142,112.17096,,,
2252,430725,中国,湖南省,常德市,桃源县,,28.90259,111.48893,,,
2253,430702,中国,湖南省,常德市,武陵区,,29.05397,111.68396,,,
2254,430722,中国,湖南省,常德市,汉寿县,,28.90549,111.97043,,,
2255,430781,中国,湖南省,常德市,津市市,,29.60543,111.87741,,,
2256,430723,中国,湖南省,常德市,澧县,,29.44098,111.64735,,,
2257,430726,中国,湖南省,常德市,石门县,,29.58413,111.37982,,,
2258,430703,中国,湖南省,常德市,鼎城区,,29.01871,111.68072,,,
2259,430800,中国,湖南省,张家界市,,张家界,29.34589,110.55042,51933,74929,
2260,430821,中国,湖南省,张家界市,慈利县,,29.4297,111.13921,,,
2261,430822,中国,湖南省,张家界市,桑植县,,29.39971,110.16428,,,
2262,430811,中国,湖南省,张家界市,武陵源区,,29.34589,110.55042,,,
2263,430802,中国,湖南省,张家界市,永定区,,29.11983,110.53737,,,
2264,431200,中国,湖南省,怀化市,,怀化,27.57771,110.04098,46803,91819,
2265,431221,中国,湖南省,怀化市,中方县,,27.43992,109.94501,,,
2266,431225,中国,湖南省,怀化市,会同县,,26.88718,109.7357,,,
2267,431227,中国,湖南省,怀化市,新晃侗族自治县,,27.35264,109.17492,,,
2268,431222,中国,湖南省,怀化市,沅陵县,,28.45277,110.39388,,,
2269,431281,中国,湖南省,怀化市,洪江市,,27.20925,109.83655,,,
2270,431224,中国,湖南省,怀化市,溆浦县,,27.90834,110.59486,,,
2271,431228,中国,湖南省,怀化市,芷江侗族自治县,,27.44328,109.68519,,,
2272,431223,中国,湖南省,怀化市,辰溪县,,28.00652,110.18368,,,
2273,431230,中国,湖南省,怀化市,通道侗族自治县,,26.15794,109.78449,,,
2274,431229,中国,湖南省,怀化市,靖州苗族侗族自治县,,26.57514,109.69627,,,
2275,431202,中国,湖南省,怀化市,鹤城区,,27.57771,110.04098,,,
2276,431226,中国,湖南省,怀化市,麻阳苗族自治县,,27.86555,109.80256,,,
2277,430200,中国,湖南省,株洲市,,株洲,27.83,113.15,76923,88549,
2278,430211,中国,湖南省,株洲市,天元区,,27.82681,113.08231,,,
2279,430223,中国,湖南省,株洲市,攸县,,27.00023,113.34569,,,
2280,430221,中国,湖南省,株洲市,株洲县,,27.69938,113.14398,,,
2281,430225,中国,湖南省,株洲市,炎陵县,,26.48979,113.77258,,,
2282,430204,中国,湖南省,株洲市,石峰区,,27.87558,113.11784,,,
2283,430203,中国,湖南省,株洲市,芦淞区,,27.78499,113.1523,,,
2284,430224,中国,湖南省,株洲市,茶陵县,,26.77745,113.53927,,,
2285,430202,中国,湖南省,株洲市,荷塘区,,27.85595,113.17329,,,
2286,430281,中国,湖南省,株洲市,醴陵市,,27.64617,113.49703,,,
2287,431100,中国,湖南省,永州市,,永州,26.2304,111.62,62083,102619,
2288,431122,中国,湖南省,永州市,东安县,,26.39206,111.31644,,,
2289,431103,中国,湖南省,永州市,冷水滩区,,26.46098,111.59244,,,
2290,431123,中国,湖南省,永州市,双牌县,,25.96218,111.66031,,,
2291,431126,中国,湖南省,永州市,宁远县,,25.56919,111.94445,,,
2292,431128,中国,湖南省,永州市,新田县,,25.9043,112.20329,,,
2293,431129,中国,湖南省,永州市,江华瑶族自治县,,25.18536,111.57952,,,
2294,431125,中国,湖南省,永州市,江永县,,25.27353,111.34385,,,
2295,431121,中国,湖南省,永州市,祁阳县,,26.58012,111.84015,,,
2296,431127,中国,湖南省,永州市,蓝山县,,25.36943,112.19678,,,
2297,431124,中国,湖南省,永州市,道县,,25.52753,111.60007,,,
2298,431102,中国,湖南省,永州市,零陵区,,26.22255,111.63112,,,
2299,430300,中国,湖南省,湘潭市,,湘潭,27.8504,112.9,74623,88189,
2300,430304,中国,湖南省,湘潭市,岳塘区,,27.87266,112.97019,,,
2301,430381,中国,湖南省,湘潭市,湘乡市,,27.7341,112.53504,,,
2302,430321,中国,湖南省,湘潭市,湘潭县,,27.77904,112.95099,,,
2303,430302,中国,湖南省,湘潭市,雨湖区,,27.85632,112.90737,,,
2304,430382,中国,湖南省,湘潭市,韶山市,,27.91507,112.5266,,,
2305,433100,中国,湖南省,湘西土家族苗族自治州,,湘西,28.31173,109.73893,44633,83609,
2306,433125,中国,湖南省,湘西土家族苗族自治州,保靖县,,28.70001,109.66054,,,
2307,433123,中国,湖南省,湘西土家族苗族自治州,凤凰县,,27.94843,109.59832,,,
2308,433126,中国,湖南省,湘西土家族苗族自治州,古丈县,,28.61711,109.95085,,,
2309,433101,中国,湖南省,湘西土家族苗族自治州,吉首市,,28.26244,109.69811,44633,83609,
2310,433127,中国,湖南省,湘西土家族苗族自治州,永顺县,,29.00515,109.84807,,,
2311,433122,中国,湖南省,湘西土家族苗族自治州,泸溪县,,28.21639,110.21965,,,
2312,433124,中国,湖南省,湘西土家族苗族自治州,花垣县,,28.57211,109.48224,,,
2313,433130,中国,湖南省,湘西土家族苗族自治州,龙山县,,29.4579,109.44387,,,
2314,430900,中国,湖南省,益阳市,,益阳,28.5793,112.37409,69273,80179,
2315,430921,中国,湖南省,益阳市,南县,,29.36162,112.39636,,,
2316,430923,中国,湖南省,益阳市,安化县,,28.37428,111.21303,,,
2317,430922,中国,湖南省,益阳市,桃江县,,28.51819,112.15571,,,
2318,430981,中国,湖南省,益阳市,沅江市,,28.84402,112.35468,,,
2319,430902,中国,湖南省,益阳市,资阳区,,28.591,112.32426,,,
2320,430903,中国,湖南省,益阳市,赫山区,,28.5793,112.37409,,,
2321,430400,中国,湖南省,衡阳市,,衡阳,27.23258,112.73876,71873,98109,
2322,430412,中国,湖南省,衡阳市,南岳区,,27.23258,112.73876,,,
2323,430482,中国,湖南省,衡阳市,常宁市,,26.42093,112.39992,,,
2324,430405,中国,湖南省,衡阳市,珠晖区,,26.89456,112.62039,,,
2325,430407,中国,湖南省,衡阳市,石鼓区,,26.94343,112.59798,,,
2326,430426,中国,湖南省,衡阳市,祁东县,,26.79965,112.09043,,,
2327,430481,中国,湖南省,衡阳市,耒阳市,,26.42243,112.85988,,,
2328,430408,中国,湖南省,衡阳市,蒸湘区,,26.91259,112.56755,,,
2329,430424,中国,湖南省,衡阳市,衡东县,,27.08116,112.95325,,,
2330,430422,中国,湖南省,衡阳市,衡南县,,26.73831,112.67792,,,
2331,430423,中国,湖南省,衡阳市,衡山县,,27.23022,112.86831,,,
2332,430421,中国,湖南省,衡阳市,衡阳县,,26.96977,112.37066,,,
2333,430406,中国,湖南省,衡阳市,雁峰区,,26.88864,112.61669,,,
2334,430500,中国,湖南省,邵阳市,,邵阳,27,111.2001,61533,94189,
2335,430511,中国,湖南省,邵阳市,北塔区,,27.24566,111.45207,,,
2336,430502,中国,湖南省,邵阳市,双清区,,27.23285,111.49674,,,
2337,430529,中国,湖南省,邵阳市,城步苗族自治县,,26.39156,110.32285,,,
2338,430503,中国,湖南省,邵阳市,大祥区,,27.2213,111.43888,,,
2339,430528,中国,湖南省,邵阳市,新宁县,,26.43346,110.85674,,,
2340,430522,中国,湖南省,邵阳市,新邵县,,27.32091,111.459,,,
2341,430581,中国,湖南省,邵阳市,武冈市,,26.72659,110.63138,,,
2342,430525,中国,湖南省,邵阳市,洞口县,,27.06038,110.57583,,,
2343,430527,中国,湖南省,邵阳市,绥宁县,,26.58201,110.15568,,,
2344,430521,中国,湖南省,邵阳市,邵东县,,27.25844,111.74446,,,
2345,430523,中国,湖南省,邵阳市,邵阳县,,26.99078,111.27382,,,
2346,430524,中国,湖南省,邵阳市,隆回县,,27.11402,111.03249,,,
2347,431000,中国,湖南省,郴州市,,郴州,25.78398,113.01101,75733,109959,
2348,431025,中国,湖南省,郴州市,临武县,,25.27596,112.56295,,,
2349,431002,中国,湖南省,郴州市,北湖区,,25.78398,113.01101,,,
2350,431024,中国,湖南省,郴州市,嘉禾县,,25.58767,112.36872,,,
2351,431028,中国,湖南省,郴州市,安仁县,,26.70942,113.26948,,,
2352,431022,中国,湖南省,郴州市,宜章县,,25.39957,112.94887,,,
2353,431027,中国,湖南省,郴州市,桂东县,,26.07752,113.94454,,,
2354,431021,中国,湖南省,郴州市,桂阳县,,25.7541,112.73368,,,
2355,431023,中国,湖南省,郴州市,永兴县,,26.1272,113.11659,,,
2356,431026,中国,湖南省,郴州市,汝城县,,25.55036,113.68493,,,
2357,431003,中国,湖南省,郴州市,苏仙区,,25.8004,113.04236,,,
2358,431081,中国,湖南省,郴州市,资兴市,,25.97619,113.23601,,,
2359,430100,中国,湖南省,长沙市,,长沙,28.2,112.97,74953,84799,
2360,430103,中国,湖南省,长沙市,天心区,,28.11415,112.98977,,,
2361,430124,中国,湖南省,长沙市,宁乡县,,28.27741,112.55183,,,
2362,430104,中国,湖南省,长沙市,岳麓区,,28.23529,112.93134,,,
2363,430105,中国,湖南省,长沙市,开福区,,28.25591,112.98626,,,
2364,430122,中国,湖南省,长沙市,望城区,,28.36121,112.8179,,,
2365,430181,中国,湖南省,长沙市,浏阳市,,28.16378,113.64317,,,
2366,430102,中国,湖南省,长沙市,芙蓉区,,28.20279,113.03539,,,
2367,430121,中国,湖南省,长沙市,长沙县,,28.24595,113.08093,,,
2368,430111,中国,湖南省,长沙市,雨花区,,28.13551,113.03555,,,
2369,820000,中国,澳门特别行政区,,,澳门,22.203,113.545,84120,146680,
2370,820102,中国,澳门特别行政区,澳门特别行政区,氹仔,,22.15473,113.55929,,,
2371,820101,中国,澳门特别行政区,澳门特别行政区,澳门半島,,22.186859,113.543221,,,
2372,820103,中国,澳门特别行政区,澳门特别行政区,路氹城,,22.13867,113.56828,,,
2373,820104,中国,澳门特别行政区,澳门特别行政区,路环,,22.116001,113.555931,,,
2374,620000,中国,甘肃省,,,,36.06645500642709,103.83318221998086,,,
2375,622900,中国,甘肃省,临夏回族自治州,,临夏,35.6,103.2,-11760,4310,
2376,622926,中国,甘肃省,临夏回族自治州,东乡族自治县,,35.66376,103.38933,,,
2377,622921,中国,甘肃省,临夏回族自治州,临夏县,,35.6045,103.24317,,,
2378,622901,中国,甘肃省,临夏回族自治州,临夏市,,35.6045,103.24317,,,
2379,622925,中国,甘肃省,临夏回族自治州,和政县,,35.42535,103.35143,,,
2380,622924,中国,甘肃省,临夏回族自治州,广河县,,35.481,103.56935,,,
2381,622922,中国,甘肃省,临夏回族自治州,康乐县,,35.36973,103.70894,,,
2382,622923,中国,甘肃省,临夏回族自治州,永靖县,,35.94173,103.31587,,,
2383,622927,中国,甘肃省,临夏回族自治州,积石山保安族东乡族撒拉族自治县,,35.71768,102.87581,,,
2384,620100,中国,甘肃省,兰州市,,兰州,36.056,103.792,-4770,-720,
2385,620103,中国,甘肃省,兰州市,七里河区,,36.06592,103.78576,,,
2386,620102,中国,甘肃省,兰州市,城关区,,36.05709,103.82538,,,
2387,620105,中国,甘肃省,兰州市,安宁区,,36.10396,103.71878,,,
2388,620123,中国,甘肃省,兰州市,榆中县,,35.84327,104.11261,,,
2389,620121,中国,甘肃省,兰州市,永登县,,36.7364,103.26051,,,
2390,620122,中国,甘肃省,兰州市,皋兰县,,36.33216,103.94751,,,
2391,620111,中国,甘肃省,兰州市,红古区,,36.34578,102.85936,,,
2392,620104,中国,甘肃省,兰州市,西固区,,36.08842,103.6281,,,
2393,620200,中国,甘肃省,嘉峪关市,,嘉峪关,39.82,98.3,-46240,-43710,
2394,620201,中国,甘肃省,嘉峪关市,市辖区,,39.77201,98.29011,,,
2395,620500,中国,甘肃省,天水市,,天水,34.6,105.92,10960,14810,
2396,620525,中国,甘肃省,天水市,张家川回族自治县,,34.98843,106.20577,,,
2397,620524,中国,甘肃省,天水市,武山县,,34.72134,104.89089,,,
2398,620521,中国,甘肃省,天水市,清水县,,34.74981,106.13737,,,
2399,620523,中国,甘肃省,天水市,甘谷县,,34.732,105.33564,,,
2400,620522,中国,甘肃省,天水市,秦安县,,34.85918,105.67566,,,
2401,620502,中国,甘肃省,天水市,秦州区,,34.58088,105.72417,,,
2402,620503,中国,甘肃省,天水市,麦积区,,34.57024,105.88965,,,
2403,621100,中国,甘肃省,定西市,,定西,35.57934,104.61093,2020,4310,
2404,621124,中国,甘肃省,定西市,临洮县,,35.39509,103.85954,,,
2405,621102,中国,甘肃省,定西市,安定区,,35.57934,104.61093,,,
2406,621126,中国,甘肃省,定西市,岷县,,34.43811,104.03697,,,
2407,621123,中国,甘肃省,定西市,渭源县,,35.13626,104.21502,,,
2408,621125,中国,甘肃省,定西市,漳县,,34.84853,104.4717,,,
2409,621121,中国,甘肃省,定西市,通渭县,,35.21087,105.24219,,,
2410,621122,中国,甘肃省,定西市,陇西县,,35.00391,104.6348,,,
2411,620800,中国,甘肃省,平凉市,,平凉,35.5304,106.6801,19840,5340,
2412,620824,中国,甘肃省,平凉市,华亭县,,35.21756,106.65352,,,
2413,620802,中国,甘肃省,平凉市,崆峒区,,35.54258,106.67477,,,
2414,620823,中国,甘肃省,平凉市,崇信县,,35.30229,107.03536,,,
2415,620825,中国,甘肃省,平凉市,庄浪县,,35.20239,106.03666,,,
2416,620821,中国,甘肃省,平凉市,泾川县,,35.33262,107.36775,,,
2417,620822,中国,甘肃省,平凉市,灵台县,,35.06541,107.62126,,,
2418,620826,中国,甘肃省,平凉市,静宁县,,35.52223,105.73245,,,
2419,621000,中国,甘肃省,庆阳市,,庆阳,35.73062,107.65114,28190,2880,
2420,621023,中国,甘肃省,庆阳市,华池县,,36.4613,107.99016,,,
2421,621024,中国,甘肃省,庆阳市,合水县,,35.81927,108.01953,,,
2422,621026,中国,甘肃省,庆阳市,宁县,,35.50223,107.92824,,,
2423,621021,中国,甘肃省,庆阳市,庆城县,,36.01526,107.88248,,,
2424,621025,中国,甘肃省,庆阳市,正宁县,,35.4917,108.3601,,,
2425,621022,中国,甘肃省,庆阳市,环县,,36.5685,107.30839,,,
2426,621002,中国,甘肃省,庆阳市,西峰区,,35.73062,107.65114,,,
2427,621027,中国,甘肃省,庆阳市,镇原县,,35.67728,107.2006,,,
2428,620700,中国,甘肃省,张掖市,,张掖,38.93,100.45,-29510,-32880,
2429,620723,中国,甘肃省,张掖市,临泽县,,39.15257,100.16449,,,
2430,620725,中国,甘肃省,张掖市,山丹县,,38.78449,101.08861,,,
2431,620722,中国,甘肃省,张掖市,民乐县,,38.43064,100.81317,,,
2432,620702,中国,甘肃省,张掖市,甘州区,,38.92967,100.47801,,,
2433,620721,中国,甘肃省,张掖市,肃南裕固族自治县,,38.8369,99.61558,,,
2434,620724,中国,甘肃省,张掖市,高台县,,39.37772,99.81943,,,
2435,620600,中国,甘肃省,武威市,,武威,37.92818,102.64198,-12910,-21260,
2436,620602,中国,甘肃省,武威市,凉州区,,37.92818,102.64198,,,
2437,620622,中国,甘肃省,武威市,古浪县,,37.47013,102.89765,,,
2438,620623,中国,甘肃省,武威市,天祝藏族自治县,,36.97184,103.14178,,,
2439,620621,中国,甘肃省,武威市,民勤县,,38.62434,103.09366,,,
2440,623000,中国,甘肃省,甘南藏族自治州,,甘南,47.9204,123.51,-12660,9680,
2441,623021,中国,甘肃省,甘南藏族自治州,临潭县,,34.69275,103.35362,,,
2442,623022,中国,甘肃省,甘南藏族自治州,卓尼县,,34.58922,103.5071,,,
2443,623001,中国,甘肃省,甘南藏族自治州,合作市,,35.00027,102.91012,,,
2444,623027,中国,甘肃省,甘南藏族自治州,夏河县,,35.20233,102.52158,,,
2445,623025,中国,甘肃省,甘南藏族自治州,玛曲县,,33.9977,102.07226,,,
2446,623026,中国,甘肃省,甘南藏族自治州,碌曲县,,34.59103,102.48699,,,
2447,623023,中国,甘肃省,甘南藏族自治州,舟曲县,,33.78491,104.37155,,,
2448,623024,中国,甘肃省,甘南藏族自治州,迭部县,,34.05587,103.22175,,,
2449,620400,中国,甘肃省,白银市,,白银,36.53454,104.1724,-620,-6040,
2450,620422,中国,甘肃省,白银市,会宁县,,35.69291,105.05334,,,
2451,620403,中国,甘肃省,白银市,平川区,,36.72774,104.82503,,,
2452,620423,中国,甘肃省,白银市,景泰县,,37.18137,104.06312,,,
2453,620402,中国,甘肃省,白银市,白银区,,36.53454,104.1724,,,
2454,620421,中国,甘肃省,白银市,靖远县,,36.56529,104.687,,,
2455,620900,中国,甘肃省,酒泉市,,酒泉,39.74502,98.50801,-44330,-42610,
2456,620982,中国,甘肃省,酒泉市,敦煌市,,40.14219,94.66197,,,
2457,620981,中国,甘肃省,酒泉市,玉门市,,40.29176,97.04542,,,
2458,620922,中国,甘肃省,酒泉市,瓜州县,,40.52023,95.78238,,,
2459,620923,中国,甘肃省,酒泉市,肃北蒙古族自治县,,39.51244,94.87684,,,
2460,620902,中国,甘肃省,酒泉市,肃州区,,39.74502,98.50801,,,
2461,620921,中国,甘肃省,酒泉市,金塔县,,39.98593,98.90271,,,
2462,620924,中国,甘肃省,酒泉市,阿克塞哈萨克族自治县,,39.63372,94.34023,,,
2463,620300,中国,甘肃省,金昌市,,金昌,38.4957,102.1739,-16490,-27050,
2464,620321,中国,甘肃省,金昌市,永昌县,,38.24704,101.973,,,
2465,620302,中国,甘肃省,金昌市,金川区,,38.52014,102.19409,,,
2466,621200,中国,甘肃省,陇南市,,陇南,33.39189,104.92667,4250,26940,
2467,621228,中国,甘肃省,陇南市,两当县,,33.909,106.30494,,,
2468,621223,中国,甘肃省,陇南市,宕昌县,,34.04735,104.39354,,,
2469,621224,中国,甘肃省,陇南市,康县,,33.32937,105.60855,,,
2470,621227,中国,甘肃省,陇南市,徽县,,33.76884,106.08785,,,
2471,621221,中国,甘肃省,陇南市,成县,,33.75062,105.74222,,,
2472,621222,中国,甘肃省,陇南市,文县,,32.94396,104.68343,,,
2473,621202,中国,甘肃省,陇南市,武都区,,33.39189,104.92667,,,
2474,621226,中国,甘肃省,陇南市,礼县,,34.18907,105.17844,,,
2475,621225,中国,甘肃省,陇南市,西和县,,34.01085,105.30143,,,
2476,350000,中国,福建省,,,,26.106339415901047,119.30244747703945,,,
2477,350400,中国,福建省,三明市,,三明,26.23,117.58,118673,101969,
2478,350403,中国,福建省,三明市,三元区,,26.23381,117.6081,,,
2479,350425,中国,福建省,三明市,大田县,,25.69261,117.84713,,,
2480,350424,中国,福建省,三明市,宁化县,,26.26178,116.65443,,,
2481,350428,中国,福建省,三明市,将乐县,,26.72904,117.47096,,,
2482,350426,中国,福建省,三明市,尤溪县,,26.17004,118.19049,,,
2483,350430,中国,福建省,三明市,建宁县,,26.83092,116.84604,,,
2484,350421,中国,福建省,三明市,明溪县,,26.35595,117.20219,,,
2485,350402,中国,福建省,三明市,梅列区,,26.27168,117.64579,,,
2486,350481,中国,福建省,三明市,永安市,,25.94138,117.36518,,,
2487,350427,中国,福建省,三明市,沙县,,26.39617,117.79268,,,
2488,350429,中国,福建省,三明市,泰宁县,,26.90012,117.1758,,,
2489,350423,中国,福建省,三明市,清流县,,26.17781,116.81694,,,
2490,350700,中国,福建省,南平市,,南平,26.6304,118.17,122893,97919,
2491,350723,中国,福建省,南平市,光泽县,,27.541,117.33408,,,
2492,350702,中国,福建省,南平市,延平区,,26.63798,118.18202,,,
2493,350783,中国,福建省,南平市,建瓯市,,27.02266,118.30498,,,
2494,350784,中国,福建省,南平市,建阳市,,27.33175,118.12043,,,
2495,350725,中国,福建省,南平市,政和县,,27.36609,118.85754,,,
2496,350724,中国,福建省,南平市,松溪县,,27.52629,118.7854,,,
2497,350782,中国,福建省,南平市,武夷山市,,27.75671,118.03548,,,
2498,350722,中国,福建省,南平市,浦城县,,27.91721,118.54138,,,
2499,350781,中国,福建省,南平市,邵武市,,27.34036,117.49253,,,
2500,350721,中国,福建省,南平市,顺昌县,,26.79301,117.81036,,,
2501,350200,中国,福建省,厦门市,,厦门,24.45,118.08,125223,120399,
2502,350212,中国,福建省,厦门市,同安区,,24.72286,118.15207,,,
2503,350203,中国,福建省,厦门市,思明区,,24.44579,118.08243,,,
2504,350205,中国,福建省,厦门市,海沧区,,24.48405,118.03394,,,
2505,350206,中国,福建省,厦门市,湖里区,,24.5118,118.14577,,,
2506,350213,中国,福建省,厦门市,翔安区,,24.61854,118.24722,,,
2507,350211,中国,福建省,厦门市,集美区,,24.57591,118.09728,,,
2508,350900,中国,福建省,宁德市,,宁德,26.6804,119.5301,135623,96199,
2509,350922,中国,福建省,宁德市,古田县,,26.57762,118.74606,,,
2510,350925,中国,福建省,宁德市,周宁县,,27.10474,119.33899,,,
2511,350924,中国,福建省,宁德市,寿宁县,,27.46054,119.50479,,,
2512,350923,中国,福建省,宁德市,屏南县,,26.90853,118.98578,,,
2513,350926,中国,福建省,宁德市,柘荣县,,27.23513,119.90085,,,
2514,350981,中国,福建省,宁德市,福安市,,27.08797,119.64768,,,
2515,350982,中国,福建省,宁德市,福鼎市,,27.32436,120.21671,,,
2516,350902,中国,福建省,宁德市,蕉城区,,26.66022,119.52623,,,
2517,350921,中国,福建省,宁德市,霞浦县,,26.88517,120.00556,,,
2518,350500,中国,福建省,泉州市,,泉州,24.9,118.58,129323,115249,
2519,350503,中国,福建省,泉州市,丰泽区,,24.88946,118.613,,,
2520,350583,中国,福建省,泉州市,南安市,,24.9604,118.38627,,,
2521,350524,中国,福建省,泉州市,安溪县,,25.05544,118.18685,,,
2522,350526,中国,福建省,泉州市,德化县,,25.4916,118.24098,,,
2523,350521,中国,福建省,泉州市,惠安县,,25.03065,118.79695,,,
2524,350582,中国,福建省,泉州市,晋江市,,24.78144,118.55199,,,
2525,350525,中国,福建省,泉州市,永春县,,25.32188,118.29424,,,
2526,350505,中国,福建省,泉州市,泉港区,,25.12014,118.91596,,,
2527,350504,中国,福建省,泉州市,洛江区,,24.9399,118.6712,,,
2528,350581,中国,福建省,泉州市,石狮市,,24.7319,118.64792,,,
2529,350527,中国,福建省,泉州市,金门县,,24.42931,118.32277,,,
2530,350502,中国,福建省,泉州市,鲤城区,,24.9075,118.58687,,,
2531,350600,中国,福建省,漳州市,,漳州,24.5204,117.67,120673,120099,
2532,350626,中国,福建省,漳州市,东山县,,23.70132,117.42964,,,
2533,350622,中国,福建省,漳州市,云霄县,,23.95806,117.33965,,,
2534,350629,中国,福建省,漳州市,华安县,,25.00446,117.53414,,,
2535,350627,中国,福建省,漳州市,南靖县,,24.51453,117.35742,,,
2536,350628,中国,福建省,漳州市,平和县,,24.36344,117.31587,,,
2537,350623,中国,福建省,漳州市,漳浦县,,24.1171,117.61372,,,
2538,350602,中国,福建省,漳州市,芗城区,,24.51067,117.65391,,,
2539,350624,中国,福建省,漳州市,诏安县,,23.71152,117.17508,,,
2540,350625,中国,福建省,漳州市,长泰县,,24.6258,117.75948,,,
2541,350603,中国,福建省,漳州市,龙文区,,24.5033,117.70984,,,
2542,350681,中国,福建省,漳州市,龙海市,,24.44658,117.81813,,,
2543,350100,中国,福建省,福州市,,福州,26.08,119.3,133923,102149,
2544,350104,中国,福建省,福州市,仓山区,,26.04769,119.27345,,,
2545,350103,中国,福建省,福州市,台江区,,26.0527,119.31414,,,
2546,350128,中国,福建省,福州市,平潭县,,25.49876,119.7901,,,
2547,350111,中国,福建省,福州市,晋安区,,26.08135,119.32842,,,
2548,350125,中国,福建省,福州市,永泰县,,25.86672,118.93258,,,
2549,350181,中国,福建省,福州市,福清市,,25.72024,119.38411,,,
2550,350123,中国,福建省,福州市,罗源县,,26.48939,119.54969,,,
2551,350122,中国,福建省,福州市,连江县,,26.19753,119.53957,,,
2552,350182,中国,福建省,福州市,长乐市,,25.96283,119.52324,,,
2553,350121,中国,福建省,福州市,闽侯县,,26.15021,119.13139,,,
2554,350124,中国,福建省,福州市,闽清县,,26.22117,118.86352,,,
2555,350105,中国,福建省,福州市,马尾区,,25.98939,119.4556,,,
2556,350102,中国,福建省,福州市,鼓楼区,,26.08198,119.30405,,,
2557,350300,中国,福建省,莆田市,,莆田,25.41878,118.99472,131773,109349,
2558,350322,中国,福建省,莆田市,仙游县,,25.36215,118.69181,,,
2559,350302,中国,福建省,莆田市,城厢区,,25.41878,118.99472,,,
2560,350303,中国,福建省,莆田市,涵江区,,25.45879,119.1163,,,
2561,350305,中国,福建省,莆田市,秀屿区,,25.31839,119.10642,,,
2562,350304,中国,福建省,莆田市,荔城区,,25.43131,119.01501,,,
2563,350800,中国,福建省,龙岩市,,龙岩,25.1804,117.03,114173,115099,
2564,350823,中国,福建省,龙岩市,上杭县,,25.04943,116.42026,,,
2565,350802,中国,福建省,龙岩市,新罗区,,25.09839,117.03736,,,
2566,350824,中国,福建省,龙岩市,武平县,,25.09535,116.10039,,,
2567,350822,中国,福建省,龙岩市,永定县,,24.72303,116.73202,,,
2568,350881,中国,福建省,龙岩市,漳平市,,25.29013,117.42001,,,
2569,350825,中国,福建省,龙岩市,连城县,,25.70997,116.75486,,,
2570,350821,中国,福建省,龙岩市,长汀县,,25.83348,116.35765,,,
2571,540000,中国,西藏自治区,,,,29.65004027,91.12082392,,,
2572,542200,中国,西藏自治区,山南地区,,山南,29.22484,91.76141,-115280,57990,
2573,542221,中国,西藏自治区,山南地区,乃东县,,29.22484,91.76141,,,
2574,542229,中国,西藏自治区,山南地区,加查县,,29.14023,92.59387,,,
2575,542222,中国,西藏自治区,山南地区,扎囊县,,29.245,91.33735,,,
2576,542227,中国,西藏自治区,山南地区,措美县,,28.43793,91.43361,,,
2577,542226,中国,西藏自治区,山南地区,曲松县,,29.06277,92.20222,,,
2578,542224,中国,西藏自治区,山南地区,桑日县,,29.25906,92.01579,,,
2579,542228,中国,西藏自治区,山南地区,洛扎县,,28.38569,90.85998,,,
2580,542233,中国,西藏自治区,山南地区,浪卡子县,,28.96818,90.39809,,,
2581,542225,中国,西藏自治区,山南地区,琼结县,,29.02464,91.68385,,,
2582,542223,中国,西藏自治区,山南地区,贡嘎县,,29.28947,90.98421,,,
2583,542232,中国,西藏自治区,山南地区,错那县,,27.99099,91.9571,,,
2584,542231,中国,西藏自治区,山南地区,隆子县,,28.40681,92.46177,,,
2585,540100,中国,西藏自治区,拉萨市,,拉萨,29.645,91.1,-120330,52490,
2586,540102,中国,西藏自治区,拉萨市,城关区,,29.65262,91.13775,,,
2587,540125,中国,西藏自治区,拉萨市,堆龙德庆县,,29.64602,91.00338,,,
2588,540127,中国,西藏自治区,拉萨市,墨竹工卡县,,29.83375,91.73065,,,
2589,540123,中国,西藏自治区,拉萨市,尼木县,,29.43184,90.16464,,,
2590,540122,中国,西藏自治区,拉萨市,当雄县,,30.47192,91.1013,,,
2591,540124,中国,西藏自治区,拉萨市,曲水县,,29.353,90.74367,,,
2592,540121,中国,西藏自治区,拉萨市,林周县,,29.89469,91.2619,,,
2593,540126,中国,西藏自治区,拉萨市,达孜县,,29.66933,91.34979,,,
2594,542300,中国,西藏自治区,日喀则地区,,日喀则,29.25,88.8833,-140420,52430,
2595,542334,中国,西藏自治区,日喀则地区,亚东县,,27.48592,88.90708,,,
2596,542330,中国,西藏自治区,日喀则地区,仁布县,,29.23089,89.842,,,
2597,542333,中国,西藏自治区,日喀则地区,仲巴县,,29.72419,84.02454,,,
2598,542322,中国,西藏自治区,日喀则地区,南木林县,,29.68224,89.09936,,,
2599,542335,中国,西藏自治区,日喀则地区,吉隆县,,28.85254,85.29737,,,
2600,542324,中国,西藏自治区,日喀则地区,定日县,,28.65874,87.12607,,,
2601,542332,中国,西藏自治区,日喀则地区,定结县,,28.36408,87.76606,,,
2602,542338,中国,西藏自治区,日喀则地区,岗巴县,,28.2746,88.52015,,,
2603,542331,中国,西藏自治区,日喀则地区,康马县,,28.55567,89.68169,,,
2604,542326,中国,西藏自治区,日喀则地区,拉孜县,,29.08164,87.63718,,,
2605,542327,中国,西藏自治区,日喀则地区,昂仁县,,29.29482,87.23617,,,
2606,540202,中国,西藏自治区,日喀则地区,桑珠孜区,,29.26969,88.88697,,,
2607,542323,中国,西藏自治区,日喀则地区,江孜县,,28.91152,89.60558,,,
2608,542329,中国,西藏自治区,日喀则地区,白朗县,,29.10765,89.26182,,,
2609,542336,中国,西藏自治区,日喀则地区,聂拉木县,,28.15499,85.98232,,,
2610,542337,中国,西藏自治区,日喀则地区,萨嘎县,,29.32943,85.23421,,,
2611,542325,中国,西藏自治区,日喀则地区,萨迦县,,28.89919,88.02172,,,
2612,542328,中国,西藏自治区,日喀则地区,谢通门县,,29.43234,88.26166,,,
2613,542100,中国,西藏自治区,昌都地区,,昌都,31.1667,97.2333,-65730,46400,
2614,542125,中国,西藏自治区,昌都地区,丁青县,,31.4125,95.59572,,,
2615,542127,中国,西藏自治区,昌都地区,八宿县,,30.0532,96.91785,,,
2616,542126,中国,西藏自治区,昌都地区,察雅县,,30.65363,97.56877,,,
2617,542128,中国,西藏自治区,昌都地区,左贡县,,29.67091,97.84085,,,
2618,542122,中国,西藏自治区,昌都地区,江达县,,31.49968,98.21822,,,
2619,542132,中国,西藏自治区,昌都地区,洛隆县,,30.74181,95.82482,,,
2620,542124,中国,西藏自治区,昌都地区,类乌齐县,,31.21155,96.6002,,,
2621,542129,中国,西藏自治区,昌都地区,芒康县,,29.68008,98.59312,,,
2622,542123,中国,西藏自治区,昌都地区,贡觉县,,30.86016,98.2708,,,
2623,542133,中国,西藏自治区,昌都地区,边坝县,,30.93345,94.7079,,,
2624,540302,中国,西藏自治区,昌都地区,卡若区,,31.13831,97.18039,,,
2625,542600,中国,西藏自治区,林芝地区,,林芝,29.5333,94.4167,-92130,57900,
2626,542624,中国,西藏自治区,林芝地区,墨脱县,,29.32521,95.33304,,,
2627,542626,中国,西藏自治区,林芝地区,察隅县,,28.66154,97.46687,,,
2628,542622,中国,西藏自治区,林芝地区,工布江达县,,29.88531,93.24611,,,
2629,542627,中国,西藏自治区,林芝地区,朗县,,29.04607,93.07482,,,
2630,542625,中国,西藏自治区,林芝地区,波密县,,29.85903,95.76761,,,
2631,542623,中国,西藏自治区,林芝地区,米林县,,29.21607,94.21315,,,
2632,540402,中国,西藏自治区,林芝地区,巴宜区,,29.63654,94.36119,,,
2633,542400,中国,西藏自治区,那曲地区,,那曲,31.47614,92.05136,-109270,35170,
2634,542431,中国,西藏自治区,那曲地区,双湖县,,33.18763,88.83691,,,
2635,542422,中国,西藏自治区,那曲地区,嘉黎县,,30.64087,93.23236,,,
2636,542425,中国,西藏自治区,那曲地区,安多县,,32.265,91.68258,,,
2637,542430,中国,西藏自治区,那曲地区,尼玛县,,31.78448,87.23691,,,
2638,542429,中国,西藏自治区,那曲地区,巴青县,,31.9184,94.05345,,,
2639,542423,中国,西藏自治区,那曲地区,比如县,,31.47785,93.6813,,,
2640,542428,中国,西藏自治区,那曲地区,班戈县,,31.39199,90.00987,,,
2641,542426,中国,西藏自治区,那曲地区,申扎县,,30.93043,88.70982,,,
2642,542427,中国,西藏自治区,那曲地区,索县,,31.88673,93.78556,,,
2643,542424,中国,西藏自治区,那曲地区,聂荣县,,32.10784,92.30327,,,
2644,542421,中国,西藏自治区,那曲地区,那曲县,,31.46988,92.05355,,,
2645,542500,中国,西藏自治区,阿里地区,,阿里,30.40051,81.1454,-185720,-1250,
2646,542523,中国,西藏自治区,阿里地区,噶尔县,,32.50028,80.0959,,,
2647,542527,中国,西藏自治区,阿里地区,措勤县,,31.0164,85.15253,,,
2648,542526,中国,西藏自治区,阿里地区,改则县,,32.30455,84.06305,,,
2649,542524,中国,西藏自治区,阿里地区,日土县,,33.38747,79.71317,,,
2650,542521,中国,西藏自治区,阿里地区,普兰县,,30.29326,81.17739,,,
2651,542522,中国,西藏自治区,阿里地区,札达县,,31.47865,79.80321,,,
2652,542525,中国,西藏自治区,阿里地区,革吉县,,32.39645,81.15106,,,
2653,520000,中国,贵州省,,,,26.604029544994923,106.71447593088575,,,
2654,520200,中国,贵州省,六盘水市,,六盘水,26.5944,104.8333,1420,101010,
2655,520203,中国,贵州省,六盘水市,六枝特区,,26.20141,105.48025,,,
2656,520221,中国,贵州省,六盘水市,水城县,,26.54658,104.95764,,,
2657,520222,中国,贵州省,六盘水市,盘县,,25.70993,104.47158,,,
2658,520201,中国,贵州省,六盘水市,钟山区,,26.57585,104.84447,,,
2659,520400,中国,贵州省,安顺市,,安顺,26.2504,105.93,11420,104920,
2660,520424,中国,贵州省,安顺市,关岭布依族苗族自治县,,25.94357,105.61933,,,
2661,520421,中国,贵州省,安顺市,平坝县,,26.40574,106.2553,,,
2662,520422,中国,贵州省,安顺市,普定县,,26.30144,105.74291,,,
2663,520425,中国,贵州省,安顺市,紫云苗族布依族自治县,,25.75117,106.08404,,,
2664,520402,中国,贵州省,安顺市,西秀区,,26.24532,105.96533,,,
2665,520423,中国,贵州省,安顺市,镇宁布依族苗族自治县,,26.05716,105.77048,,,
2666,522400,中国,贵州省,毕节地区,,毕节,27.29847,105.30504,5870,93860,
2667,520502,中国,贵州省,毕节地区,七星关区,,27.29847,105.30504,,,
2668,522422,中国,贵州省,毕节地区,大方县,,27.14161,105.613,,,
2669,522427,中国,贵州省,毕节地区,威宁彝族回族苗族自治县,,26.85641,104.27872,,,
2670,522426,中国,贵州省,毕节地区,纳雍县,,26.7777,105.38269,,,
2671,522425,中国,贵州省,毕节地区,织金县,,26.66301,105.77488,,,
2672,522428,中国,贵州省,毕节地区,赫章县,,27.12328,104.7274,,,
2673,522424,中国,贵州省,毕节地区,金沙县,,27.45922,106.22014,,,
2674,522423,中国,贵州省,毕节地区,黔西县,,27.00866,106.0323,,,
2675,520100,中国,贵州省,贵阳市,,贵阳,26.58,106.72,17730,101020,
2676,520112,中国,贵州省,贵阳市,乌当区,,26.62959,106.75208,,,
2677,520103,中国,贵州省,贵阳市,云岩区,,26.60491,106.72566,,,
2678,520123,中国,贵州省,贵阳市,修文县,,26.8389,106.59203,,,
2679,520102,中国,贵州省,贵阳市,南明区,,26.56822,106.7141,,,
2680,520121,中国,贵州省,贵阳市,开阳县,,27.05759,106.96486,,,
2681,520122,中国,贵州省,贵阳市,息烽县,,27.09053,106.7404,,,
2682,520181,中国,贵州省,贵阳市,清镇市,,26.55607,106.47057,,,
2683,520113,中国,贵州省,贵阳市,白云区,,26.67856,106.62304,,,
2684,520111,中国,贵州省,贵阳市,花溪区,,26.40985,106.67034,,,
2685,520115,中国,贵州省,贵阳市,观山湖区,,26.6015,106.62254,,,
2686,520300,中国,贵州省,遵义市,,遵义,27.7,106.92,20720,89750,
2687,520330,中国,贵州省,遵义市,习水县,,28.3274,106.20385,,,
2688,520382,中国,贵州省,遵义市,仁怀市,,27.79234,106.40156,,,
2689,520329,中国,贵州省,遵义市,余庆县,,27.22536,107.88825,,,
2690,520327,中国,贵州省,遵义市,凤冈县,,27.95465,107.71689,,,
2691,520326,中国,贵州省,遵义市,务川仡佬族苗族自治县,,28.56295,107.89888,,,
2692,520322,中国,贵州省,遵义市,桐梓县,,28.13321,106.82502,,,
2693,520324,中国,贵州省,遵义市,正安县,,28.55011,107.44402,,,
2694,520303,中国,贵州省,遵义市,汇川区,,27.74979,106.93252,,,
2695,520328,中国,贵州省,遵义市,湄潭县,,27.74889,107.46551,,,
2696,520302,中国,贵州省,遵义市,红花岗区,,27.64481,106.8938,,,
2697,520323,中国,贵州省,遵义市,绥阳县,,27.94705,107.1907,,,
2698,520381,中国,贵州省,遵义市,赤水市,,28.59055,105.69744,,,
2699,520325,中国,贵州省,遵义市,道真仡佬族苗族自治县,,28.86264,107.61316,,,
2700,520321,中国,贵州省,遵义市,遵义县,,27.53625,106.82922,,,
2701,522200,中国,贵州省,铜仁地区,,铜仁,27.69066,109.18099,41230,90370,
2702,520603,中国,贵州省,铜仁地区,万山区,,27.51796,109.21369,,,
2703,522226,中国,贵州省,铜仁地区,印江土家族苗族自治县,,27.9941,108.40958,,,
2704,522227,中国,贵州省,铜仁地区,德江县,,28.26408,108.11987,,,
2705,522225,中国,贵州省,铜仁地区,思南县,,27.93886,108.2528,,,
2706,522229,中国,贵州省,铜仁地区,松桃苗族自治县,,28.15414,109.20316,,,
2707,522222,中国,贵州省,铜仁地区,江口县,,27.69956,108.83967,,,
2708,522228,中国,贵州省,铜仁地区,沿河土家族自治县,,28.56397,108.50301,,,
2709,522223,中国,贵州省,铜仁地区,玉屏侗族自治县,,27.23637,108.91212,,,
2710,522224,中国,贵州省,铜仁地区,石阡县,,27.51339,108.22338,,,
2711,520602,中国,贵州省,铜仁地区,碧江区,,27.69066,109.18099,,,
2712,522600,中国,贵州省,黔东南苗族侗族自治州,,黔东南,26.58364,107.98416,33480,102960,
2713,522624,中国,贵州省,黔东南苗族侗族自治州,三穗县,,26.95291,108.67533,,,
2714,522636,中国,贵州省,黔东南苗族侗族自治州,丹寨县,,26.19841,107.78871,,,
2715,522633,中国,贵州省,黔东南苗族侗族自治州,从江县,,25.75418,108.90532,,,
2716,522601,中国,贵州省,黔东南苗族侗族自治州,凯里市,,26.56756,107.9804,,,
2717,522629,中国,贵州省,黔东南苗族侗族自治州,剑河县,,26.7286,108.44137,,,
2718,522630,中国,贵州省,黔东南苗族侗族自治州,台江县,,26.66903,108.32009,,,
2719,522627,中国,贵州省,黔东南苗族侗族自治州,天柱县,,26.90948,109.20776,,,
2720,522626,中国,贵州省,黔东南苗族侗族自治州,岑巩县,,27.17385,108.8157,,,
2721,522623,中国,贵州省,黔东南苗族侗族自治州,施秉县,,27.03327,108.12413,,,
2722,522632,中国,贵州省,黔东南苗族侗族自治州,榕江县,,25.93189,108.52251,,,
2723,522628,中国,贵州省,黔东南苗族侗族自治州,锦屏县,,26.67631,109.20051,,,
2724,522625,中国,贵州省,黔东南苗族侗族自治州,镇远县,,27.04914,108.42968,,,
2725,522634,中国,贵州省,黔东南苗族侗族自治州,雷山县,,26.37834,108.07758,,,
2726,522635,中国,贵州省,黔东南苗族侗族自治州,麻江县,,26.49115,107.58937,,,
2727,522622,中国,贵州省,黔东南苗族侗族自治州,黄平县,,26.90533,107.91638,,,
2728,522631,中国,贵州省,黔东南苗族侗族自治州,黎平县,,26.22924,109.13718,,,
2729,522700,中国,贵州省,黔南布依族苗族自治州,,黔南,26.25427,107.52226,21330,108590,
2730,522732,中国,贵州省,黔南布依族苗族自治州,三都水族自治县,,25.98326,107.86971,,,
2731,522727,中国,贵州省,黔南布依族苗族自治州,平塘县,,25.82249,107.32287,,,
2732,522731,中国,贵州省,黔南布依族苗族自治州,惠水县,,26.1329,106.6567,,,
2733,522726,中国,贵州省,黔南布依族苗族自治州,独山县,,25.82279,107.54578,,,
2734,522725,中国,贵州省,黔南布依族苗族自治州,瓮安县,,27.0779,107.47106,,,
2735,522702,中国,贵州省,黔南布依族苗族自治州,福泉市,,26.68651,107.5207,,,
2736,522728,中国,贵州省,黔南布依族苗族自治州,罗甸县,,25.42536,106.75171,,,
2737,522722,中国,贵州省,黔南布依族苗族自治州,荔波县,,25.41124,107.88732,,,
2738,522723,中国,贵州省,黔南布依族苗族自治州,贵定县,,26.58498,107.23447,,,
2739,522701,中国,贵州省,黔南布依族苗族自治州,都匀市,,26.25979,107.51867,,,
2740,522729,中国,贵州省,黔南布依族苗族自治州,长顺县,,26.02214,106.45244,,,
2741,522730,中国,贵州省,黔南布依族苗族自治州,龙里县,,26.45325,106.97981,,,
2742,522300,中国,贵州省,黔西南布依族苗族自治州,,黔西南,25.08988,104.90437,6480,114890,
2743,522301,中国,贵州省,黔西南布依族苗族自治州,兴义市,,25.09192,104.89553,,,
2744,522322,中国,贵州省,黔西南布依族苗族自治州,兴仁县,,25.43511,105.18639,,,
2745,522327,中国,贵州省,黔西南布依族苗族自治州,册亨县,,24.98368,105.81173,,,
2746,522328,中国,贵州省,黔西南布依族苗族自治州,安龙县,,25.09811,105.44333,,,
2747,522323,中国,贵州省,黔西南布依族苗族自治州,普安县,,25.78429,104.95324,,,
2748,522324,中国,贵州省,黔西南布依族苗族自治州,晴隆县,,25.83474,105.21904,,,
2749,522326,中国,贵州省,黔西南布依族苗族自治州,望谟县,,25.17824,106.09962,,,
2750,522325,中国,贵州省,黔西南布依族苗族自治州,贞丰县,,25.38558,105.65043,,,
2751,210000,中国,辽宁省,,,,41.84146525120185,123.43559785683209,,,
2752,210600,中国,辽宁省,丹东市,,丹东,40.1436,124.3936,162060,-50310,
2753,210681,中国,辽宁省,丹东市,东港市,,39.86172,124.15209,,,
2754,210602,中国,辽宁省,丹东市,元宝区,,40.13673,124.39582,,,
2755,210682,中国,辽宁省,丹东市,凤城市,,40.45279,124.06605,,,
2756,210624,中国,辽宁省,丹东市,宽甸满族自治县,,40.73131,124.78366,,,
2757,210603,中国,辽宁省,丹东市,振兴区,,40.10495,124.36041,,,
2758,210604,中国,辽宁省,丹东市,振安区,,40.15823,124.4282,,,
2759,210200,中国,辽宁省,大连市,,大连,38.95223,121.5255,141740,-35700,
2760,210202,中国,辽宁省,大连市,中山区,,38.91864,121.64511,,,
2761,210283,中国,辽宁省,大连市,庄河市,,39.68037,122.96611,,,
2762,210212,中国,辽宁省,大连市,旅顺口区,,38.85129,121.26208,,,
2763,210282,中国,辽宁省,大连市,普兰店市,,39.39443,121.96323,,,
2764,210204,中国,辽宁省,大连市,沙河口区,,38.90463,121.59451,,,
2765,210281,中国,辽宁省,大连市,瓦房店市,,39.62644,121.97995,,,
2766,210211,中国,辽宁省,大连市,甘井子区,,38.95223,121.5255,,,
2767,210203,中国,辽宁省,大连市,西岗区,,38.91478,121.61234,,,
2768,210213,中国,辽宁省,大连市,金州区,,39.05015,121.78259,,,
2769,210224,中国,辽宁省,大连市,长海县,,39.27276,122.58861,,,
2770,210400,中国,辽宁省,抚顺市,,抚顺,41.8654,123.87,156340,-69470,
2771,210403,中国,辽宁省,抚顺市,东洲区,,41.85301,124.03923,,,
2772,210421,中国,辽宁省,抚顺市,抚顺县,,41.78616,124.19596,,,
2773,210422,中国,辽宁省,抚顺市,新宾满族自治县,,41.73371,125.03979,,,
2774,210402,中国,辽宁省,抚顺市,新抚区,,41.85928,123.87415,,,
2775,210404,中国,辽宁省,抚顺市,望花区,,41.85329,123.78439,,,
2776,210423,中国,辽宁省,抚顺市,清原满族自治县,,42.10038,124.92411,,,
2777,210411,中国,辽宁省,抚顺市,顺城区,,41.88307,123.94513,,,
2778,211300,中国,辽宁省,朝阳市,,朝阳,41.5504,120.42,129040,-62710,
2779,211382,中国,辽宁省,朝阳市,凌源市,,41.24548,119.40134,,,
2780,211381,中国,辽宁省,朝阳市,北票市,,41.8008,120.77091,,,
2781,211302,中国,辽宁省,朝阳市,双塔区,,41.5657,120.45372,,,
2782,211324,中国,辽宁省,朝阳市,喀喇沁左翼蒙古族自治县,,41.12738,119.74048,,,
2783,211322,中国,辽宁省,朝阳市,建平县,,41.4032,119.64396,,,
2784,211321,中国,辽宁省,朝阳市,朝阳县,,41.36782,120.29592,,,
2785,211303,中国,辽宁省,朝阳市,龙城区,,41.59973,120.41555,,,
2786,210500,中国,辽宁省,本溪市,,本溪,41.3304,123.75,154620,-64830,
2787,210505,中国,辽宁省,本溪市,南芬区,,41.10031,123.74509,,,
2788,210502,中国,辽宁省,本溪市,平山区,,41.22132,123.68338,,,
2789,210504,中国,辽宁省,本溪市,明山区,,41.30877,123.81695,,,
2790,210521,中国,辽宁省,本溪市,本溪满族自治县,,41.3027,124.12193,,,
2791,210522,中国,辽宁省,本溪市,桓仁满族自治县,,41.26706,125.36096,,,
2792,210503,中国,辽宁省,本溪市,溪湖区,,41.32919,123.76769,,,
2793,210100,中国,辽宁省,沈阳市,,沈阳,41.805,123.45,152750,-66790,
2794,210114,中国,辽宁省,沈阳市,于洪区,,41.79407,123.30813,,,
2795,210102,中国,辽宁省,沈阳市,和平区,,41.78978,123.42056,,,
2796,210104,中国,辽宁省,沈阳市,大东区,,41.80515,123.46987,,,
2797,210123,中国,辽宁省,沈阳市,康平县,,42.7499,123.35349,,,
2798,210181,中国,辽宁省,沈阳市,新民市,,41.99767,122.828,,,
2799,210113,中国,辽宁省,沈阳市,沈北新区,,41.91303,123.58424,,,
2800,210103,中国,辽宁省,沈阳市,沈河区,,41.79607,123.45852,,,
2801,210124,中国,辽宁省,沈阳市,法库县,,42.50403,123.40838,,,
2802,210112,中国,辽宁省,沈阳市,浑南区,,41.71482,123.44972,,,
2803,210105,中国,辽宁省,沈阳市,皇姑区,,41.82465,123.44168,,,
2804,210111,中国,辽宁省,沈阳市,苏家屯区,,41.66472,123.34432,,,
2805,210122,中国,辽宁省,沈阳市,辽中县,,41.51685,122.76549,,,
2806,210106,中国,辽宁省,沈阳市,铁西区,,41.80283,123.3768,,,
2807,211100,中国,辽宁省,盘锦市,,盘锦,41.00247,122.08245,143270,-55290,
2808,211103,中国,辽宁省,盘锦市,兴隆台区,,41.13876,122.10558,,,
2809,211102,中国,辽宁省,盘锦市,双台子区,,41.19049,122.06017,,,
2810,211121,中国,辽宁省,盘锦市,大洼县,,41.00247,122.08245,,,
2811,211122,中国,辽宁省,盘锦市,盘山县,,41.24265,121.9963,,,
2812,210800,中国,辽宁省,营口市,,营口,40.6703,122.28,144440,-54190,
2813,210882,中国,辽宁省,营口市,大石桥市,,40.64448,122.50917,,,
2814,210881,中国,辽宁省,营口市,盖州市,,40.40053,122.3488,,,
2815,210802,中国,辽宁省,营口市,站前区,,40.67293,122.25901,,,
2816,210811,中国,辽宁省,营口市,老边区,,40.68038,122.37968,,,
2817,210803,中国,辽宁省,营口市,西市区,,40.66629,122.20646,,,
2818,210804,中国,辽宁省,营口市,鲅鱼圈区,,40.22675,122.12169,,,
2819,211400,中国,辽宁省,葫芦岛市,,葫芦岛,40.77526,120.86908,133250,-53910,
2820,211481,中国,辽宁省,葫芦岛市,兴城市,,40.61018,120.75619,,,
2821,211404,中国,辽宁省,葫芦岛市,南票区,,41.10714,120.74985,,,
2822,211422,中国,辽宁省,葫芦岛市,建昌县,,40.82408,119.83715,,,
2823,211421,中国,辽宁省,葫芦岛市,绥中县,,40.32565,120.34431,,,
2824,211402,中国,辽宁省,葫芦岛市,连山区,,40.77526,120.86908,,,
2825,211403,中国,辽宁省,葫芦岛市,龙港区,,40.73545,120.89393,,,
2826,211000,中国,辽宁省,辽阳市,,辽阳,41.28,123.18,151730,-62200,
2827,211011,中国,辽宁省,辽阳市,太子河区,,41.29225,123.13278,,,
2828,211004,中国,辽宁省,辽阳市,宏伟区,,41.21725,123.19637,,,
2829,211005,中国,辽宁省,辽阳市,弓长岭区,,41.15171,123.42052,,,
2830,211003,中国,辽宁省,辽阳市,文圣区,,41.26776,123.23699,,,
2831,211081,中国,辽宁省,辽阳市,灯塔市,,41.42616,123.3393,,,
2832,211002,中国,辽宁省,辽阳市,白塔区,,41.27031,123.17424,,,
2833,211021,中国,辽宁省,辽阳市,辽阳县,,41.20546,123.10578,,,
2834,211200,中国,辽宁省,铁岭市,,铁岭,42.3004,123.82,153710,-72900,
2835,211282,中国,辽宁省,铁岭市,开原市,,42.54645,124.0382,,,
2836,211224,中国,辽宁省,铁岭市,昌图县,,42.78613,124.11092,,,
2837,211204,中国,辽宁省,铁岭市,清河区,,42.54682,124.15916,,,
2838,211223,中国,辽宁省,铁岭市,西丰县,,42.73835,124.72734,,,
2839,211281,中国,辽宁省,铁岭市,调兵山市,,42.46755,123.5669,,,
2840,211221,中国,辽宁省,铁岭市,铁岭县,,42.22284,123.72783,,,
2841,211202,中国,辽宁省,铁岭市,银州区,,42.2862,123.84241,,,
2842,210700,中国,辽宁省,锦州市,,锦州,41.11728,121.12834,135150,-58220,
2843,210727,中国,辽宁省,锦州市,义县,,41.53311,121.23915,,,
2844,210703,中国,辽宁省,锦州市,凌河区,,41.11512,121.15126,,,
2845,210781,中国,辽宁省,锦州市,凌海市,,41.17371,121.35771,,,
2846,210782,中国,辽宁省,锦州市,北镇市,,41.59465,121.79854,,,
2847,210702,中国,辽宁省,锦州市,古塔区,,41.11728,121.12834,,,
2848,210711,中国,辽宁省,锦州市,太和区,,41.10897,121.10378,,,
2849,210726,中国,辽宁省,锦州市,黑山县,,41.69391,122.12066,,,
2850,210900,中国,辽宁省,阜新市,,阜新,42.0105,121.66,138150,-68510,
2851,210904,中国,辽宁省,阜新市,太平区,,42.01072,121.67865,,,
2852,210922,中国,辽宁省,阜新市,彰武县,,42.38649,122.53889,,,
2853,210903,中国,辽宁省,阜新市,新邱区,,42.08742,121.79232,,,
2854,210902,中国,辽宁省,阜新市,海州区,,42.01332,121.65617,,,
2855,210905,中国,辽宁省,阜新市,清河门区,,41.78306,121.41614,,,
2856,210911,中国,辽宁省,阜新市,细河区,,42.02539,121.68008,,,
2857,210921,中国,辽宁省,阜新市,阜新蒙古族自治县,,42.06514,121.75791,,,
2858,210300,中国,辽宁省,鞍山市,,鞍山,41.115,122.94,149990,-60180,
2859,210311,中国,辽宁省,鞍山市,千山区,,41.06462,122.95412,,,
2860,210321,中国,辽宁省,鞍山市,台安县,,41.41269,122.43591,,,
2861,210323,中国,辽宁省,鞍山市,岫岩满族自治县,,40.28998,123.28171,,,
2862,210381,中国,辽宁省,鞍山市,海城市,,40.88145,122.68463,,,
2863,210304,中国,辽宁省,鞍山市,立山区,,41.15013,123.02952,,,
2864,210302,中国,辽宁省,鞍山市,铁东区,,41.08994,122.9912,,,
2865,210303,中国,辽宁省,鞍山市,铁西区,,41.11956,122.96939,,,
2866,500000,中国,重庆市,,,重庆,29.40268,106.54041,17213,69789,
2867,500101,中国,重庆市,重庆市,万州区,,30.8079,108.40873,,,
2868,500230,中国,重庆市,重庆市,丰都县,,29.86352,107.73085,,,
2869,500107,中国,重庆市,重庆市,九龙坡区,,29.50207,106.5114,,,
2870,500235,中国,重庆市,重庆市,云阳县,,30.93063,108.69698,,,
2871,500109,中国,重庆市,重庆市,北碚区,,29.80583,106.39628,,,
2872,500108,中国,重庆市,重庆市,南岸区,,29.52168,106.56256,,,
2873,500119,中国,重庆市,重庆市,南川区,,29.15788,107.09896,,,
2874,500117,中国,重庆市,重庆市,合川区,,29.97288,106.27679,,,
2875,500231,中国,重庆市,重庆市,垫江县,,30.3268,107.33515,,,
2876,500229,中国,重庆市,重庆市,城口县,,31.94767,108.66433,,,
2877,500104,中国,重庆市,重庆市,大渡口区,,29.48408,106.48225,,,
2878,500111,中国,重庆市,重庆市,大足区,,29.48604,105.78017,,,
2879,500236,中国,重庆市,重庆市,奉节县,,31.01846,109.46406,,,
2880,500237,中国,重庆市,重庆市,巫山县,,31.07462,109.8788,,,
2881,500238,中国,重庆市,重庆市,巫溪县,,31.3986,109.57016,,,
2882,500113,中国,重庆市,重庆市,巴南区,,29.40268,106.54041,,,
2883,500234,中国,重庆市,重庆市,开县,,31.16098,108.39311,,,
2884,500243,中国,重庆市,重庆市,彭水苗族土家族自治县,,29.29376,108.16555,,,
2885,500233,中国,重庆市,重庆市,忠县,,30.30026,108.03767,,,
2886,500228,中国,重庆市,重庆市,梁平县,,30.67373,107.80235,,,
2887,500232,中国,重庆市,重庆市,武隆县,,29.32543,107.75993,,,
2888,500118,中国,重庆市,重庆市,永川区,,29.356,105.92709,,,
2889,500105,中国,重庆市,重庆市,江北区,,29.60661,106.57439,,,
2890,500116,中国,重庆市,重庆市,江津区,,29.29014,106.25936,,,
2891,500106,中国,重庆市,重庆市,沙坪坝区,,29.54098,106.45773,,,
2892,500102,中国,重庆市,重庆市,涪陵区,,29.70239,107.38779,,,
2893,500103,中国,重庆市,重庆市,渝中区,,29.55314,106.5686,,,
2894,500112,中国,重庆市,重庆市,渝北区,,29.71798,106.63043,,,
2895,500223,中国,重庆市,重庆市,潼南县,,30.19054,105.83952,,,
2896,500120,中国,重庆市,重庆市,璧山区,,29.59202,106.22742,,,
2897,500240,中国,重庆市,重庆市,石柱土家族自治县,,29.99968,108.11415,,,
2898,500241,中国,重庆市,重庆市,秀山土家族苗族自治县,,28.44832,109.00714,,,
2899,500110,中国,重庆市,重庆市,綦江区,,28.96463,106.92852,,,
2900,500226,中国,重庆市,重庆市,荣昌县,,29.41671,105.61188,,,
2901,500242,中国,重庆市,重庆市,酉阳土家族苗族自治县,,28.84126,108.76778,,,
2902,500151,中国,重庆市,重庆市,铜梁区,,29.84475,106.05638,,,
2903,500115,中国,重庆市,重庆市,长寿区,,29.85781,107.08105,,,
2904,500114,中国,重庆市,重庆市,黔江区,,29.53348,108.77079,,,
2905,610000,中国,陕西省,,,,34.27580800602361,108.96039314875111,,,
2906,610400,中国,陕西省,咸阳市,,咸阳,34.3456,108.7147,36240,18470,
2907,610422,中国,陕西省,咸阳市,三原县,,34.61704,108.9404,,,
2908,610424,中国,陕西省,咸阳市,乾县,,34.52761,108.2394,,,
2909,610481,中国,陕西省,咸阳市,兴平市,,34.29932,108.4904,,,
2910,610427,中国,陕西省,咸阳市,彬县,,35.03565,108.08108,,,
2911,610429,中国,陕西省,咸阳市,旬邑县,,35.11184,108.33371,,,
2912,610403,中国,陕西省,咸阳市,杨陵区,,34.27221,108.08455,,,
2913,610431,中国,陕西省,咸阳市,武功县,,34.26036,108.20018,,,
2914,610426,中国,陕西省,咸阳市,永寿县,,34.69192,108.14216,,,
2915,610423,中国,陕西省,咸阳市,泾阳县,,34.52709,108.84262,,,
2916,610430,中国,陕西省,咸阳市,淳化县,,34.79873,108.58059,,,
2917,610404,中国,陕西省,咸阳市,渭城区,,34.36126,108.73751,,,
2918,610425,中国,陕西省,咸阳市,礼泉县,,34.48165,108.42496,,,
2919,610402,中国,陕西省,咸阳市,秦都区,,34.32908,108.70641,,,
2920,610428,中国,陕西省,咸阳市,长武县,,35.20571,107.79866,,,
2921,611000,中国,陕西省,商洛市,,商洛,33.86273,109.94107,47100,23400,
2922,611022,中国,陕西省,商洛市,丹凤县,,33.69585,110.32721,,,
2923,611023,中国,陕西省,商洛市,商南县,,33.53112,110.88158,,,
2924,611002,中国,陕西省,商洛市,商州区,,33.86273,109.94107,,,
2925,611024,中国,陕西省,商洛市,山阳县,,33.53218,109.88193,,,
2926,611026,中国,陕西省,商洛市,柞水县,,33.68607,109.1142,,,
2927,611021,中国,陕西省,商洛市,洛南县,,34.09081,110.14833,,,
2928,611025,中国,陕西省,商洛市,镇安县,,33.42337,109.15258,,,
2929,610900,中国,陕西省,安康市,,安康,32.68,109.02,39340,36260,
2930,610923,中国,陕西省,安康市,宁陕县,,33.31049,108.31428,,,
2931,610925,中国,陕西省,安康市,岚皋县,,32.30715,108.90222,,,
2932,610926,中国,陕西省,安康市,平利县,,32.38903,109.3618,,,
2933,610928,中国,陕西省,安康市,旬阳县,,32.83417,109.3652,,,
2934,610902,中国,陕西省,安康市,汉滨区,,32.6955,109.02697,,,
2935,610921,中国,陕西省,安康市,汉阴县,,32.89314,108.50866,,,
2936,610929,中国,陕西省,安康市,白河县,,32.80906,110.11261,,,
2937,610922,中国,陕西省,安康市,石泉县,,33.03829,108.24843,,,
2938,610924,中国,陕西省,安康市,紫阳县,,32.52025,108.53419,,,
2939,610927,中国,陕西省,安康市,镇坪县,,31.88376,109.52677,,,
2940,610300,中国,陕西省,宝鸡市,,宝鸡,34.38,107.15,22710,18140,
2941,610330,中国,陕西省,宝鸡市,凤县,,33.91227,106.52203,,,
2942,610322,中国,陕西省,宝鸡市,凤翔县,,34.52114,107.40076,,,
2943,610328,中国,陕西省,宝鸡市,千阳县,,34.6426,107.13237,,,
2944,610331,中国,陕西省,宝鸡市,太白县,,34.05825,107.3191,,,
2945,610323,中国,陕西省,宝鸡市,岐山县,,34.44346,107.62101,,,
2946,610324,中国,陕西省,宝鸡市,扶风县,,34.37527,107.90022,,,
2947,610302,中国,陕西省,宝鸡市,渭滨区,,34.35513,107.15526,,,
2948,610326,中国,陕西省,宝鸡市,眉县,,34.2741,107.74992,,,
2949,610303,中国,陕西省,宝鸡市,金台区,,34.39029,107.13126,,,
2950,610327,中国,陕西省,宝鸡市,陇县,,34.89305,106.8643,,,
2951,610304,中国,陕西省,宝鸡市,陈仓区,,34.35454,107.38745,,,
2952,610329,中国,陕西省,宝鸡市,麟游县,,34.67793,107.79339,,,
2953,610600,中国,陕西省,延安市,,延安,36.86373,109.32897,42690,-4840,
2954,610626,中国,陕西省,延安市,吴起县,,36.92728,108.17587,,,
2955,610623,中国,陕西省,延安市,子长县,,37.14258,109.67538,,,
2956,610624,中国,陕西省,延安市,安塞县,,36.86373,109.32897,,,
2957,610630,中国,陕西省,延安市,宜川县,,36.05026,110.16899,,,
2958,610602,中国,陕西省,延安市,宝塔区,,36.59141,109.49303,,,
2959,610628,中国,陕西省,延安市,富县,,35.98779,109.37976,,,
2960,610622,中国,陕西省,延安市,延川县,,36.87813,110.19375,,,
2961,610621,中国,陕西省,延安市,延长县,,36.5793,110.01242,,,
2962,610625,中国,陕西省,延安市,志丹县,,36.82235,108.76845,,,
2963,610629,中国,陕西省,延安市,洛川县,,35.7619,109.43238,,,
2964,610627,中国,陕西省,延安市,甘泉县,,36.27673,109.3513,,,
2965,610632,中国,陕西省,延安市,黄陵县,,35.57937,109.26291,,,
2966,610631,中国,陕西省,延安市,黄龙县,,35.58432,109.84018,,,
2967,610800,中国,陕西省,榆林市,,榆林,37.95871,109.29315,45100,-22770,
2968,610828,中国,陕西省,榆林市,佳县,,38.01959,110.49136,,,
2969,610829,中国,陕西省,榆林市,吴堡县,,37.45224,110.73967,,,
2970,610831,中国,陕西省,榆林市,子洲县,,37.61075,110.03526,,,
2971,610825,中国,陕西省,榆林市,定边县,,37.59454,107.60128,,,
2972,610822,中国,陕西省,榆林市,府谷县,,39.02806,111.06764,,,
2973,610802,中国,陕西省,榆林市,榆阳区,,38.27658,109.72126,,,
2974,610823,中国,陕西省,榆林市,横山县,,37.95871,109.29315,,,
2975,610830,中国,陕西省,榆林市,清涧县,,37.0889,110.12114,,,
2976,610821,中国,陕西省,榆林市,神木县,,38.84239,110.49896,,,
2977,610827,中国,陕西省,榆林市,米脂县,,37.75484,110.18394,,,
2978,610826,中国,陕西省,榆林市,绥德县,,37.50278,110.26317,,,
2979,610824,中国,陕西省,榆林市,靖边县,,37.59931,108.79568,,,
2980,610700,中国,陕西省,汉中市,,汉中,33.13,107.03,21530,31820,
2981,610730,中国,陕西省,汉中市,佛坪县,,33.52449,107.9905,,,
2982,610725,中国,陕西省,汉中市,勉县,,33.15362,106.67314,,,
2983,610721,中国,陕西省,汉中市,南郑县,,32.99932,106.93624,,,
2984,610722,中国,陕西省,汉中市,城固县,,33.15665,107.33372,,,
2985,610726,中国,陕西省,汉中市,宁强县,,32.82962,106.2572,,,
2986,610702,中国,陕西省,汉中市,汉台区,,33.06784,107.03194,,,
2987,610723,中国,陕西省,汉中市,洋县,,33.22275,107.54565,,,
2988,610729,中国,陕西省,汉中市,留坝县,,33.61758,106.92076,,,
2989,610727,中国,陕西省,汉中市,略阳县,,33.32733,106.1566,,,
2990,610724,中国,陕西省,汉中市,西乡县,,32.98306,107.76669,,,
2991,610728,中国,陕西省,汉中市,镇巴县,,32.53666,107.89502,,,
2992,610500,中国,陕西省,渭南市,,渭南,34.5004,109.5001,43160,16830,
2993,610502,中国,陕西省,渭南市,临渭区,,34.49823,109.49217,,,
2994,610521,中国,陕西省,渭南市,华县,,34.51259,109.7719,,,
2995,610582,中国,陕西省,渭南市,华阴市,,34.56602,110.09207,,,
2996,610524,中国,陕西省,渭南市,合阳县,,35.23752,110.14928,,,
2997,610523,中国,陕西省,渭南市,大荔县,,34.79566,109.94217,,,
2998,610528,中国,陕西省,渭南市,富平县,,34.75114,109.18025,,,
2999,610522,中国,陕西省,渭南市,潼关县,,34.54438,110.24656,,,
3000,610525,中国,陕西省,渭南市,澄城县,,35.19024,109.93226,,,
3001,610527,中国,陕西省,渭南市,白水县,,35.1771,109.59102,,,
3002,610526,中国,陕西省,渭南市,蒲城县,,34.95517,109.58646,,,
3003,610581,中国,陕西省,渭南市,韩城市,,35.47669,110.44243,,,
3004,610100,中国,陕西省,西安市,,西安,34.275,108.895,38270,19470,
3005,610115,中国,陕西省,西安市,临潼区,,34.3667,109.21421,,,
3006,610124,中国,陕西省,西安市,周至县,,34.1634,108.22213,,,
3007,610125,中国,陕西省,西安市,户县,,34.10847,108.60494,,,
3008,610102,中国,陕西省,西安市,新城区,,34.26665,108.96074,,,
3009,610112,中国,陕西省,西安市,未央区,,34.29318,108.94712,,,
3010,610111,中国,陕西省,西安市,灞桥区,,34.2727,109.06458,,,
3011,610103,中国,陕西省,西安市,碑林区,,34.23053,108.93425,,,
3012,610104,中国,陕西省,西安市,莲湖区,,34.26703,108.9402,,,
3013,610122,中国,陕西省,西安市,蓝田县,,34.15132,109.32345,,,
3014,610116,中国,陕西省,西安市,长安区,,34.15775,108.90688,,,
3015,610114,中国,陕西省,西安市,阎良区,,34.66225,109.2262,,,
3016,610113,中国,陕西省,西安市,雁塔区,,34.22259,108.94878,,,
3017,610126,中国,陕西省,西安市,高陵县,,34.53487,109.08822,,,
3018,610200,中国,陕西省,铜川市,,铜川,35.08,109.03,38490,12690,
3019,610203,中国,陕西省,铜川市,印台区,,35.11473,109.09986,,,
3020,610222,中国,陕西省,铜川市,宜君县,,35.39877,109.11689,,,
3021,610202,中国,陕西省,铜川市,王益区,,35.06914,109.07593,,,
3022,610204,中国,陕西省,铜川市,耀州区,,34.90978,108.98011,,,
3023,630000,中国,青海省,,,,36.62935165833543,101.78537335908116,,,
3024,632600,中国,青海省,果洛藏族自治州,,果洛,34.47141,100.24475,-34190,13680,
3025,632625,中国,青海省,果洛藏族自治州,久治县,,33.42928,101.48289,,,
3026,632626,中国,青海省,果洛藏族自治州,玛多县,,34.91508,98.20934,,,
3027,632621,中国,青海省,果洛藏族自治州,玛沁县,,34.47733,100.23956,,,
3028,632622,中国,青海省,果洛藏族自治州,班玛县,,32.93269,100.7374,,,
3029,632623,中国,青海省,果洛藏族自治州,甘德县,,33.96921,99.90075,,,
3030,632624,中国,青海省,果洛藏族自治州,达日县,,33.74924,99.65153,,,
3031,632100,中国,青海省,海东地区,,海东,36.48209,102.40173,-14670,-6140,
3032,632123,中国,青海省,海东地区,乐都县,,36.48209,102.40173,,,
3033,632126,中国,青海省,海东地区,互助土族自治县,,36.84412,101.95842,,,
3034,632127,中国,青海省,海东地区,化隆回族自治县,,36.09493,102.26404,,,
3035,632121,中国,青海省,海东地区,平安县,,36.50029,102.10848,,,
3036,632128,中国,青海省,海东地区,循化撒拉族自治县,,35.8508,102.4891,,,
3037,632122,中国,青海省,海东地区,民和回族土族自治县,,36.32026,102.83087,,,
3038,632200,中国,青海省,海北藏族自治州,,海北,36.95454,100.90096,-32200,-18910,
3039,632224,中国,青海省,海北藏族自治州,刚察县,,37.32162,100.14682,,,
3040,632223,中国,青海省,海北藏族自治州,海晏县,,36.897,100.99504,,,
3041,632222,中国,青海省,海北藏族自治州,祁连县,,38.17709,100.25305,,,
3042,632221,中国,青海省,海北藏族自治州,门源回族自治县,,37.38828,101.6117,,,
3043,632500,中国,青海省,海南藏族自治州,,海南州,36.28663,100.62037,-29700,-4850,
3044,632521,中国,青海省,海南藏族自治州,共和县,,36.283,100.62012,,,
3045,632524,中国,青海省,海南藏族自治州,兴海县,,35.58868,99.98818,,,
3046,632522,中国,青海省,海南藏族自治州,同德县,,35.25386,100.57876,,,
3047,632525,中国,青海省,海南藏族自治州,贵南县,,35.58765,100.74784,,,
3048,632523,中国,青海省,海南藏族自治州,贵德县,,36.04004,101.4336,,,
3049,632800,中国,青海省,海西蒙古族藏族自治州,,海西州,37.3771,97.37122,-55660,-18960,
3050,632821,中国,青海省,海西蒙古族藏族自治州,乌兰县,,36.92976,98.48003,,,
3051,632824,中国,青海省,海西蒙古族藏族自治州,冷湖行政委员会,,37.3771,97.37122,,,
3052,632823,中国,青海省,海西蒙古族藏族自治州,天峻县,,37.30096,99.02293,,,
3053,632802,中国,青海省,海西蒙古族藏族自治州,德令哈市,,37.36947,97.36087,,,
3054,632801,中国,青海省,海西蒙古族藏族自治州,格尔木市,,36.4024,94.9033,,,
3055,632825,中国,青海省,海西蒙古族藏族自治州,海西蒙古族藏族自治州直辖,,37.3771,97.37122,,,
3056,632826,中国,青海省,海西蒙古族藏族自治州,茫崖行政委员会,,38.247631,90.856171,,,
3057,632822,中国,青海省,海西蒙古族藏族自治州,都兰县,,36.30386,98.09531,,,
3058,632700,中国,青海省,玉树藏族自治州,,玉树州,33.00528,97.0065,-64490,26000,
3059,632725,中国,青海省,玉树藏族自治州,囊谦县,,32.20295,96.48063,,,
3060,632726,中国,青海省,玉树藏族自治州,曲麻莱县,,34.12639,95.79722,,,
3061,632722,中国,青海省,玉树藏族自治州,杂多县,,32.89295,95.30102,,,
3062,632724,中国,青海省,玉树藏族自治州,治多县,,33.85203,95.61335,,,
3063,632721,中国,青海省,玉树藏族自治州,玉树县,,32.99336,97.00862,,,
3064,632723,中国,青海省,玉树藏族自治州,称多县,,33.36823,97.10865,,,
3065,630100,中国,青海省,西宁市,,西宁,36.62,101.77,-19990,-7200,
3066,630102,中国,青海省,西宁市,城东区,,36.59976,101.80319,,,
3067,630103,中国,青海省,西宁市,城中区,,36.5866,101.77013,,,
3068,630105,中国,青海省,西宁市,城北区,,36.6502,101.76628,,,
3069,630104,中国,青海省,西宁市,城西区,,36.6283,101.76585,,,
3070,630121,中国,青海省,西宁市,大通回族土族自治县,,36.92694,101.68545,,,
3071,630122,中国,青海省,西宁市,湟中县,,36.50087,101.57164,,,
3072,630123,中国,青海省,西宁市,湟源县,,36.68246,101.25648,,,
3073,632300,中国,青海省,黄南藏族自治州,,黄南州,35.51991,102.01507,-18170,4400,
3074,632321,中国,青海省,黄南藏族自治州,同仁县,,35.5163,102.01954,,,
3075,632322,中国,青海省,黄南藏族自治州,尖扎县,,35.93817,102.03102,,,
3076,632324,中国,青海省,黄南藏族自治州,河南蒙古族自治县,,34.73421,101.61649,,,
3077,632323,中国,青海省,黄南藏族自治州,泽库县,,35.03605,101.46594,,,
3078,810000,中国,香港特别行政区,,,香港,22.305,114.185,89300,144320,
3079,810003,中国,香港特别行政区,香港特别行政区,东区,,22.28137,114.22914,,,
3080,810001,中国,香港特别行政区,香港特别行政区,中西区,,22.27629,114.16368,,,
3081,810007,中国,香港特别行政区,香港特别行政区,九龙城区,,22.30818,114.18895,,,
3082,810012,中国,香港特别行政区,香港特别行政区,元朗区,,22.44243,114.03181,,,
3083,810013,中国,香港特别行政区,香港特别行政区,北区,,22.49181,114.14312,,,
3084,810004,中国,香港特别行政区,香港特别行政区,南区,,22.24543,114.15806,,,
3085,810014,中国,香港特别行政区,香港特别行政区,大埔区,,22.448,114.16946,,,
3086,810011,中国,香港特别行政区,香港特别行政区,屯门区,,22.38767,113.98029,,,
3087,810016,中国,香港特别行政区,香港特别行政区,沙田区,,22.3827,114.19191,,,
3088,810005,中国,香港特别行政区,香港特别行政区,油尖旺区,,22.31898,114.17738,,,
3089,810006,中国,香港特别行政区,香港特别行政区,深水埗区,,22.32921,114.16856,,,
3090,810002,中国,香港特别行政区,香港特别行政区,湾仔区,,22.27469,114.17778,,,
3091,810018,中国,香港特别行政区,香港特别行政区,离岛区,,22.2817,113.94691,,,
3092,810010,中国,香港特别行政区,香港特别行政区,荃湾区,,22.37145,114.12001,,,
3093,810017,中国,香港特别行政区,香港特别行政区,葵青区,,22.36055,114.13654,,,
3094,810015,中国,香港特别行政区,香港特别行政区,西贡区,,22.37943,114.27699,,,
3095,810009,中国,香港特别行政区,香港特别行政区,观塘区,,22.31057,114.2306,,,
3096,810008,中国,香港特别行政区,香港特别行政区,黄大仙区,,22.34003,114.19584,,,
3097,230000,中国,黑龙江省,,,,45.74792983743469,126.66965282041836,,,
3098,230900,中国,黑龙江省,七台河市,,七台河,45.8,130.85,199680,-120480,
3099,230921,中国,黑龙江省,七台河市,勃利县,,45.75506,130.59144,,,
3100,230902,中国,黑龙江省,七台河市,新兴区,,45.81597,130.9321,,,
3101,230903,中国,黑龙江省,七台河市,桃山区,,45.76554,131.02,,,
3102,230904,中国,黑龙江省,七台河市,茄子河区,,45.78487,131.06693,,,
3103,230700,中国,黑龙江省,伊春市,,伊春,47.6999,128.9,181930,-136990,
3104,230716,中国,黑龙江省,伊春市,上甘岭区,,47.97469,129.02439,,,
3105,230714,中国,黑龙江省,伊春市,乌伊岭区,,48.59057,129.43773,,,
3106,230711,中国,黑龙江省,伊春市,乌马河区,,47.72669,128.80019,,,
3107,230710,中国,黑龙江省,伊春市,五营区,,48.10802,129.24536,,,
3108,230702,中国,黑龙江省,伊春市,伊春区,,47.72798,128.90743,,,
3109,230703,中国,黑龙江省,伊春市,南岔区,,47.13799,129.28365,,,
3110,230704,中国,黑龙江省,伊春市,友好区,,47.8538,128.84071,,,
3111,230722,中国,黑龙江省,伊春市,嘉荫县,,48.88942,130.40308,,,
3112,230713,中国,黑龙江省,伊春市,带岭区,,47.02834,129.02057,,,
3113,230707,中国,黑龙江省,伊春市,新青区,,48.29045,129.53362,,,
3114,230712,中国,黑龙江省,伊春市,汤旺河区,,48.45469,129.57097,,,
3115,230715,中国,黑龙江省,伊春市,红星区,,48.23941,129.39081,,,
3116,230708,中国,黑龙江省,伊春市,美溪区,,47.63508,129.12925,,,
3117,230706,中国,黑龙江省,伊春市,翠峦区,,47.72582,128.669,,,
3118,230705,中国,黑龙江省,伊春市,西林区,,47.48081,129.31286,,,
3119,230709,中国,黑龙江省,伊春市,金山屯区,,47.41303,129.42899,,,
3120,230781,中国,黑龙江省,伊春市,铁力市,,46.98664,128.03243,,,
3121,230800,中国,黑龙江省,佳木斯市,,佳木斯,46.83,130.35,193960,-129830,
3122,230805,中国,黑龙江省,佳木斯市,东风区,,46.82252,130.40368,,,
3123,230804,中国,黑龙江省,佳木斯市,前进区,,46.81409,130.37525,,,
3124,230881,中国,黑龙江省,佳木斯市,同江市,,47.64213,132.51101,,,
3125,230803,中国,黑龙江省,佳木斯市,向阳区,,46.80774,130.36547,,,
3126,230882,中国,黑龙江省,佳木斯市,富锦市,,47.25022,132.03728,,,
3127,230833,中国,黑龙江省,佳木斯市,抚远县,,48.36485,134.30795,,,
3128,230822,中国,黑龙江省,佳木斯市,桦南县,,46.23925,130.55366,,,
3129,230826,中国,黑龙江省,佳木斯市,桦川县,,47.023,130.71898,,,
3130,230828,中国,黑龙江省,佳木斯市,汤原县,,46.73068,129.90495,,,
3131,230811,中国,黑龙江省,佳木斯市,郊区,,46.80975,130.32707,,,
3132,230500,中国,黑龙江省,双鸭山市,,双鸭山,46.6704,131.35,200180,-129670,
3133,230522,中国,黑龙江省,双鸭山市,友谊县,,46.76743,131.80795,,,
3134,230505,中国,黑龙江省,双鸭山市,四方台区,,46.59426,131.33446,,,
3135,230506,中国,黑龙江省,双鸭山市,宝山区,,46.57727,131.40178,,,
3136,230523,中国,黑龙江省,双鸭山市,宝清县,,46.32695,132.19708,,,
3137,230502,中国,黑龙江省,双鸭山市,尖山区,,46.64618,131.1584,,,
3138,230503,中国,黑龙江省,双鸭山市,岭东区,,46.54464,131.15214,,,
3139,230521,中国,黑龙江省,双鸭山市,集贤县,,46.72844,131.14115,,,
3140,230524,中国,黑龙江省,双鸭山市,饶河县,,46.7982,134.01324,,,
3141,230100,中国,黑龙江省,哈尔滨市,,哈尔滨,45.75,126.65,169010,-113690,
3142,230184,中国,黑龙江省,哈尔滨市,五常市,,44.93191,127.16746,,,
3143,230123,中国,黑龙江省,哈尔滨市,依兰县,,46.32489,129.56859,,,
3144,230103,中国,黑龙江省,哈尔滨市,南岗区,,45.76021,126.66837,,,
3145,230182,中国,黑龙江省,哈尔滨市,双城市,,45.38355,126.31227,,,
3146,230111,中国,黑龙江省,哈尔滨市,呼兰区,,45.88899,126.58796,,,
3147,230125,中国,黑龙江省,哈尔滨市,宾县,,45.75864,127.48586,,,
3148,230183,中国,黑龙江省,哈尔滨市,尚志市,,45.21102,127.96027,,,
3149,230126,中国,黑龙江省,哈尔滨市,巴彦县,,46.08536,127.4035,,,
3150,230108,中国,黑龙江省,哈尔滨市,平房区,,45.59799,126.63768,,,
3151,230129,中国,黑龙江省,哈尔滨市,延寿县,,45.4519,128.33162,,,
3152,230124,中国,黑龙江省,哈尔滨市,方正县,,45.85253,128.82707,,,
3153,230127,中国,黑龙江省,哈尔滨市,木兰县,,45.95038,128.04392,,,
3154,230109,中国,黑龙江省,哈尔滨市,松北区,,45.80825,126.56279,,,
3155,230128,中国,黑龙江省,哈尔滨市,通河县,,45.9901,128.74607,,,
3156,230104,中国,黑龙江省,哈尔滨市,道外区,,45.79201,126.64932,,,
3157,230102,中国,黑龙江省,哈尔滨市,道里区,,45.75567,126.61686,,,
3158,230112,中国,黑龙江省,哈尔滨市,阿城区,,45.54774,126.95717,,,
3159,230110,中国,黑龙江省,哈尔滨市,香坊区,,45.70847,126.66287,,,
3160,232700,中国,黑龙江省,大兴安岭地区,,大兴安岭,51.92398,124.59216,144330,-180560,
3161,232721,中国,黑龙江省,大兴安岭地区,呼玛县,,51.72606,126.65291,,,
3162,232722,中国,黑龙江省,大兴安岭地区,塔河县,,52.33432,124.71003,,,
3163,232723,中国,黑龙江省,大兴安岭地区,漠河县,,52.97209,122.53864,,,
3164,230600,中国,黑龙江省,大庆市,,大庆,46.58,125,155410,-121230,
3165,230606,中国,黑龙江省,大庆市,大同区,,46.03904,124.81056,,,
3166,230624,中国,黑龙江省,大庆市,杜尔伯特蒙古族自治县,,46.86231,124.44278,,,
3167,230623,中国,黑龙江省,大庆市,林甸县,,47.18298,124.8713,,,
3168,230605,中国,黑龙江省,大庆市,红岗区,,46.39818,124.89082,,,
3169,230621,中国,黑龙江省,大庆市,肇州县,,45.69886,125.26859,,,
3170,230622,中国,黑龙江省,大庆市,肇源县,,45.5183,125.07795,,,
3171,230602,中国,黑龙江省,大庆市,萨尔图区,,46.60302,125.05422,,,
3172,230604,中国,黑龙江省,大庆市,让胡路区,,46.65225,124.87083,,,
3173,230603,中国,黑龙江省,大庆市,龙凤区,,46.56182,125.13415,,,
3174,231000,中国,黑龙江省,牡丹江市,,牡丹江,44.59608,129.59176,193100,-106000,
3175,231024,中国,黑龙江省,牡丹江市,东宁县,,44.08694,131.12463,,,
3176,231002,中国,黑龙江省,牡丹江市,东安区,,44.58122,129.62672,,,
3177,231084,中国,黑龙江省,牡丹江市,宁安市,,44.34018,129.4828,,,
3178,231025,中国,黑龙江省,牡丹江市,林口县,,45.27782,130.28315,,,
3179,231083,中国,黑龙江省,牡丹江市,海林市,,44.59378,129.38064,,,
3180,231004,中国,黑龙江省,牡丹江市,爱民区,,44.59608,129.59176,,,
3181,231085,中国,黑龙江省,牡丹江市,穆棱市,,44.91883,130.52468,,,
3182,231081,中国,黑龙江省,牡丹江市,绥芬河市,,44.4132,131.15012,,,
3183,231005,中国,黑龙江省,牡丹江市,西安区,,44.5775,129.6161,,,
3184,231003,中国,黑龙江省,牡丹江市,阳明区,,44.5963,129.63559,,,
3185,231200,中国,黑龙江省,绥化市,,绥化,46.6373,126.98566,169340,-123690,
3186,231222,中国,黑龙江省,绥化市,兰西县,,46.25241,126.28788,,,
3187,231202,中国,黑龙江省,绥化市,北林区,,46.6373,126.98566,,,
3188,231281,中国,黑龙江省,绥化市,安达市,,46.41773,125.34379,,,
3189,231224,中国,黑龙江省,绥化市,庆安县,,46.8802,127.50758,,,
3190,231225,中国,黑龙江省,绥化市,明水县,,47.17332,125.906,,,
3191,231221,中国,黑龙江省,绥化市,望奎县,,46.83281,126.48602,,,
3192,231283,中国,黑龙江省,绥化市,海伦市,,47.4621,126.97338,,,
3193,231226,中国,黑龙江省,绥化市,绥棱县,,47.23609,127.11478,,,
3194,231282,中国,黑龙江省,绥化市,肇东市,,46.05121,125.9625,,,
3195,231223,中国,黑龙江省,绥化市,青冈县,,46.68966,126.11387,,,
3196,230300,中国,黑龙江省,鸡西市,,鸡西,45.3,130.97,201480,-115520,
3197,230306,中国,黑龙江省,鸡西市,城子河区,,45.33693,131.01136,,,
3198,230382,中国,黑龙江省,鸡西市,密山市,,45.52975,131.84631,,,
3199,230303,中国,黑龙江省,鸡西市,恒山区,,45.21072,130.90499,,,
3200,230305,中国,黑龙江省,鸡西市,梨树区,,45.09203,130.69708,,,
3201,230304,中国,黑龙江省,鸡西市,滴道区,,45.34872,130.84367,,,
3202,230381,中国,黑龙江省,鸡西市,虎林市,,45.76267,132.93695,,,
3203,230321,中国,黑龙江省,鸡西市,鸡东县,,45.26002,131.12408,,,
3204,230302,中国,黑龙江省,鸡西市,鸡冠区,,45.30412,130.98084,,,
3205,230307,中国,黑龙江省,鸡西市,麻山区,,45.21213,130.47817,,,
3206,230400,中国,黑龙江省,鹤岗市,,鹤岗,47.4,130.37,192490,-135370,
3207,230406,中国,黑龙江省,鹤岗市,东山区,,47.33872,130.31755,,,
3208,230405,中国,黑龙江省,鹤岗市,兴安区,,47.25286,130.23924,,,
3209,230407,中国,黑龙江省,鹤岗市,兴山区,,47.3846,130.33302,,,
3210,230404,中国,黑龙江省,鹤岗市,南山区,,47.31506,130.28714,,,
3211,230402,中国,黑龙江省,鹤岗市,向阳区,,47.34254,130.2943,,,
3212,230403,中国,黑龙江省,鹤岗市,工农区,,47.31872,130.27482,,,
3213,230422,中国,黑龙江省,鹤岗市,绥滨县,,47.28906,131.85224,,,
3214,230421,中国,黑龙江省,鹤岗市,萝北县,,47.57752,130.8286,,,
3215,231100,中国,黑龙江省,黑河市,,黑河,50.25,127.446,166340,-161130,
3216,231182,中国,黑龙江省,黑河市,五大连池市,,48.51649,126.20451,,,
3217,231181,中国,黑龙江省,黑河市,北安市,,48.24146,126.49108,,,
3218,231121,中国,黑龙江省,黑河市,嫩江县,,49.18572,125.22094,,,
3219,231124,中国,黑龙江省,黑河市,孙吴县,,49.42543,127.33605,,,
3220,231102,中国,黑龙江省,黑河市,爱辉区,,50.2521,127.50048,,,
3221,231123,中国,黑龙江省,黑河市,逊克县,,49.56437,128.47871,,,
3222,230200,中国,黑龙江省,齐齐哈尔市,,齐齐哈尔,47.345,123.99,146050,-127490,
3223,230223,中国,黑龙江省,齐齐哈尔市,依安县,,47.89349,125.30621,,,
3224,230230,中国,黑龙江省,齐齐哈尔市,克东县,,48.04167,126.24871,,,
3225,230229,中国,黑龙江省,齐齐哈尔市,克山县,,48.03694,125.87561,,,
3226,230206,中国,黑龙江省,齐齐哈尔市,富拉尔基区,,47.2089,123.62937,,,
3227,230227,中国,黑龙江省,齐齐哈尔市,富裕县,,47.77533,124.47387,,,
3228,230203,中国,黑龙江省,齐齐哈尔市,建华区,,47.35434,123.95546,,,
3229,230231,中国,黑龙江省,齐齐哈尔市,拜泉县,,47.59569,126.10005,,,
3230,230205,中国,黑龙江省,齐齐哈尔市,昂昂溪区,,47.15517,123.82234,,,
3231,230208,中国,黑龙江省,齐齐哈尔市,梅里斯达斡尔族区,,47.3095,123.75281,,,
3232,230224,中国,黑龙江省,齐齐哈尔市,泰来县,,46.39389,123.41738,,,
3233,230225,中国,黑龙江省,齐齐哈尔市,甘南县,,47.92037,123.50624,,,
3234,230207,中国,黑龙江省,齐齐哈尔市,碾子山区,,47.51698,122.88777,,,
3235,230281,中国,黑龙江省,齐齐哈尔市,讷河市,,48.48419,124.88397,,,
3236,230204,中国,黑龙江省,齐齐哈尔市,铁锋区,,47.34076,123.97807,,,
3237,230221,中国,黑龙江省,齐齐哈尔市,龙江县,,47.33737,123.20483,,,
3238,230202,中国,黑龙江省,齐齐哈尔市,龙沙区,,47.31742,123.95763,,,
3239,652202,中国,新疆维吾尔自治区,哈密地区,伊州区,,42.82699,93.51465,,,
3240,150603,中国,内蒙古自治区,鄂尔多斯市,康巴什区,,39.60837,109.85851,,,
3241,440310,中国,广东省,深圳市,坪山区,,22.69084,114.34632,,,
3242,440309,中国,广东省,深圳市,龙华区,,22.72174,114.06031,,,
3243,341504,中国,安徽省,六安市,叶集区,,31.85122,115.9133,,,
3244,451103,中国,广西壮族自治区,贺州市,平桂区,,24.45296,111.47971,,,
3245,320214,中国,江苏省,无锡市,新吴区,,31.49055,120.36434,,,
3246,659009,中国,新疆维吾尔自治区,昆玉市,昆玉,,37.210957,79.283562,,,
3247,310000,中国,上海市,,,上海,31.2165,121.4365,149120,46240,